name,license,city,state,phone,addr,day,open,closed
"Opus Mainstreet", "NJ13745", "South Plainfield", "NJ", "4646051398", "8611 Cobblestone Avenue", 1, "110000", "000000"
"Opus Mainstreet", "NJ13745", "South Plainfield", "NJ", "4646051398", "8611 Cobblestone Avenue", 2, "110000", "000000"
"Opus Mainstreet", "NJ13745", "South Plainfield", "NJ", "4646051398", "8611 Cobblestone Avenue", 3, "110000", "000000"
"Opus Mainstreet", "NJ13745", "South Plainfield", "NJ", "4646051398", "8611 Cobblestone Avenue", 4, "110000", "000000"
"Opus Mainstreet", "NJ13745", "South Plainfield", "NJ", "4646051398", "8611 Cobblestone Avenue", 5, "110000", "000000"
"Opus Mainstreet", "NJ13745", "South Plainfield", "NJ", "4646051398", "8611 Cobblestone Avenue", 6, "110000", "000000"
"Opus Mainstreet", "NJ13745", "South Plainfield", "NJ", "4646051398", "8611 Cobblestone Avenue", 7, "110000", "000000"
"Caledonia Lounge", "FL83160", "Fernandina Beach", "FL", "2795932312", "7669 Augusta Ave.", 1, "160000", "010000"
"Caledonia Lounge", "FL83160", "Fernandina Beach", "FL", "2795932312", "7669 Augusta Ave.", 2, "160000", "010000"
"Caledonia Lounge", "FL83160", "Fernandina Beach", "FL", "2795932312", "7669 Augusta Ave.", 3, "070000", "160000"
"Caledonia Lounge", "FL83160", "Fernandina Beach", "FL", "2795932312", "7669 Augusta Ave.", 4, "110000", "230000"
"Caledonia Lounge", "FL83160", "Fernandina Beach", "FL", "2795932312", "7669 Augusta Ave.", 5, "110000", "230000"
"Caledonia Lounge", "FL83160", "Fernandina Beach", "FL", "2795932312", "7669 Augusta Ave.", 6, "110000", "230000"
"Caledonia Lounge", "FL83160", "Fernandina Beach", "FL", "2795932312", "7669 Augusta Ave.", 7, "110000", "230000"
"Ivar's Sports Bar & Grill", "IN48498", "Bloomington", "IN", "6385676766", "45 Thompson Drive", 1, "110000", "220000"
"Ivar's Sports Bar & Grill", "IN48498", "Bloomington", "IN", "6385676766", "45 Thompson Drive", 2, "110000", "220000"
"Ivar's Sports Bar & Grill", "IN48498", "Bloomington", "IN", "6385676766", "45 Thompson Drive", 3, "110000", "220000"
"Ivar's Sports Bar & Grill", "IN48498", "Bloomington", "IN", "6385676766", "45 Thompson Drive", 4, "110000", "220000"
"Ivar's Sports Bar & Grill", "IN48498", "Bloomington", "IN", "6385676766", "45 Thompson Drive", 5, "110000", "220000"
"Ivar's Sports Bar & Grill", "IN48498", "Bloomington", "IN", "6385676766", "45 Thompson Drive", 6, "080000", "140000"
"Ivar's Sports Bar & Grill", "IN48498", "Bloomington", "IN", "6385676766", "45 Thompson Drive", 7, "110000", "220000"
"J R's Bar & Grill Inc", "MI22630", "Northville", "MI", "5617241217", "38 53rd St.", 1, "210000", "010000"
"J R's Bar & Grill Inc", "MI22630", "Northville", "MI", "5617241217", "38 53rd St.", 2, "210000", "010000"
"J R's Bar & Grill Inc", "MI22630", "Northville", "MI", "5617241217", "38 53rd St.", 3, "210000", "010000"
"J R's Bar & Grill Inc", "MI22630", "Northville", "MI", "5617241217", "38 53rd St.", 4, "200000", "000000"
"J R's Bar & Grill Inc", "MI22630", "Northville", "MI", "5617241217", "38 53rd St.", 5, "210000", "010000"
"J R's Bar & Grill Inc", "MI22630", "Northville", "MI", "5617241217", "38 53rd St.", 6, "210000", "010000"
"J R's Bar & Grill Inc", "MI22630", "Northville", "MI", "5617241217", "38 53rd St.", 7, "210000", "010000"
"Karma Lounge Ltd", "KY21119", "Henderson", "KY", "6808156243", "259 High Noon St.", 1, "160000", "220000"
"Karma Lounge Ltd", "KY21119", "Henderson", "KY", "6808156243", "259 High Noon St.", 2, "160000", "220000"
"Karma Lounge Ltd", "KY21119", "Henderson", "KY", "6808156243", "259 High Noon St.", 3, "160000", "220000"
"Karma Lounge Ltd", "KY21119", "Henderson", "KY", "6808156243", "259 High Noon St.", 4, "160000", "220000"
"Karma Lounge Ltd", "KY21119", "Henderson", "KY", "6808156243", "259 High Noon St.", 5, "160000", "220000"
"Karma Lounge Ltd", "KY21119", "Henderson", "KY", "6808156243", "259 High Noon St.", 6, "160000", "220000"
"Karma Lounge Ltd", "KY21119", "Henderson", "KY", "6808156243", "259 High Noon St.", 7, "200000", "020000"
"Sinners Gentlemen's Club", "PA86363", "Ambler", "PA", "9366934706", "6 Washington St.", 1, "190000", "020000"
"Sinners Gentlemen's Club", "PA86363", "Ambler", "PA", "9366934706", "6 Washington St.", 2, "190000", "020000"
"Sinners Gentlemen's Club", "PA86363", "Ambler", "PA", "9366934706", "6 Washington St.", 3, "190000", "020000"
"Sinners Gentlemen's Club", "PA86363", "Ambler", "PA", "9366934706", "6 Washington St.", 4, "190000", "020000"
"Sinners Gentlemen's Club", "PA86363", "Ambler", "PA", "9366934706", "6 Washington St.", 5, "190000", "230000"
"Sinners Gentlemen's Club", "PA86363", "Ambler", "PA", "9366934706", "6 Washington St.", 6, "190000", "020000"
"Sinners Gentlemen's Club", "PA86363", "Ambler", "PA", "9366934706", "6 Washington St.", 7, "190000", "020000"
"Hilltop Tavern", "ND77342", "Bismarck", "ND", "3897665408", "7639 South Stillwater Street", 1, "150000", "010000"
"Hilltop Tavern", "ND77342", "Bismarck", "ND", "3897665408", "7639 South Stillwater Street", 2, "060000", "230000"
"Hilltop Tavern", "ND77342", "Bismarck", "ND", "3897665408", "7639 South Stillwater Street", 3, "060000", "230000"
"Hilltop Tavern", "ND77342", "Bismarck", "ND", "3897665408", "7639 South Stillwater Street", 4, "060000", "230000"
"Hilltop Tavern", "ND77342", "Bismarck", "ND", "3897665408", "7639 South Stillwater Street", 5, "060000", "230000"
"Hilltop Tavern", "ND77342", "Bismarck", "ND", "3897665408", "7639 South Stillwater Street", 6, "150000", "010000"
"Hilltop Tavern", "ND77342", "Bismarck", "ND", "3897665408", "7639 South Stillwater Street", 7, "060000", "230000"
"The Osthelder Saloon", "MS52013", "Oxford", "MS", "2158558095", "1 Tower St.", 1, "160000", "010000"
"The Osthelder Saloon", "MS52013", "Oxford", "MS", "2158558095", "1 Tower St.", 2, "160000", "010000"
"The Osthelder Saloon", "MS52013", "Oxford", "MS", "2158558095", "1 Tower St.", 3, "160000", "010000"
"The Osthelder Saloon", "MS52013", "Oxford", "MS", "2158558095", "1 Tower St.", 4, "160000", "010000"
"The Osthelder Saloon", "MS52013", "Oxford", "MS", "2158558095", "1 Tower St.", 5, "160000", "010000"
"The Osthelder Saloon", "MS52013", "Oxford", "MS", "2158558095", "1 Tower St.", 6, "100000", "200000"
"The Osthelder Saloon", "MS52013", "Oxford", "MS", "2158558095", "1 Tower St.", 7, "100000", "200000"
"N V Penthouse Lounge", "IL87996", "Villa Park", "IL", "5109123761", "2 Lafayette St.", 1, "180000", "220000"
"N V Penthouse Lounge", "IL87996", "Villa Park", "IL", "5109123761", "2 Lafayette St.", 2, "180000", "220000"
"N V Penthouse Lounge", "IL87996", "Villa Park", "IL", "5109123761", "2 Lafayette St.", 3, "180000", "220000"
"N V Penthouse Lounge", "IL87996", "Villa Park", "IL", "5109123761", "2 Lafayette St.", 4, "180000", "220000"
"N V Penthouse Lounge", "IL87996", "Villa Park", "IL", "5109123761", "2 Lafayette St.", 5, "180000", "220000"
"N V Penthouse Lounge", "IL87996", "Villa Park", "IL", "5109123761", "2 Lafayette St.", 6, "180000", "220000"
"N V Penthouse Lounge", "IL87996", "Villa Park", "IL", "5109123761", "2 Lafayette St.", 7, "180000", "220000"
"Niko's Lodge Bar & Grill", "MT22003", "Helena", "MT", "9539782427", "39 Fulton Ave.", 1, "110000", "220000"
"Niko's Lodge Bar & Grill", "MT22003", "Helena", "MT", "9539782427", "39 Fulton Ave.", 2, "110000", "220000"
"Niko's Lodge Bar & Grill", "MT22003", "Helena", "MT", "9539782427", "39 Fulton Ave.", 3, "110000", "220000"
"Niko's Lodge Bar & Grill", "MT22003", "Helena", "MT", "9539782427", "39 Fulton Ave.", 4, "110000", "220000"
"Niko's Lodge Bar & Grill", "MT22003", "Helena", "MT", "9539782427", "39 Fulton Ave.", 5, "110000", "220000"
"Niko's Lodge Bar & Grill", "MT22003", "Helena", "MT", "9539782427", "39 Fulton Ave.", 6, "110000", "220000"
"Niko's Lodge Bar & Grill", "MT22003", "Helena", "MT", "9539782427", "39 Fulton Ave.", 7, "110000", "220000"
"Double Olive Lounge", "LA69203", "New Orleans", "LA", "3153975058", "7917 Jockey Hollow Drive", 1, "160000", "040000"
"Double Olive Lounge", "LA69203", "New Orleans", "LA", "3153975058", "7917 Jockey Hollow Drive", 2, "160000", "040000"
"Double Olive Lounge", "LA69203", "New Orleans", "LA", "3153975058", "7917 Jockey Hollow Drive", 3, "160000", "040000"
"Double Olive Lounge", "LA69203", "New Orleans", "LA", "3153975058", "7917 Jockey Hollow Drive", 4, "160000", "040000"
"Double Olive Lounge", "LA69203", "New Orleans", "LA", "3153975058", "7917 Jockey Hollow Drive", 5, "160000", "040000"
"Double Olive Lounge", "LA69203", "New Orleans", "LA", "3153975058", "7917 Jockey Hollow Drive", 6, "160000", "040000"
"Double Olive Lounge", "LA69203", "New Orleans", "LA", "3153975058", "7917 Jockey Hollow Drive", 7, "160000", "040000"
"Sportsman", "TX88218", "Mcallen", "TX", "9428218182", "8638 N. Overlook Avenue", 1, "120000", "160000"
"Sportsman", "TX88218", "Mcallen", "TX", "9428218182", "8638 N. Overlook Avenue", 2, "120000", "160000"
"Sportsman", "TX88218", "Mcallen", "TX", "9428218182", "8638 N. Overlook Avenue", 3, "120000", "160000"
"Sportsman", "TX88218", "Mcallen", "TX", "9428218182", "8638 N. Overlook Avenue", 4, "120000", "160000"
"Sportsman", "TX88218", "Mcallen", "TX", "9428218182", "8638 N. Overlook Avenue", 5, "170000", "230000"
"Sportsman", "TX88218", "Mcallen", "TX", "9428218182", "8638 N. Overlook Avenue", 6, "170000", "230000"
"Sportsman", "TX88218", "Mcallen", "TX", "9428218182", "8638 N. Overlook Avenue", 7, "140000", "210000"
"Sutliff Bar & Grill", "NC28247", "Elizabeth City", "NC", "9048705241", "35 Greystone St.", 1, "160000", "220000"
"Sutliff Bar & Grill", "NC28247", "Elizabeth City", "NC", "9048705241", "35 Greystone St.", 2, "160000", "220000"
"Sutliff Bar & Grill", "NC28247", "Elizabeth City", "NC", "9048705241", "35 Greystone St.", 3, "160000", "220000"
"Sutliff Bar & Grill", "NC28247", "Elizabeth City", "NC", "9048705241", "35 Greystone St.", 4, "160000", "220000"
"Sutliff Bar & Grill", "NC28247", "Elizabeth City", "NC", "9048705241", "35 Greystone St.", 5, "160000", "220000"
"Sutliff Bar & Grill", "NC28247", "Elizabeth City", "NC", "9048705241", "35 Greystone St.", 6, "160000", "220000"
"Sutliff Bar & Grill", "NC28247", "Elizabeth City", "NC", "9048705241", "35 Greystone St.", 7, "160000", "220000"
"Station", "OH52956", "Stow", "OH", "7292287086", "7 East Monroe Dr.", 1, "170000", "230000"
"Station", "OH52956", "Stow", "OH", "7292287086", "7 East Monroe Dr.", 2, "170000", "230000"
"Station", "OH52956", "Stow", "OH", "7292287086", "7 East Monroe Dr.", 3, "170000", "230000"
"Station", "OH52956", "Stow", "OH", "7292287086", "7 East Monroe Dr.", 4, "170000", "230000"
"Station", "OH52956", "Stow", "OH", "7292287086", "7 East Monroe Dr.", 5, "170000", "230000"
"Station", "OH52956", "Stow", "OH", "7292287086", "7 East Monroe Dr.", 6, "170000", "230000"
"Station", "OH52956", "Stow", "OH", "7292287086", "7 East Monroe Dr.", 7, "170000", "230000"
"Toc Bar", "GA38990", "Mcdonough", "GA", "8304358832", "38 College St.", 1, "210000", "010000"
"Toc Bar", "GA38990", "Mcdonough", "GA", "8304358832", "38 College St.", 2, "210000", "010000"
"Toc Bar", "GA38990", "Mcdonough", "GA", "8304358832", "38 College St.", 3, "210000", "010000"
"Toc Bar", "GA38990", "Mcdonough", "GA", "8304358832", "38 College St.", 4, "210000", "010000"
"Toc Bar", "GA38990", "Mcdonough", "GA", "8304358832", "38 College St.", 5, "210000", "010000"
"Toc Bar", "GA38990", "Mcdonough", "GA", "8304358832", "38 College St.", 6, "210000", "010000"
"Toc Bar", "GA38990", "Mcdonough", "GA", "8304358832", "38 College St.", 7, "210000", "010000"
"Lanigan's Irish Pub & Eatery", "WI62999", "West Bend", "WI", "9139261854", "7409 E. Homestead St.", 1, "150000", "000000"
"Lanigan's Irish Pub & Eatery", "WI62999", "West Bend", "WI", "9139261854", "7409 E. Homestead St.", 2, "150000", "000000"
"Lanigan's Irish Pub & Eatery", "WI62999", "West Bend", "WI", "9139261854", "7409 E. Homestead St.", 3, "150000", "000000"
"Lanigan's Irish Pub & Eatery", "WI62999", "West Bend", "WI", "9139261854", "7409 E. Homestead St.", 4, "150000", "000000"
"Lanigan's Irish Pub & Eatery", "WI62999", "West Bend", "WI", "9139261854", "7409 E. Homestead St.", 5, "130000", "190000"
"Lanigan's Irish Pub & Eatery", "WI62999", "West Bend", "WI", "9139261854", "7409 E. Homestead St.", 6, "150000", "000000"
"Lanigan's Irish Pub & Eatery", "WI62999", "West Bend", "WI", "9139261854", "7409 E. Homestead St.", 7, "150000", "000000"
"Milo's Sports Tavern", "NY23981", "Ballston Spa", "NY", "6818971177", "51 Glenlake Circle", 1, "140000", "180000"
"Milo's Sports Tavern", "NY23981", "Ballston Spa", "NY", "6818971177", "51 Glenlake Circle", 2, "140000", "180000"
"Milo's Sports Tavern", "NY23981", "Ballston Spa", "NY", "6818971177", "51 Glenlake Circle", 3, "090000", "180000"
"Milo's Sports Tavern", "NY23981", "Ballston Spa", "NY", "6818971177", "51 Glenlake Circle", 4, "090000", "180000"
"Milo's Sports Tavern", "NY23981", "Ballston Spa", "NY", "6818971177", "51 Glenlake Circle", 5, "090000", "180000"
"Milo's Sports Tavern", "NY23981", "Ballston Spa", "NY", "6818971177", "51 Glenlake Circle", 6, "140000", "180000"
"Milo's Sports Tavern", "NY23981", "Ballston Spa", "NY", "6818971177", "51 Glenlake Circle", 7, "090000", "180000"
"Jake's Old City Grill", "MD78076", "Bel Air", "MD", "2005190978", "8207 Nicolls Street", 1, "200000", "010000"
"Jake's Old City Grill", "MD78076", "Bel Air", "MD", "2005190978", "8207 Nicolls Street", 2, "200000", "010000"
"Jake's Old City Grill", "MD78076", "Bel Air", "MD", "2005190978", "8207 Nicolls Street", 3, "200000", "010000"
"Jake's Old City Grill", "MD78076", "Bel Air", "MD", "2005190978", "8207 Nicolls Street", 4, "200000", "010000"
"Jake's Old City Grill", "MD78076", "Bel Air", "MD", "2005190978", "8207 Nicolls Street", 5, "200000", "010000"
"Jake's Old City Grill", "MD78076", "Bel Air", "MD", "2005190978", "8207 Nicolls Street", 6, "200000", "010000"
"Jake's Old City Grill", "MD78076", "Bel Air", "MD", "2005190978", "8207 Nicolls Street", 7, "200000", "010000"
"Jack's Place", "TN49979", "Johnson City", "TN", "4147543080", "8343 Overlook St.", 1, "220000", "030000"
"Jack's Place", "TN49979", "Johnson City", "TN", "4147543080", "8343 Overlook St.", 2, "220000", "030000"
"Jack's Place", "TN49979", "Johnson City", "TN", "4147543080", "8343 Overlook St.", 3, "220000", "030000"
"Jack's Place", "TN49979", "Johnson City", "TN", "4147543080", "8343 Overlook St.", 4, "160000", "220000"
"Jack's Place", "TN49979", "Johnson City", "TN", "4147543080", "8343 Overlook St.", 5, "160000", "220000"
"Jack's Place", "TN49979", "Johnson City", "TN", "4147543080", "8343 Overlook St.", 6, "220000", "030000"
"Jack's Place", "TN49979", "Johnson City", "TN", "4147543080", "8343 Overlook St.", 7, "160000", "220000"
"Chris Cocallas", "OK92954", "Muskogee", "OK", "5235156262", "7129 Peachtree Rd.", 1, "060000", "200000"
"Chris Cocallas", "OK92954", "Muskogee", "OK", "5235156262", "7129 Peachtree Rd.", 2, "060000", "200000"
"Chris Cocallas", "OK92954", "Muskogee", "OK", "5235156262", "7129 Peachtree Rd.", 3, "060000", "200000"
"Chris Cocallas", "OK92954", "Muskogee", "OK", "5235156262", "7129 Peachtree Rd.", 4, "060000", "200000"
"Chris Cocallas", "OK92954", "Muskogee", "OK", "5235156262", "7129 Peachtree Rd.", 5, "060000", "200000"
"Chris Cocallas", "OK92954", "Muskogee", "OK", "5235156262", "7129 Peachtree Rd.", 6, "060000", "200000"
"Chris Cocallas", "OK92954", "Muskogee", "OK", "5235156262", "7129 Peachtree Rd.", 7, "060000", "200000"
"County Line Pub", "VA65308", "Charlottesville", "VA", "8863802163", "672 S. Bay Street", 1, "080000", "230000"
"County Line Pub", "VA65308", "Charlottesville", "VA", "8863802163", "672 S. Bay Street", 2, "080000", "230000"
"County Line Pub", "VA65308", "Charlottesville", "VA", "8863802163", "672 S. Bay Street", 3, "080000", "230000"
"County Line Pub", "VA65308", "Charlottesville", "VA", "8863802163", "672 S. Bay Street", 4, "080000", "230000"
"County Line Pub", "VA65308", "Charlottesville", "VA", "8863802163", "672 S. Bay Street", 5, "080000", "230000"
"County Line Pub", "VA65308", "Charlottesville", "VA", "8863802163", "672 S. Bay Street", 6, "080000", "230000"
"County Line Pub", "VA65308", "Charlottesville", "VA", "8863802163", "672 S. Bay Street", 7, "080000", "230000"
"Jekyll & Hydes", "MA45301", "Marlborough", "MA", "7562109216", "298 Harrison St.", 1, "090000", "200000"
"Jekyll & Hydes", "MA45301", "Marlborough", "MA", "7562109216", "298 Harrison St.", 2, "090000", "170000"
"Jekyll & Hydes", "MA45301", "Marlborough", "MA", "7562109216", "298 Harrison St.", 3, "090000", "200000"
"Jekyll & Hydes", "MA45301", "Marlborough", "MA", "7562109216", "298 Harrison St.", 4, "090000", "200000"
"Jekyll & Hydes", "MA45301", "Marlborough", "MA", "7562109216", "298 Harrison St.", 5, "090000", "200000"
"Jekyll & Hydes", "MA45301", "Marlborough", "MA", "7562109216", "298 Harrison St.", 6, "090000", "200000"
"Jekyll & Hydes", "MA45301", "Marlborough", "MA", "7562109216", "298 Harrison St.", 7, "090000", "170000"
"Modoggies Bar & Grill", "AL80246", "Alabaster", "AL", "3815852247", "8 Livingston Street", 1, "100000", "170000"
"Modoggies Bar & Grill", "AL80246", "Alabaster", "AL", "3815852247", "8 Livingston Street", 2, "100000", "170000"
"Modoggies Bar & Grill", "AL80246", "Alabaster", "AL", "3815852247", "8 Livingston Street", 3, "100000", "170000"
"Modoggies Bar & Grill", "AL80246", "Alabaster", "AL", "3815852247", "8 Livingston Street", 4, "100000", "170000"
"Modoggies Bar & Grill", "AL80246", "Alabaster", "AL", "3815852247", "8 Livingston Street", 5, "100000", "170000"
"Modoggies Bar & Grill", "AL80246", "Alabaster", "AL", "3815852247", "8 Livingston Street", 6, "100000", "170000"
"Modoggies Bar & Grill", "AL80246", "Alabaster", "AL", "3815852247", "8 Livingston Street", 7, "100000", "170000"
"40 Watt Club", "CT93861", "Westport", "CT", "2509509793", "91 Riverview Dr.", 1, "080000", "230000"
"40 Watt Club", "CT93861", "Westport", "CT", "2509509793", "91 Riverview Dr.", 2, "080000", "230000"
"40 Watt Club", "CT93861", "Westport", "CT", "2509509793", "91 Riverview Dr.", 3, "080000", "230000"
"40 Watt Club", "CT93861", "Westport", "CT", "2509509793", "91 Riverview Dr.", 4, "080000", "230000"
"40 Watt Club", "CT93861", "Westport", "CT", "2509509793", "91 Riverview Dr.", 5, "080000", "230000"
"40 Watt Club", "CT93861", "Westport", "CT", "2509509793", "91 Riverview Dr.", 6, "080000", "230000"
"40 Watt Club", "CT93861", "Westport", "CT", "2509509793", "91 Riverview Dr.", 7, "080000", "230000"
"Schileens Pub", "CA22175", "Apple Valley", "CA", "9508944002", "9903 Bradford St.", 1, "200000", "000000"
"Schileens Pub", "CA22175", "Apple Valley", "CA", "9508944002", "9903 Bradford St.", 2, "200000", "000000"
"Schileens Pub", "CA22175", "Apple Valley", "CA", "9508944002", "9903 Bradford St.", 3, "200000", "000000"
"Schileens Pub", "CA22175", "Apple Valley", "CA", "9508944002", "9903 Bradford St.", 4, "100000", "190000"
"Schileens Pub", "CA22175", "Apple Valley", "CA", "9508944002", "9903 Bradford St.", 5, "200000", "000000"
"Schileens Pub", "CA22175", "Apple Valley", "CA", "9508944002", "9903 Bradford St.", 6, "200000", "000000"
"Schileens Pub", "CA22175", "Apple Valley", "CA", "9508944002", "9903 Bradford St.", 7, "200000", "000000"
"D & J Web Solutions", "CO43387", "Arvada", "CO", "9038594669", "325 Elm Rd.", 1, "170000", "220000"
"D & J Web Solutions", "CO43387", "Arvada", "CO", "9038594669", "325 Elm Rd.", 2, "200000", "020000"
"D & J Web Solutions", "CO43387", "Arvada", "CO", "9038594669", "325 Elm Rd.", 3, "170000", "220000"
"D & J Web Solutions", "CO43387", "Arvada", "CO", "9038594669", "325 Elm Rd.", 4, "200000", "020000"
"D & J Web Solutions", "CO43387", "Arvada", "CO", "9038594669", "325 Elm Rd.", 5, "170000", "000000"
"D & J Web Solutions", "CO43387", "Arvada", "CO", "9038594669", "325 Elm Rd.", 6, "200000", "020000"
"D & J Web Solutions", "CO43387", "Arvada", "CO", "9038594669", "325 Elm Rd.", 7, "170000", "000000"
"Big Al's", "RI53253", "Warwick", "RI", "2083217424", "9211 Prospect Dr.", 1, "210000", "010000"
"Big Al's", "RI53253", "Warwick", "RI", "2083217424", "9211 Prospect Dr.", 2, "210000", "010000"
"Big Al's", "RI53253", "Warwick", "RI", "2083217424", "9211 Prospect Dr.", 3, "210000", "010000"
"Big Al's", "RI53253", "Warwick", "RI", "2083217424", "9211 Prospect Dr.", 4, "140000", "000000"
"Big Al's", "RI53253", "Warwick", "RI", "2083217424", "9211 Prospect Dr.", 5, "140000", "000000"
"Big Al's", "RI53253", "Warwick", "RI", "2083217424", "9211 Prospect Dr.", 6, "140000", "000000"
"Big Al's", "RI53253", "Warwick", "RI", "2083217424", "9211 Prospect Dr.", 7, "210000", "010000"
"Bottle & Cork", "NH43718", "Merrimack", "NH", "4846310541", "11 Brewery Street", 1, "190000", "230000"
"Bottle & Cork", "NH43718", "Merrimack", "NH", "4846310541", "11 Brewery Street", 2, "190000", "230000"
"Bottle & Cork", "NH43718", "Merrimack", "NH", "4846310541", "11 Brewery Street", 3, "190000", "230000"
"Bottle & Cork", "NH43718", "Merrimack", "NH", "4846310541", "11 Brewery Street", 4, "190000", "230000"
"Bottle & Cork", "NH43718", "Merrimack", "NH", "4846310541", "11 Brewery Street", 5, "190000", "230000"
"Bottle & Cork", "NH43718", "Merrimack", "NH", "4846310541", "11 Brewery Street", 6, "190000", "230000"
"Bottle & Cork", "NH43718", "Merrimack", "NH", "4846310541", "11 Brewery Street", 7, "190000", "230000"
"Mugshots Bar", "OR89078", "Klamath Falls", "OR", "2985441107", "82 Lakeshore St.", 1, "180000", "010000"
"Mugshots Bar", "OR89078", "Klamath Falls", "OR", "2985441107", "82 Lakeshore St.", 2, "180000", "010000"
"Mugshots Bar", "OR89078", "Klamath Falls", "OR", "2985441107", "82 Lakeshore St.", 3, "180000", "010000"
"Mugshots Bar", "OR89078", "Klamath Falls", "OR", "2985441107", "82 Lakeshore St.", 4, "180000", "010000"
"Mugshots Bar", "OR89078", "Klamath Falls", "OR", "2985441107", "82 Lakeshore St.", 5, "180000", "010000"
"Mugshots Bar", "OR89078", "Klamath Falls", "OR", "2985441107", "82 Lakeshore St.", 6, "180000", "010000"
"Mugshots Bar", "OR89078", "Klamath Falls", "OR", "2985441107", "82 Lakeshore St.", 7, "180000", "010000"
"For Pete's Sake", "SD68114", "Aberdeen", "SD", "3607988323", "9763 E. St Louis St.", 1, "100000", "160000"
"For Pete's Sake", "SD68114", "Aberdeen", "SD", "3607988323", "9763 E. St Louis St.", 2, "100000", "160000"
"For Pete's Sake", "SD68114", "Aberdeen", "SD", "3607988323", "9763 E. St Louis St.", 3, "100000", "160000"
"For Pete's Sake", "SD68114", "Aberdeen", "SD", "3607988323", "9763 E. St Louis St.", 4, "100000", "160000"
"For Pete's Sake", "SD68114", "Aberdeen", "SD", "3607988323", "9763 E. St Louis St.", 5, "100000", "160000"
"For Pete's Sake", "SD68114", "Aberdeen", "SD", "3607988323", "9763 E. St Louis St.", 6, "100000", "160000"
"For Pete's Sake", "SD68114", "Aberdeen", "SD", "3607988323", "9763 E. St Louis St.", 7, "100000", "160000"
"Shank's Tavern", "WV83918", "Fairmont", "WV", "5272451790", "9278 Water St.", 1, "140000", "220000"
"Shank's Tavern", "WV83918", "Fairmont", "WV", "5272451790", "9278 Water St.", 2, "140000", "220000"
"Shank's Tavern", "WV83918", "Fairmont", "WV", "5272451790", "9278 Water St.", 3, "140000", "220000"
"Shank's Tavern", "WV83918", "Fairmont", "WV", "5272451790", "9278 Water St.", 4, "140000", "220000"
"Shank's Tavern", "WV83918", "Fairmont", "WV", "5272451790", "9278 Water St.", 5, "140000", "220000"
"Shank's Tavern", "WV83918", "Fairmont", "WV", "5272451790", "9278 Water St.", 6, "070000", "230000"
"Shank's Tavern", "WV83918", "Fairmont", "WV", "5272451790", "9278 Water St.", 7, "070000", "230000"
"Double Down Saloon", "MN52652", "Austin", "MN", "2013763781", "23 Swanson Rd.", 1, "110000", "000000"
"Double Down Saloon", "MN52652", "Austin", "MN", "2013763781", "23 Swanson Rd.", 2, "110000", "000000"
"Double Down Saloon", "MN52652", "Austin", "MN", "2013763781", "23 Swanson Rd.", 3, "110000", "000000"
"Double Down Saloon", "MN52652", "Austin", "MN", "2013763781", "23 Swanson Rd.", 4, "110000", "000000"
"Double Down Saloon", "MN52652", "Austin", "MN", "2013763781", "23 Swanson Rd.", 5, "110000", "000000"
"Double Down Saloon", "MN52652", "Austin", "MN", "2013763781", "23 Swanson Rd.", 6, "110000", "000000"
"Double Down Saloon", "MN52652", "Austin", "MN", "2013763781", "23 Swanson Rd.", 7, "110000", "000000"
"Rumors Lounge & Restaurant", "KS72816", "Emporia", "KS", "4358270422", "555 Acacia Drive", 1, "100000", "000000"
"Rumors Lounge & Restaurant", "KS72816", "Emporia", "KS", "4358270422", "555 Acacia Drive", 2, "100000", "000000"
"Rumors Lounge & Restaurant", "KS72816", "Emporia", "KS", "4358270422", "555 Acacia Drive", 3, "100000", "000000"
"Rumors Lounge & Restaurant", "KS72816", "Emporia", "KS", "4358270422", "555 Acacia Drive", 4, "100000", "000000"
"Rumors Lounge & Restaurant", "KS72816", "Emporia", "KS", "4358270422", "555 Acacia Drive", 5, "100000", "000000"
"Rumors Lounge & Restaurant", "KS72816", "Emporia", "KS", "4358270422", "555 Acacia Drive", 6, "100000", "000000"
"Rumors Lounge & Restaurant", "KS72816", "Emporia", "KS", "4358270422", "555 Acacia Drive", 7, "100000", "000000"
"Casino El Camino Bar & Grill", "AK12486", "Anchorage", "AK", "9298521865", "9417 Ramblewood Ave.", 1, "150000", "220000"
"Casino El Camino Bar & Grill", "AK12486", "Anchorage", "AK", "9298521865", "9417 Ramblewood Ave.", 2, "150000", "220000"
"Casino El Camino Bar & Grill", "AK12486", "Anchorage", "AK", "9298521865", "9417 Ramblewood Ave.", 3, "150000", "220000"
"Casino El Camino Bar & Grill", "AK12486", "Anchorage", "AK", "9298521865", "9417 Ramblewood Ave.", 4, "150000", "220000"
"Casino El Camino Bar & Grill", "AK12486", "Anchorage", "AK", "9298521865", "9417 Ramblewood Ave.", 5, "230000", "050000"
"Casino El Camino Bar & Grill", "AK12486", "Anchorage", "AK", "9298521865", "9417 Ramblewood Ave.", 6, "230000", "050000"
"Casino El Camino Bar & Grill", "AK12486", "Anchorage", "AK", "9298521865", "9417 Ramblewood Ave.", 7, "150000", "220000"
"Henrietta Hudson", "SC38874", "Florence", "SC", "3957255035", "8 Evergreen Dr.", 1, "190000", "050000"
"Henrietta Hudson", "SC38874", "Florence", "SC", "3957255035", "8 Evergreen Dr.", 2, "190000", "050000"
"Henrietta Hudson", "SC38874", "Florence", "SC", "3957255035", "8 Evergreen Dr.", 3, "190000", "050000"
"Henrietta Hudson", "SC38874", "Florence", "SC", "3957255035", "8 Evergreen Dr.", 4, "190000", "050000"
"Henrietta Hudson", "SC38874", "Florence", "SC", "3957255035", "8 Evergreen Dr.", 5, "190000", "050000"
"Henrietta Hudson", "SC38874", "Florence", "SC", "3957255035", "8 Evergreen Dr.", 6, "190000", "050000"
"Henrietta Hudson", "SC38874", "Florence", "SC", "3957255035", "8 Evergreen Dr.", 7, "190000", "050000"
"E Robert Brame", "IA56291", "Council Bluffs", "IA", "4172263233", "928 Vine St.", 1, "090000", "200000"
"E Robert Brame", "IA56291", "Council Bluffs", "IA", "4172263233", "928 Vine St.", 2, "090000", "200000"
"E Robert Brame", "IA56291", "Council Bluffs", "IA", "4172263233", "928 Vine St.", 3, "090000", "200000"
"E Robert Brame", "IA56291", "Council Bluffs", "IA", "4172263233", "928 Vine St.", 4, "100000", "020000"
"E Robert Brame", "IA56291", "Council Bluffs", "IA", "4172263233", "928 Vine St.", 5, "100000", "020000"
"E Robert Brame", "IA56291", "Council Bluffs", "IA", "4172263233", "928 Vine St.", 6, "100000", "020000"
"E Robert Brame", "IA56291", "Council Bluffs", "IA", "4172263233", "928 Vine St.", 7, "090000", "200000"
"Village Inn", "MO84223", "Saint Louis", "MO", "7098172858", "7463 Brickell St.", 1, "120000", "020000"
"Village Inn", "MO84223", "Saint Louis", "MO", "7098172858", "7463 Brickell St.", 2, "120000", "190000"
"Village Inn", "MO84223", "Saint Louis", "MO", "7098172858", "7463 Brickell St.", 3, "120000", "020000"
"Village Inn", "MO84223", "Saint Louis", "MO", "7098172858", "7463 Brickell St.", 4, "120000", "020000"
"Village Inn", "MO84223", "Saint Louis", "MO", "7098172858", "7463 Brickell St.", 5, "120000", "020000"
"Village Inn", "MO84223", "Saint Louis", "MO", "7098172858", "7463 Brickell St.", 6, "120000", "020000"
"Village Inn", "MO84223", "Saint Louis", "MO", "7098172858", "7463 Brickell St.", 7, "120000", "020000"
"Robert", "UT78016", "Ogden", "UT", "7358639102", "8567 Philmont Lane", 1, "100000", "180000"
"Robert", "UT78016", "Ogden", "UT", "7358639102", "8567 Philmont Lane", 2, "100000", "180000"
"Robert", "UT78016", "Ogden", "UT", "7358639102", "8567 Philmont Lane", 3, "100000", "180000"
"Robert", "UT78016", "Ogden", "UT", "7358639102", "8567 Philmont Lane", 4, "100000", "180000"
"Robert", "UT78016", "Ogden", "UT", "7358639102", "8567 Philmont Lane", 5, "120000", "200000"
"Robert", "UT78016", "Ogden", "UT", "7358639102", "8567 Philmont Lane", 6, "100000", "180000"
"Robert", "UT78016", "Ogden", "UT", "7358639102", "8567 Philmont Lane", 7, "140000", "180000"
"Shanahan's Lafayette", "WA12849", "Tacoma", "WA", "9383861178", "9675 Gonzales Ave.", 1, "200000", "010000"
"Shanahan's Lafayette", "WA12849", "Tacoma", "WA", "9383861178", "9675 Gonzales Ave.", 2, "200000", "010000"
"Shanahan's Lafayette", "WA12849", "Tacoma", "WA", "9383861178", "9675 Gonzales Ave.", 3, "200000", "010000"
"Shanahan's Lafayette", "WA12849", "Tacoma", "WA", "9383861178", "9675 Gonzales Ave.", 4, "200000", "010000"
"Shanahan's Lafayette", "WA12849", "Tacoma", "WA", "9383861178", "9675 Gonzales Ave.", 5, "200000", "010000"
"Shanahan's Lafayette", "WA12849", "Tacoma", "WA", "9383861178", "9675 Gonzales Ave.", 6, "200000", "010000"
"Shanahan's Lafayette", "WA12849", "Tacoma", "WA", "9383861178", "9675 Gonzales Ave.", 7, "200000", "010000"
"Fire Bar & Grill", "AZ78031", "Gilbert", "AZ", "9235091205", "3000 East Avenue", 1, "080000", "200000"
"Fire Bar & Grill", "AZ78031", "Gilbert", "AZ", "9235091205", "3000 East Avenue", 2, "180000", "010000"
"Fire Bar & Grill", "AZ78031", "Gilbert", "AZ", "9235091205", "3000 East Avenue", 3, "180000", "010000"
"Fire Bar & Grill", "AZ78031", "Gilbert", "AZ", "9235091205", "3000 East Avenue", 4, "180000", "010000"
"Fire Bar & Grill", "AZ78031", "Gilbert", "AZ", "9235091205", "3000 East Avenue", 5, "080000", "200000"
"Fire Bar & Grill", "AZ78031", "Gilbert", "AZ", "9235091205", "3000 East Avenue", 6, "180000", "010000"
"Fire Bar & Grill", "AZ78031", "Gilbert", "AZ", "9235091205", "3000 East Avenue", 7, "080000", "200000"
"Barrister S Euro Tavern;", "AR89886", "Humphrey", "AR", "8479609478", "1116 Cedar Street", 1, "110000", "160000"
"Barrister S Euro Tavern;", "AR89886", "Humphrey", "AR", "8479609478", "1116 Cedar Street", 2, "080000", "010000"
"Barrister S Euro Tavern;", "AR89886", "Humphrey", "AR", "8479609478", "1116 Cedar Street", 3, "110000", "160000"
"Barrister S Euro Tavern;", "AR89886", "Humphrey", "AR", "8479609478", "1116 Cedar Street", 4, "080000", "010000"
"Barrister S Euro Tavern;", "AR89886", "Humphrey", "AR", "8479609478", "1116 Cedar Street", 5, "110000", "160000"
"Barrister S Euro Tavern;", "AR89886", "Humphrey", "AR", "8479609478", "1116 Cedar Street", 6, "110000", "160000"
"Barrister S Euro Tavern;", "AR89886", "Humphrey", "AR", "8479609478", "1116 Cedar Street", 7, "110000", "160000"
"MJ's", "DE60007", "New Castle", "DE", "7099164174", "4113 Argonne Street", 1, "160000", "220000"
"MJ's", "DE60007", "New Castle", "DE", "7099164174", "4113 Argonne Street", 2, "160000", "220000"
"MJ's", "DE60007", "New Castle", "DE", "7099164174", "4113 Argonne Street", 3, "190000", "230000"
"MJ's", "DE60007", "New Castle", "DE", "7099164174", "4113 Argonne Street", 4, "160000", "220000"
"MJ's", "DE60007", "New Castle", "DE", "7099164174", "4113 Argonne Street", 5, "190000", "230000"
"MJ's", "DE60007", "New Castle", "DE", "7099164174", "4113 Argonne Street", 6, "190000", "230000"
"MJ's", "DE60007", "New Castle", "DE", "7099164174", "4113 Argonne Street", 7, "160000", "220000"
"Crazy Donkey Bar Grill", "HI34642", "Kaneohe", "HI", "5293743825", "804 Emma Street", 1, "130000", "190000"
"Crazy Donkey Bar Grill", "HI34642", "Kaneohe", "HI", "5293743825", "804 Emma Street", 2, "130000", "190000"
"Crazy Donkey Bar Grill", "HI34642", "Kaneohe", "HI", "5293743825", "804 Emma Street", 3, "130000", "190000"
"Crazy Donkey Bar Grill", "HI34642", "Kaneohe", "HI", "5293743825", "804 Emma Street", 4, "130000", "190000"
"Crazy Donkey Bar Grill", "HI34642", "Kaneohe", "HI", "5293743825", "804 Emma Street", 5, "130000", "190000"
"Crazy Donkey Bar Grill", "HI34642", "Kaneohe", "HI", "5293743825", "804 Emma Street", 6, "130000", "190000"
"Crazy Donkey Bar Grill", "HI34642", "Kaneohe", "HI", "5293743825", "804 Emma Street", 7, "130000", "190000"
"Old Capitol Brew Works", "ID61356", "Spokane", "ID", "7319349434", "3358 Science Center Drive", 1, "110000", "190000"
"Old Capitol Brew Works", "ID61356", "Spokane", "ID", "7319349434", "3358 Science Center Drive", 2, "110000", "190000"
"Old Capitol Brew Works", "ID61356", "Spokane", "ID", "7319349434", "3358 Science Center Drive", 3, "110000", "190000"
"Old Capitol Brew Works", "ID61356", "Spokane", "ID", "7319349434", "3358 Science Center Drive", 4, "110000", "190000"
"Old Capitol Brew Works", "ID61356", "Spokane", "ID", "7319349434", "3358 Science Center Drive", 5, "110000", "190000"
"Old Capitol Brew Works", "ID61356", "Spokane", "ID", "7319349434", "3358 Science Center Drive", 6, "160000", "210000"
"Old Capitol Brew Works", "ID61356", "Spokane", "ID", "7319349434", "3358 Science Center Drive", 7, "110000", "190000"
"Jrbc", "ME45118", "Windham", "ME", "9406847923", "1655 Upton Avenue", 1, "210000", "010000"
"Jrbc", "ME45118", "Windham", "ME", "9406847923", "1655 Upton Avenue", 2, "200000", "010000"
"Jrbc", "ME45118", "Windham", "ME", "9406847923", "1655 Upton Avenue", 3, "200000", "010000"
"Jrbc", "ME45118", "Windham", "ME", "9406847923", "1655 Upton Avenue", 4, "210000", "010000"
"Jrbc", "ME45118", "Windham", "ME", "9406847923", "1655 Upton Avenue", 5, "200000", "010000"
"Jrbc", "ME45118", "Windham", "ME", "9406847923", "1655 Upton Avenue", 6, "210000", "010000"
"Jrbc", "ME45118", "Windham", "ME", "9406847923", "1655 Upton Avenue", 7, "210000", "010000"
"Red Barn", "NE81247", "Harbine", "NE", "7423321844", "3949 North Avenue", 1, "060000", "160000"
"Red Barn", "NE81247", "Harbine", "NE", "7423321844", "3949 North Avenue", 2, "060000", "160000"
"Red Barn", "NE81247", "Harbine", "NE", "7423321844", "3949 North Avenue", 3, "060000", "160000"
"Red Barn", "NE81247", "Harbine", "NE", "7423321844", "3949 North Avenue", 4, "060000", "160000"
"Red Barn", "NE81247", "Harbine", "NE", "7423321844", "3949 North Avenue", 5, "060000", "160000"
"Red Barn", "NE81247", "Harbine", "NE", "7423321844", "3949 North Avenue", 6, "060000", "160000"
"Red Barn", "NE81247", "Harbine", "NE", "7423321844", "3949 North Avenue", 7, "060000", "160000"
"Savannah Wine Shop", "NV61079", "Reno", "NV", "2143126588", "4108 Wescam Court", 1, "180000", "230000"
"Savannah Wine Shop", "NV61079", "Reno", "NV", "2143126588", "4108 Wescam Court", 2, "180000", "230000"
"Savannah Wine Shop", "NV61079", "Reno", "NV", "2143126588", "4108 Wescam Court", 3, "180000", "230000"
"Savannah Wine Shop", "NV61079", "Reno", "NV", "2143126588", "4108 Wescam Court", 4, "180000", "230000"
"Savannah Wine Shop", "NV61079", "Reno", "NV", "2143126588", "4108 Wescam Court", 5, "180000", "230000"
"Savannah Wine Shop", "NV61079", "Reno", "NV", "2143126588", "4108 Wescam Court", 6, "180000", "230000"
"Savannah Wine Shop", "NV61079", "Reno", "NV", "2143126588", "4108 Wescam Court", 7, "180000", "230000"
"Club Soda", "NM14257", "Albuquerque", "NM", "7814306998", "894 Westfall Avenue", 1, "090000", "190000"
"Club Soda", "NM14257", "Albuquerque", "NM", "7814306998", "894 Westfall Avenue", 2, "090000", "190000"
"Club Soda", "NM14257", "Albuquerque", "NM", "7814306998", "894 Westfall Avenue", 3, "090000", "190000"
"Club Soda", "NM14257", "Albuquerque", "NM", "7814306998", "894 Westfall Avenue", 4, "090000", "190000"
"Club Soda", "NM14257", "Albuquerque", "NM", "7814306998", "894 Westfall Avenue", 5, "090000", "190000"
"Club Soda", "NM14257", "Albuquerque", "NM", "7814306998", "894 Westfall Avenue", 6, "090000", "190000"
"Club Soda", "NM14257", "Albuquerque", "NM", "7814306998", "894 Westfall Avenue", 7, "090000", "190000"
"Brandy's", "VT44222", "Alburg", "VT", "6654692382", "4770 Hardman Road", 1, "070000", "190000"
"Brandy's", "VT44222", "Alburg", "VT", "6654692382", "4770 Hardman Road", 2, "130000", "190000"
"Brandy's", "VT44222", "Alburg", "VT", "6654692382", "4770 Hardman Road", 3, "130000", "190000"
"Brandy's", "VT44222", "Alburg", "VT", "6654692382", "4770 Hardman Road", 4, "070000", "190000"
"Brandy's", "VT44222", "Alburg", "VT", "6654692382", "4770 Hardman Road", 5, "070000", "190000"
"Brandy's", "VT44222", "Alburg", "VT", "6654692382", "4770 Hardman Road", 6, "070000", "190000"
"Brandy's", "VT44222", "Alburg", "VT", "6654692382", "4770 Hardman Road", 7, "070000", "190000"
"Rascal's", "WY99671", "Worland", "WY", "9942497061", "3730 Arbor Court", 1, "130000", "200000"
"Rascal's", "WY99671", "Worland", "WY", "9942497061", "3730 Arbor Court", 2, "130000", "200000"
"Rascal's", "WY99671", "Worland", "WY", "9942497061", "3730 Arbor Court", 3, "130000", "200000"
"Rascal's", "WY99671", "Worland", "WY", "9942497061", "3730 Arbor Court", 4, "130000", "200000"
"Rascal's", "WY99671", "Worland", "WY", "9942497061", "3730 Arbor Court", 5, "130000", "200000"
"Rascal's", "WY99671", "Worland", "WY", "9942497061", "3730 Arbor Court", 6, "130000", "200000"
"Rascal's", "WY99671", "Worland", "WY", "9942497061", "3730 Arbor Court", 7, "130000", "200000"
"Arena", "PA64479", "Downingtown", "PA", "8482041985", "658 Miller Lane", 1, "130000", "210000"
"Arena", "PA64479", "Downingtown", "PA", "8482041985", "658 Miller Lane", 2, "130000", "210000"
"Arena", "PA64479", "Downingtown", "PA", "8482041985", "658 Miller Lane", 3, "130000", "210000"
"Arena", "PA64479", "Downingtown", "PA", "8482041985", "658 Miller Lane", 4, "130000", "210000"
"Arena", "PA64479", "Downingtown", "PA", "8482041985", "658 Miller Lane", 5, "130000", "210000"
"Arena", "PA64479", "Downingtown", "PA", "8482041985", "658 Miller Lane", 6, "150000", "020000"
"Arena", "PA64479", "Downingtown", "PA", "8482041985", "658 Miller Lane", 7, "130000", "210000"
"Hickory Tavern", "MS18044", "Tupelo", "MS", "6316095840", "91 Constitution Court", 1, "180000", "230000"
"Hickory Tavern", "MS18044", "Tupelo", "MS", "6316095840", "91 Constitution Court", 2, "180000", "230000"
"Hickory Tavern", "MS18044", "Tupelo", "MS", "6316095840", "91 Constitution Court", 3, "180000", "230000"
"Hickory Tavern", "MS18044", "Tupelo", "MS", "6316095840", "91 Constitution Court", 4, "180000", "230000"
"Hickory Tavern", "MS18044", "Tupelo", "MS", "6316095840", "91 Constitution Court", 5, "180000", "230000"
"Hickory Tavern", "MS18044", "Tupelo", "MS", "6316095840", "91 Constitution Court", 6, "180000", "230000"
"Hickory Tavern", "MS18044", "Tupelo", "MS", "6316095840", "91 Constitution Court", 7, "180000", "230000"
"Linda's", "PA21188", "New Kensington", "PA", "4304078938", "643 N. Pennsylvania Lane", 1, "140000", "190000"
"Linda's", "PA21188", "New Kensington", "PA", "4304078938", "643 N. Pennsylvania Lane", 2, "140000", "190000"
"Linda's", "PA21188", "New Kensington", "PA", "4304078938", "643 N. Pennsylvania Lane", 3, "140000", "190000"
"Linda's", "PA21188", "New Kensington", "PA", "4304078938", "643 N. Pennsylvania Lane", 4, "140000", "190000"
"Linda's", "PA21188", "New Kensington", "PA", "4304078938", "643 N. Pennsylvania Lane", 5, "130000", "210000"
"Linda's", "PA21188", "New Kensington", "PA", "4304078938", "643 N. Pennsylvania Lane", 6, "140000", "190000"
"Linda's", "PA21188", "New Kensington", "PA", "4304078938", "643 N. Pennsylvania Lane", 7, "140000", "190000"
"C C Slaughters Restaurant", "FL79000", "Palm Harbor", "FL", "4124350290", "7659 Fawn Road", 1, "090000", "180000"
"C C Slaughters Restaurant", "FL79000", "Palm Harbor", "FL", "4124350290", "7659 Fawn Road", 2, "090000", "180000"
"C C Slaughters Restaurant", "FL79000", "Palm Harbor", "FL", "4124350290", "7659 Fawn Road", 3, "090000", "180000"
"C C Slaughters Restaurant", "FL79000", "Palm Harbor", "FL", "4124350290", "7659 Fawn Road", 4, "090000", "180000"
"C C Slaughters Restaurant", "FL79000", "Palm Harbor", "FL", "4124350290", "7659 Fawn Road", 5, "090000", "180000"
"C C Slaughters Restaurant", "FL79000", "Palm Harbor", "FL", "4124350290", "7659 Fawn Road", 6, "090000", "180000"
"C C Slaughters Restaurant", "FL79000", "Palm Harbor", "FL", "4124350290", "7659 Fawn Road", 7, "090000", "180000"
"Wellhead Restaurant-Brew Pub", "NJ68490", "Bridgewater", "NJ", "4257975794", "978 San Carlos St.", 1, "130000", "220000"
"Wellhead Restaurant-Brew Pub", "NJ68490", "Bridgewater", "NJ", "4257975794", "978 San Carlos St.", 2, "140000", "180000"
"Wellhead Restaurant-Brew Pub", "NJ68490", "Bridgewater", "NJ", "4257975794", "978 San Carlos St.", 3, "140000", "180000"
"Wellhead Restaurant-Brew Pub", "NJ68490", "Bridgewater", "NJ", "4257975794", "978 San Carlos St.", 4, "140000", "180000"
"Wellhead Restaurant-Brew Pub", "NJ68490", "Bridgewater", "NJ", "4257975794", "978 San Carlos St.", 5, "140000", "180000"
"Wellhead Restaurant-Brew Pub", "NJ68490", "Bridgewater", "NJ", "4257975794", "978 San Carlos St.", 6, "070000", "170000"
"Wellhead Restaurant-Brew Pub", "NJ68490", "Bridgewater", "NJ", "4257975794", "978 San Carlos St.", 7, "140000", "180000"
"Boynton Restaurant & Spirits", "NJ47905", "East Orange", "NJ", "9837506205", "78 Garden Rd.", 1, "150000", "020000"
"Boynton Restaurant & Spirits", "NJ47905", "East Orange", "NJ", "9837506205", "78 Garden Rd.", 2, "150000", "020000"
"Boynton Restaurant & Spirits", "NJ47905", "East Orange", "NJ", "9837506205", "78 Garden Rd.", 3, "150000", "020000"
"Boynton Restaurant & Spirits", "NJ47905", "East Orange", "NJ", "9837506205", "78 Garden Rd.", 4, "190000", "000000"
"Boynton Restaurant & Spirits", "NJ47905", "East Orange", "NJ", "9837506205", "78 Garden Rd.", 5, "150000", "020000"
"Boynton Restaurant & Spirits", "NJ47905", "East Orange", "NJ", "9837506205", "78 Garden Rd.", 6, "150000", "020000"
"Boynton Restaurant & Spirits", "NJ47905", "East Orange", "NJ", "9837506205", "78 Garden Rd.", 7, "150000", "020000"
"Xtc Cabaret", "IL97527", "Skokie", "IL", "7114655634", "7252 East Shady Drive", 1, "100000", "180000"
"Xtc Cabaret", "IL97527", "Skokie", "IL", "7114655634", "7252 East Shady Drive", 2, "100000", "180000"
"Xtc Cabaret", "IL97527", "Skokie", "IL", "7114655634", "7252 East Shady Drive", 3, "100000", "180000"
"Xtc Cabaret", "IL97527", "Skokie", "IL", "7114655634", "7252 East Shady Drive", 4, "100000", "180000"
"Xtc Cabaret", "IL97527", "Skokie", "IL", "7114655634", "7252 East Shady Drive", 5, "100000", "180000"
"Xtc Cabaret", "IL97527", "Skokie", "IL", "7114655634", "7252 East Shady Drive", 6, "090000", "150000"
"Xtc Cabaret", "IL97527", "Skokie", "IL", "7114655634", "7252 East Shady Drive", 7, "100000", "180000"
"Rocket", "NY12853", "Brentwood", "NY", "6373024261", "7149 N. Ocean Rd.", 1, "130000", "200000"
"Rocket", "NY12853", "Brentwood", "NY", "6373024261", "7149 N. Ocean Rd.", 2, "130000", "200000"
"Rocket", "NY12853", "Brentwood", "NY", "6373024261", "7149 N. Ocean Rd.", 3, "130000", "200000"
"Rocket", "NY12853", "Brentwood", "NY", "6373024261", "7149 N. Ocean Rd.", 4, "130000", "200000"
"Rocket", "NY12853", "Brentwood", "NY", "6373024261", "7149 N. Ocean Rd.", 5, "130000", "200000"
"Rocket", "NY12853", "Brentwood", "NY", "6373024261", "7149 N. Ocean Rd.", 6, "130000", "200000"
"Rocket", "NY12853", "Brentwood", "NY", "6373024261", "7149 N. Ocean Rd.", 7, "130000", "200000"
"New West", "MD35510", "Suitland", "MD", "3758560563", "7542 Longfellow Dr.", 1, "160000", "230000"
"New West", "MD35510", "Suitland", "MD", "3758560563", "7542 Longfellow Dr.", 2, "160000", "230000"
"New West", "MD35510", "Suitland", "MD", "3758560563", "7542 Longfellow Dr.", 3, "160000", "230000"
"New West", "MD35510", "Suitland", "MD", "3758560563", "7542 Longfellow Dr.", 4, "160000", "230000"
"New West", "MD35510", "Suitland", "MD", "3758560563", "7542 Longfellow Dr.", 5, "160000", "230000"
"New West", "MD35510", "Suitland", "MD", "3758560563", "7542 Longfellow Dr.", 6, "160000", "230000"
"New West", "MD35510", "Suitland", "MD", "3758560563", "7542 Longfellow Dr.", 7, "160000", "230000"
"Pivots Beach Club", "GA34726", "Valdosta", "GA", "6763012304", "578 College Ave.", 1, "170000", "020000"
"Pivots Beach Club", "GA34726", "Valdosta", "GA", "6763012304", "578 College Ave.", 2, "170000", "020000"
"Pivots Beach Club", "GA34726", "Valdosta", "GA", "6763012304", "578 College Ave.", 3, "210000", "020000"
"Pivots Beach Club", "GA34726", "Valdosta", "GA", "6763012304", "578 College Ave.", 4, "170000", "020000"
"Pivots Beach Club", "GA34726", "Valdosta", "GA", "6763012304", "578 College Ave.", 5, "120000", "170000"
"Pivots Beach Club", "GA34726", "Valdosta", "GA", "6763012304", "578 College Ave.", 6, "120000", "170000"
"Pivots Beach Club", "GA34726", "Valdosta", "GA", "6763012304", "578 College Ave.", 7, "120000", "000000"
"Maria C. Estabil", "MD34039", "Gwynn Oak", "MD", "7918643083", "533 E. Old York Ave.", 1, "140000", "210000"
"Maria C. Estabil", "MD34039", "Gwynn Oak", "MD", "7918643083", "533 E. Old York Ave.", 2, "140000", "210000"
"Maria C. Estabil", "MD34039", "Gwynn Oak", "MD", "7918643083", "533 E. Old York Ave.", 3, "140000", "210000"
"Maria C. Estabil", "MD34039", "Gwynn Oak", "MD", "7918643083", "533 E. Old York Ave.", 4, "140000", "210000"
"Maria C. Estabil", "MD34039", "Gwynn Oak", "MD", "7918643083", "533 E. Old York Ave.", 5, "140000", "210000"
"Maria C. Estabil", "MD34039", "Gwynn Oak", "MD", "7918643083", "533 E. Old York Ave.", 6, "140000", "210000"
"Maria C. Estabil", "MD34039", "Gwynn Oak", "MD", "7918643083", "533 E. Old York Ave.", 7, "140000", "210000"
"Atkins Park Tavern", "FL49263", "Navarre", "FL", "4422937852", "9429 Wakehurst Street", 1, "170000", "210000"
"Atkins Park Tavern", "FL49263", "Navarre", "FL", "4422937852", "9429 Wakehurst Street", 2, "170000", "210000"
"Atkins Park Tavern", "FL49263", "Navarre", "FL", "4422937852", "9429 Wakehurst Street", 3, "170000", "210000"
"Atkins Park Tavern", "FL49263", "Navarre", "FL", "4422937852", "9429 Wakehurst Street", 4, "170000", "210000"
"Atkins Park Tavern", "FL49263", "Navarre", "FL", "4422937852", "9429 Wakehurst Street", 5, "170000", "210000"
"Atkins Park Tavern", "FL49263", "Navarre", "FL", "4422937852", "9429 Wakehurst Street", 6, "170000", "210000"
"Atkins Park Tavern", "FL49263", "Navarre", "FL", "4422937852", "9429 Wakehurst Street", 7, "170000", "210000"
"Grey Lounge", "WI92613", "Onalaska", "WI", "3674619714", "62 High Drive", 1, "060000", "170000"
"Grey Lounge", "WI92613", "Onalaska", "WI", "3674619714", "62 High Drive", 2, "060000", "170000"
"Grey Lounge", "WI92613", "Onalaska", "WI", "3674619714", "62 High Drive", 3, "060000", "170000"
"Grey Lounge", "WI92613", "Onalaska", "WI", "3674619714", "62 High Drive", 4, "060000", "170000"
"Grey Lounge", "WI92613", "Onalaska", "WI", "3674619714", "62 High Drive", 5, "060000", "170000"
"Grey Lounge", "WI92613", "Onalaska", "WI", "3674619714", "62 High Drive", 6, "060000", "170000"
"Grey Lounge", "WI92613", "Onalaska", "WI", "3674619714", "62 High Drive", 7, "150000", "220000"
"Daddy's", "NC38289", "Sanford", "NC", "8005115493", "65 Sunset St.", 1, "160000", "230000"
"Daddy's", "NC38289", "Sanford", "NC", "8005115493", "65 Sunset St.", 2, "160000", "230000"
"Daddy's", "NC38289", "Sanford", "NC", "8005115493", "65 Sunset St.", 3, "160000", "230000"
"Daddy's", "NC38289", "Sanford", "NC", "8005115493", "65 Sunset St.", 4, "160000", "230000"
"Daddy's", "NC38289", "Sanford", "NC", "8005115493", "65 Sunset St.", 5, "160000", "230000"
"Daddy's", "NC38289", "Sanford", "NC", "8005115493", "65 Sunset St.", 6, "160000", "230000"
"Daddy's", "NC38289", "Sanford", "NC", "8005115493", "65 Sunset St.", 7, "160000", "230000"
"Don & Herb's Inc", "OK11564", "Norman", "OK", "2312537384", "544 South Thomas Ave.", 1, "060000", "110000"
"Don & Herb's Inc", "OK11564", "Norman", "OK", "2312537384", "544 South Thomas Ave.", 2, "060000", "110000"
"Don & Herb's Inc", "OK11564", "Norman", "OK", "2312537384", "544 South Thomas Ave.", 3, "060000", "110000"
"Don & Herb's Inc", "OK11564", "Norman", "OK", "2312537384", "544 South Thomas Ave.", 4, "060000", "110000"
"Don & Herb's Inc", "OK11564", "Norman", "OK", "2312537384", "544 South Thomas Ave.", 5, "060000", "110000"
"Don & Herb's Inc", "OK11564", "Norman", "OK", "2312537384", "544 South Thomas Ave.", 6, "060000", "110000"
"Don & Herb's Inc", "OK11564", "Norman", "OK", "2312537384", "544 South Thomas Ave.", 7, "060000", "110000"
"Firefly Club", "NY84961", "Flushing", "NY", "8622077511", "748 6th Avenue", 1, "200000", "030000"
"Firefly Club", "NY84961", "Flushing", "NY", "8622077511", "748 6th Avenue", 2, "200000", "030000"
"Firefly Club", "NY84961", "Flushing", "NY", "8622077511", "748 6th Avenue", 3, "200000", "030000"
"Firefly Club", "NY84961", "Flushing", "NY", "8622077511", "748 6th Avenue", 4, "200000", "030000"
"Firefly Club", "NY84961", "Flushing", "NY", "8622077511", "748 6th Avenue", 5, "200000", "030000"
"Firefly Club", "NY84961", "Flushing", "NY", "8622077511", "748 6th Avenue", 6, "200000", "030000"
"Firefly Club", "NY84961", "Flushing", "NY", "8622077511", "748 6th Avenue", 7, "130000", "190000"
"Club 101", "GA56108", "Jonesboro", "GA", "2934167653", "590 South Maple Drive", 1, "100000", "010000"
"Club 101", "GA56108", "Jonesboro", "GA", "2934167653", "590 South Maple Drive", 2, "100000", "010000"
"Club 101", "GA56108", "Jonesboro", "GA", "2934167653", "590 South Maple Drive", 3, "100000", "010000"
"Club 101", "GA56108", "Jonesboro", "GA", "2934167653", "590 South Maple Drive", 4, "100000", "010000"
"Club 101", "GA56108", "Jonesboro", "GA", "2934167653", "590 South Maple Drive", 5, "100000", "010000"
"Club 101", "GA56108", "Jonesboro", "GA", "2934167653", "590 South Maple Drive", 6, "100000", "010000"
"Club 101", "GA56108", "Jonesboro", "GA", "2934167653", "590 South Maple Drive", 7, "100000", "010000"
"Mulligan's Pub", "MA41740", "Dorchester Center", "MA", "5089878905", "523 Littleton Rd.", 1, "060000", "100000"
"Mulligan's Pub", "MA41740", "Dorchester Center", "MA", "5089878905", "523 Littleton Rd.", 2, "060000", "100000"
"Mulligan's Pub", "MA41740", "Dorchester Center", "MA", "5089878905", "523 Littleton Rd.", 3, "060000", "100000"
"Mulligan's Pub", "MA41740", "Dorchester Center", "MA", "5089878905", "523 Littleton Rd.", 4, "060000", "100000"
"Mulligan's Pub", "MA41740", "Dorchester Center", "MA", "5089878905", "523 Littleton Rd.", 5, "060000", "100000"
"Mulligan's Pub", "MA41740", "Dorchester Center", "MA", "5089878905", "523 Littleton Rd.", 6, "060000", "100000"
"Mulligan's Pub", "MA41740", "Dorchester Center", "MA", "5089878905", "523 Littleton Rd.", 7, "060000", "100000"
"Town & Country", "NJ36960", "Basking Ridge", "NJ", "4516398352", "9739 Blackburn St.", 1, "150000", "220000"
"Town & Country", "NJ36960", "Basking Ridge", "NJ", "4516398352", "9739 Blackburn St.", 2, "150000", "220000"
"Town & Country", "NJ36960", "Basking Ridge", "NJ", "4516398352", "9739 Blackburn St.", 3, "150000", "220000"
"Town & Country", "NJ36960", "Basking Ridge", "NJ", "4516398352", "9739 Blackburn St.", 4, "150000", "220000"
"Town & Country", "NJ36960", "Basking Ridge", "NJ", "4516398352", "9739 Blackburn St.", 5, "150000", "220000"
"Town & Country", "NJ36960", "Basking Ridge", "NJ", "4516398352", "9739 Blackburn St.", 6, "150000", "220000"
"Town & Country", "NJ36960", "Basking Ridge", "NJ", "4516398352", "9739 Blackburn St.", 7, "150000", "220000"
"Sugarbush Tavern", "WI57949", "Neenah", "WI", "4708466747", "2 Lookout Street", 1, "100000", "220000"
"Sugarbush Tavern", "WI57949", "Neenah", "WI", "4708466747", "2 Lookout Street", 2, "100000", "220000"
"Sugarbush Tavern", "WI57949", "Neenah", "WI", "4708466747", "2 Lookout Street", 3, "190000", "000000"
"Sugarbush Tavern", "WI57949", "Neenah", "WI", "4708466747", "2 Lookout Street", 4, "100000", "220000"
"Sugarbush Tavern", "WI57949", "Neenah", "WI", "4708466747", "2 Lookout Street", 5, "100000", "220000"
"Sugarbush Tavern", "WI57949", "Neenah", "WI", "4708466747", "2 Lookout Street", 6, "100000", "220000"
"Sugarbush Tavern", "WI57949", "Neenah", "WI", "4708466747", "2 Lookout Street", 7, "100000", "220000"
"J R's Last Laugh Comedy Club", "NY80004", "Fairport", "NY", "4069362258", "231 Livingston St.", 1, "170000", "010000"
"J R's Last Laugh Comedy Club", "NY80004", "Fairport", "NY", "4069362258", "231 Livingston St.", 2, "170000", "010000"
"J R's Last Laugh Comedy Club", "NY80004", "Fairport", "NY", "4069362258", "231 Livingston St.", 3, "140000", "010000"
"J R's Last Laugh Comedy Club", "NY80004", "Fairport", "NY", "4069362258", "231 Livingston St.", 4, "170000", "010000"
"J R's Last Laugh Comedy Club", "NY80004", "Fairport", "NY", "4069362258", "231 Livingston St.", 5, "170000", "010000"
"J R's Last Laugh Comedy Club", "NY80004", "Fairport", "NY", "4069362258", "231 Livingston St.", 6, "170000", "010000"
"J R's Last Laugh Comedy Club", "NY80004", "Fairport", "NY", "4069362258", "231 Livingston St.", 7, "080000", "160000"
"Ad Card Promotions", "GA96134", "Buford", "GA", "6462223880", "54 La Sierra St.", 1, "130000", "020000"
"Ad Card Promotions", "GA96134", "Buford", "GA", "6462223880", "54 La Sierra St.", 2, "130000", "020000"
"Ad Card Promotions", "GA96134", "Buford", "GA", "6462223880", "54 La Sierra St.", 3, "130000", "020000"
"Ad Card Promotions", "GA96134", "Buford", "GA", "6462223880", "54 La Sierra St.", 4, "130000", "020000"
"Ad Card Promotions", "GA96134", "Buford", "GA", "6462223880", "54 La Sierra St.", 5, "130000", "020000"
"Ad Card Promotions", "GA96134", "Buford", "GA", "6462223880", "54 La Sierra St.", 6, "130000", "020000"
"Ad Card Promotions", "GA96134", "Buford", "GA", "6462223880", "54 La Sierra St.", 7, "130000", "020000"
"Border Lounge", "NJ86369", "Hammonton", "NJ", "4675780829", "334 Summit Ave.", 1, "220000", "020000"
"Border Lounge", "NJ86369", "Hammonton", "NJ", "4675780829", "334 Summit Ave.", 2, "220000", "020000"
"Border Lounge", "NJ86369", "Hammonton", "NJ", "4675780829", "334 Summit Ave.", 3, "220000", "020000"
"Border Lounge", "NJ86369", "Hammonton", "NJ", "4675780829", "334 Summit Ave.", 4, "220000", "020000"
"Border Lounge", "NJ86369", "Hammonton", "NJ", "4675780829", "334 Summit Ave.", 5, "220000", "020000"
"Border Lounge", "NJ86369", "Hammonton", "NJ", "4675780829", "334 Summit Ave.", 6, "220000", "020000"
"Border Lounge", "NJ86369", "Hammonton", "NJ", "4675780829", "334 Summit Ave.", 7, "220000", "020000"
"Cork Town Tavern", "FL24587", "Ponte Vedra Beach", "FL", "9155133166", "7135 West Clinton Dr.", 1, "110000", "220000"
"Cork Town Tavern", "FL24587", "Ponte Vedra Beach", "FL", "9155133166", "7135 West Clinton Dr.", 2, "110000", "220000"
"Cork Town Tavern", "FL24587", "Ponte Vedra Beach", "FL", "9155133166", "7135 West Clinton Dr.", 3, "110000", "220000"
"Cork Town Tavern", "FL24587", "Ponte Vedra Beach", "FL", "9155133166", "7135 West Clinton Dr.", 4, "110000", "220000"
"Cork Town Tavern", "FL24587", "Ponte Vedra Beach", "FL", "9155133166", "7135 West Clinton Dr.", 5, "110000", "220000"
"Cork Town Tavern", "FL24587", "Ponte Vedra Beach", "FL", "9155133166", "7135 West Clinton Dr.", 6, "090000", "230000"
"Cork Town Tavern", "FL24587", "Ponte Vedra Beach", "FL", "9155133166", "7135 West Clinton Dr.", 7, "090000", "230000"
"Jovan's Lounge Ltd", "MI11227", "Taylor", "MI", "9436860547", "873 Vale Lane", 1, "100000", "150000"
"Jovan's Lounge Ltd", "MI11227", "Taylor", "MI", "9436860547", "873 Vale Lane", 2, "100000", "150000"
"Jovan's Lounge Ltd", "MI11227", "Taylor", "MI", "9436860547", "873 Vale Lane", 3, "200000", "020000"
"Jovan's Lounge Ltd", "MI11227", "Taylor", "MI", "9436860547", "873 Vale Lane", 4, "170000", "010000"
"Jovan's Lounge Ltd", "MI11227", "Taylor", "MI", "9436860547", "873 Vale Lane", 5, "100000", "150000"
"Jovan's Lounge Ltd", "MI11227", "Taylor", "MI", "9436860547", "873 Vale Lane", 6, "100000", "150000"
"Jovan's Lounge Ltd", "MI11227", "Taylor", "MI", "9436860547", "873 Vale Lane", 7, "100000", "150000"
"Ten", "AL74100", "Madison", "AL", "8834359139", "21 Newbridge Street", 1, "080000", "150000"
"Ten", "AL74100", "Madison", "AL", "8834359139", "21 Newbridge Street", 2, "080000", "150000"
"Ten", "AL74100", "Madison", "AL", "8834359139", "21 Newbridge Street", 3, "080000", "150000"
"Ten", "AL74100", "Madison", "AL", "8834359139", "21 Newbridge Street", 4, "080000", "150000"
"Ten", "AL74100", "Madison", "AL", "8834359139", "21 Newbridge Street", 5, "080000", "150000"
"Ten", "AL74100", "Madison", "AL", "8834359139", "21 Newbridge Street", 6, "080000", "150000"
"Ten", "AL74100", "Madison", "AL", "8834359139", "21 Newbridge Street", 7, "080000", "150000"
"Downtown Lounge", "PA82208", "Morrisville", "PA", "5002473387", "53 Kent Street", 1, "100000", "150000"
"Downtown Lounge", "PA82208", "Morrisville", "PA", "5002473387", "53 Kent Street", 2, "100000", "150000"
"Downtown Lounge", "PA82208", "Morrisville", "PA", "5002473387", "53 Kent Street", 3, "100000", "150000"
"Downtown Lounge", "PA82208", "Morrisville", "PA", "5002473387", "53 Kent Street", 4, "100000", "150000"
"Downtown Lounge", "PA82208", "Morrisville", "PA", "5002473387", "53 Kent Street", 5, "100000", "150000"
"Downtown Lounge", "PA82208", "Morrisville", "PA", "5002473387", "53 Kent Street", 6, "100000", "150000"
"Downtown Lounge", "PA82208", "Morrisville", "PA", "5002473387", "53 Kent Street", 7, "070000", "140000"
"Kroc's", "NJ34051", "Hillsborough", "NJ", "5262458933", "173 Victoria Street", 1, "190000", "000000"
"Kroc's", "NJ34051", "Hillsborough", "NJ", "5262458933", "173 Victoria Street", 2, "190000", "000000"
"Kroc's", "NJ34051", "Hillsborough", "NJ", "5262458933", "173 Victoria Street", 3, "190000", "000000"
"Kroc's", "NJ34051", "Hillsborough", "NJ", "5262458933", "173 Victoria Street", 4, "190000", "000000"
"Kroc's", "NJ34051", "Hillsborough", "NJ", "5262458933", "173 Victoria Street", 5, "190000", "000000"
"Kroc's", "NJ34051", "Hillsborough", "NJ", "5262458933", "173 Victoria Street", 6, "190000", "000000"
"Kroc's", "NJ34051", "Hillsborough", "NJ", "5262458933", "173 Victoria Street", 7, "190000", "000000"
"Stingers Sports Pub & Grill", "OH45901", "North Canton", "OH", "3307163904", "96 St Margarets Lane", 1, "120000", "220000"
"Stingers Sports Pub & Grill", "OH45901", "North Canton", "OH", "3307163904", "96 St Margarets Lane", 2, "120000", "220000"
"Stingers Sports Pub & Grill", "OH45901", "North Canton", "OH", "3307163904", "96 St Margarets Lane", 3, "090000", "000000"
"Stingers Sports Pub & Grill", "OH45901", "North Canton", "OH", "3307163904", "96 St Margarets Lane", 4, "120000", "220000"
"Stingers Sports Pub & Grill", "OH45901", "North Canton", "OH", "3307163904", "96 St Margarets Lane", 5, "090000", "000000"
"Stingers Sports Pub & Grill", "OH45901", "North Canton", "OH", "3307163904", "96 St Margarets Lane", 6, "090000", "000000"
"Stingers Sports Pub & Grill", "OH45901", "North Canton", "OH", "3307163904", "96 St Margarets Lane", 7, "120000", "220000"
"Monopole Restaurant", "CA87394", "San Pablo", "CA", "7163990130", "276 Depot Ave.", 1, "200000", "020000"
"Monopole Restaurant", "CA87394", "San Pablo", "CA", "7163990130", "276 Depot Ave.", 2, "200000", "020000"
"Monopole Restaurant", "CA87394", "San Pablo", "CA", "7163990130", "276 Depot Ave.", 3, "200000", "020000"
"Monopole Restaurant", "CA87394", "San Pablo", "CA", "7163990130", "276 Depot Ave.", 4, "200000", "020000"
"Monopole Restaurant", "CA87394", "San Pablo", "CA", "7163990130", "276 Depot Ave.", 5, "200000", "020000"
"Monopole Restaurant", "CA87394", "San Pablo", "CA", "7163990130", "276 Depot Ave.", 6, "200000", "020000"
"Monopole Restaurant", "CA87394", "San Pablo", "CA", "7163990130", "276 Depot Ave.", 7, "200000", "020000"
"Iron Post", "OH66935", "Springboro", "OH", "3846370976", "741 Marshall Drive", 1, "140000", "230000"
"Iron Post", "OH66935", "Springboro", "OH", "3846370976", "741 Marshall Drive", 2, "140000", "230000"
"Iron Post", "OH66935", "Springboro", "OH", "3846370976", "741 Marshall Drive", 3, "140000", "230000"
"Iron Post", "OH66935", "Springboro", "OH", "3846370976", "741 Marshall Drive", 4, "140000", "230000"
"Iron Post", "OH66935", "Springboro", "OH", "3846370976", "741 Marshall Drive", 5, "140000", "230000"
"Iron Post", "OH66935", "Springboro", "OH", "3846370976", "741 Marshall Drive", 6, "140000", "230000"
"Iron Post", "OH66935", "Springboro", "OH", "3846370976", "741 Marshall Drive", 7, "140000", "230000"
"Paradise City", "NC54163", "Fayetteville", "NC", "8673644956", "181 Prospect Street", 1, "090000", "150000"
"Paradise City", "NC54163", "Fayetteville", "NC", "8673644956", "181 Prospect Street", 2, "090000", "150000"
"Paradise City", "NC54163", "Fayetteville", "NC", "8673644956", "181 Prospect Street", 3, "090000", "150000"
"Paradise City", "NC54163", "Fayetteville", "NC", "8673644956", "181 Prospect Street", 4, "090000", "150000"
"Paradise City", "NC54163", "Fayetteville", "NC", "8673644956", "181 Prospect Street", 5, "090000", "150000"
"Paradise City", "NC54163", "Fayetteville", "NC", "8673644956", "181 Prospect Street", 6, "130000", "010000"
"Paradise City", "NC54163", "Fayetteville", "NC", "8673644956", "181 Prospect Street", 7, "090000", "150000"
"Big Shots Sports Bar & Grill", "NY22460", "Commack", "NY", "9989539871", "413 West James Drive", 1, "130000", "230000"
"Big Shots Sports Bar & Grill", "NY22460", "Commack", "NY", "9989539871", "413 West James Drive", 2, "080000", "210000"
"Big Shots Sports Bar & Grill", "NY22460", "Commack", "NY", "9989539871", "413 West James Drive", 3, "130000", "230000"
"Big Shots Sports Bar & Grill", "NY22460", "Commack", "NY", "9989539871", "413 West James Drive", 4, "130000", "230000"
"Big Shots Sports Bar & Grill", "NY22460", "Commack", "NY", "9989539871", "413 West James Drive", 5, "130000", "230000"
"Big Shots Sports Bar & Grill", "NY22460", "Commack", "NY", "9989539871", "413 West James Drive", 6, "130000", "230000"
"Big Shots Sports Bar & Grill", "NY22460", "Commack", "NY", "9989539871", "413 West James Drive", 7, "130000", "230000"
"Club Paragon", "GA36174", "Dacula", "GA", "3532378957", "30 Taylor Ave.", 1, "110000", "190000"
"Club Paragon", "GA36174", "Dacula", "GA", "3532378957", "30 Taylor Ave.", 2, "110000", "190000"
"Club Paragon", "GA36174", "Dacula", "GA", "3532378957", "30 Taylor Ave.", 3, "110000", "190000"
"Club Paragon", "GA36174", "Dacula", "GA", "3532378957", "30 Taylor Ave.", 4, "110000", "190000"
"Club Paragon", "GA36174", "Dacula", "GA", "3532378957", "30 Taylor Ave.", 5, "110000", "190000"
"Club Paragon", "GA36174", "Dacula", "GA", "3532378957", "30 Taylor Ave.", 6, "110000", "190000"
"Club Paragon", "GA36174", "Dacula", "GA", "3532378957", "30 Taylor Ave.", 7, "110000", "190000"
"Pub 13", "IN11672", "Mishawaka", "IN", "5693238607", "7004 Foxrun Ave.", 1, "220000", "020000"
"Pub 13", "IN11672", "Mishawaka", "IN", "5693238607", "7004 Foxrun Ave.", 2, "220000", "020000"
"Pub 13", "IN11672", "Mishawaka", "IN", "5693238607", "7004 Foxrun Ave.", 3, "220000", "020000"
"Pub 13", "IN11672", "Mishawaka", "IN", "5693238607", "7004 Foxrun Ave.", 4, "220000", "020000"
"Pub 13", "IN11672", "Mishawaka", "IN", "5693238607", "7004 Foxrun Ave.", 5, "220000", "020000"
"Pub 13", "IN11672", "Mishawaka", "IN", "5693238607", "7004 Foxrun Ave.", 6, "220000", "020000"
"Pub 13", "IN11672", "Mishawaka", "IN", "5693238607", "7004 Foxrun Ave.", 7, "220000", "020000"
"Jake's Grill", "IN74852", "South Bend", "IN", "3987323445", "7216 Birch Hill Street", 1, "130000", "030000"
"Jake's Grill", "IN74852", "South Bend", "IN", "3987323445", "7216 Birch Hill Street", 2, "130000", "030000"
"Jake's Grill", "IN74852", "South Bend", "IN", "3987323445", "7216 Birch Hill Street", 3, "130000", "030000"
"Jake's Grill", "IN74852", "South Bend", "IN", "3987323445", "7216 Birch Hill Street", 4, "130000", "030000"
"Jake's Grill", "IN74852", "South Bend", "IN", "3987323445", "7216 Birch Hill Street", 5, "130000", "030000"
"Jake's Grill", "IN74852", "South Bend", "IN", "3987323445", "7216 Birch Hill Street", 6, "180000", "020000"
"Jake's Grill", "IN74852", "South Bend", "IN", "3987323445", "7216 Birch Hill Street", 7, "130000", "030000"
"Eight Seconds", "CA73085", "Coachella", "CA", "6687715594", "342 Beechwood Street", 1, "080000", "210000"
"Eight Seconds", "CA73085", "Coachella", "CA", "6687715594", "342 Beechwood Street", 2, "080000", "210000"
"Eight Seconds", "CA73085", "Coachella", "CA", "6687715594", "342 Beechwood Street", 3, "080000", "210000"
"Eight Seconds", "CA73085", "Coachella", "CA", "6687715594", "342 Beechwood Street", 4, "080000", "210000"
"Eight Seconds", "CA73085", "Coachella", "CA", "6687715594", "342 Beechwood Street", 5, "080000", "210000"
"Eight Seconds", "CA73085", "Coachella", "CA", "6687715594", "342 Beechwood Street", 6, "080000", "210000"
"Eight Seconds", "CA73085", "Coachella", "CA", "6687715594", "342 Beechwood Street", 7, "080000", "210000"
"Apple Inn", "IL72520", "Grayslake", "IL", "8003889170", "37 Fairfield Ave.", 1, "060000", "220000"
"Apple Inn", "IL72520", "Grayslake", "IL", "8003889170", "37 Fairfield Ave.", 2, "060000", "220000"
"Apple Inn", "IL72520", "Grayslake", "IL", "8003889170", "37 Fairfield Ave.", 3, "060000", "220000"
"Apple Inn", "IL72520", "Grayslake", "IL", "8003889170", "37 Fairfield Ave.", 4, "060000", "220000"
"Apple Inn", "IL72520", "Grayslake", "IL", "8003889170", "37 Fairfield Ave.", 5, "060000", "220000"
"Apple Inn", "IL72520", "Grayslake", "IL", "8003889170", "37 Fairfield Ave.", 6, "060000", "220000"
"Apple Inn", "IL72520", "Grayslake", "IL", "8003889170", "37 Fairfield Ave.", 7, "060000", "220000"
"World Beer Direct", "FL49160", "Boynton Beach", "FL", "9954545286", "187 Glenwood Rd.", 1, "060000", "110000"
"World Beer Direct", "FL49160", "Boynton Beach", "FL", "9954545286", "187 Glenwood Rd.", 2, "060000", "110000"
"World Beer Direct", "FL49160", "Boynton Beach", "FL", "9954545286", "187 Glenwood Rd.", 3, "060000", "110000"
"World Beer Direct", "FL49160", "Boynton Beach", "FL", "9954545286", "187 Glenwood Rd.", 4, "060000", "110000"
"World Beer Direct", "FL49160", "Boynton Beach", "FL", "9954545286", "187 Glenwood Rd.", 5, "060000", "110000"
"World Beer Direct", "FL49160", "Boynton Beach", "FL", "9954545286", "187 Glenwood Rd.", 6, "060000", "110000"
"World Beer Direct", "FL49160", "Boynton Beach", "FL", "9954545286", "187 Glenwood Rd.", 7, "060000", "110000"
"Improper Bostonian", "GA44819", "Flowery Branch", "GA", "4234727678", "887 Applegate St.", 1, "210000", "020000"
"Improper Bostonian", "GA44819", "Flowery Branch", "GA", "4234727678", "887 Applegate St.", 2, "150000", "220000"
"Improper Bostonian", "GA44819", "Flowery Branch", "GA", "4234727678", "887 Applegate St.", 3, "060000", "200000"
"Improper Bostonian", "GA44819", "Flowery Branch", "GA", "4234727678", "887 Applegate St.", 4, "210000", "020000"
"Improper Bostonian", "GA44819", "Flowery Branch", "GA", "4234727678", "887 Applegate St.", 5, "060000", "200000"
"Improper Bostonian", "GA44819", "Flowery Branch", "GA", "4234727678", "887 Applegate St.", 6, "150000", "220000"
"Improper Bostonian", "GA44819", "Flowery Branch", "GA", "4234727678", "887 Applegate St.", 7, "060000", "200000"
"Swamp Sports Bar & Restaurant", "NJ61962", "Phillipsburg", "NJ", "3269386393", "1 Pierce Street", 1, "180000", "220000"
"Swamp Sports Bar & Restaurant", "NJ61962", "Phillipsburg", "NJ", "3269386393", "1 Pierce Street", 2, "180000", "220000"
"Swamp Sports Bar & Restaurant", "NJ61962", "Phillipsburg", "NJ", "3269386393", "1 Pierce Street", 3, "180000", "220000"
"Swamp Sports Bar & Restaurant", "NJ61962", "Phillipsburg", "NJ", "3269386393", "1 Pierce Street", 4, "180000", "220000"
"Swamp Sports Bar & Restaurant", "NJ61962", "Phillipsburg", "NJ", "3269386393", "1 Pierce Street", 5, "180000", "220000"
"Swamp Sports Bar & Restaurant", "NJ61962", "Phillipsburg", "NJ", "3269386393", "1 Pierce Street", 6, "070000", "190000"
"Swamp Sports Bar & Restaurant", "NJ61962", "Phillipsburg", "NJ", "3269386393", "1 Pierce Street", 7, "180000", "220000"
"Dixie Taverne", "PA52498", "Media", "PA", "5614421249", "99 Hudson St.", 1, "200000", "010000"
"Dixie Taverne", "PA52498", "Media", "PA", "5614421249", "99 Hudson St.", 2, "200000", "010000"
"Dixie Taverne", "PA52498", "Media", "PA", "5614421249", "99 Hudson St.", 3, "200000", "010000"
"Dixie Taverne", "PA52498", "Media", "PA", "5614421249", "99 Hudson St.", 4, "200000", "010000"
"Dixie Taverne", "PA52498", "Media", "PA", "5614421249", "99 Hudson St.", 5, "200000", "010000"
"Dixie Taverne", "PA52498", "Media", "PA", "5614421249", "99 Hudson St.", 6, "200000", "010000"
"Dixie Taverne", "PA52498", "Media", "PA", "5614421249", "99 Hudson St.", 7, "200000", "010000"
"Lone Star Athletic Football Club", "MA89072", "Framingham", "MA", "5587202349", "56 Mill Dr.", 1, "190000", "230000"
"Lone Star Athletic Football Club", "MA89072", "Framingham", "MA", "5587202349", "56 Mill Dr.", 2, "190000", "230000"
"Lone Star Athletic Football Club", "MA89072", "Framingham", "MA", "5587202349", "56 Mill Dr.", 3, "190000", "230000"
"Lone Star Athletic Football Club", "MA89072", "Framingham", "MA", "5587202349", "56 Mill Dr.", 4, "190000", "230000"
"Lone Star Athletic Football Club", "MA89072", "Framingham", "MA", "5587202349", "56 Mill Dr.", 5, "190000", "230000"
"Lone Star Athletic Football Club", "MA89072", "Framingham", "MA", "5587202349", "56 Mill Dr.", 6, "190000", "230000"
"Lone Star Athletic Football Club", "MA89072", "Framingham", "MA", "5587202349", "56 Mill Dr.", 7, "190000", "230000"
"Star Tavern & Pizzeria", "OH11315", "Pickerington", "OH", "2527116902", "86 Pheasant Street", 1, "200000", "020000"
"Star Tavern & Pizzeria", "OH11315", "Pickerington", "OH", "2527116902", "86 Pheasant Street", 2, "200000", "020000"
"Star Tavern & Pizzeria", "OH11315", "Pickerington", "OH", "2527116902", "86 Pheasant Street", 3, "200000", "020000"
"Star Tavern & Pizzeria", "OH11315", "Pickerington", "OH", "2527116902", "86 Pheasant Street", 4, "200000", "020000"
"Star Tavern & Pizzeria", "OH11315", "Pickerington", "OH", "2527116902", "86 Pheasant Street", 5, "200000", "020000"
"Star Tavern & Pizzeria", "OH11315", "Pickerington", "OH", "2527116902", "86 Pheasant Street", 6, "200000", "020000"
"Star Tavern & Pizzeria", "OH11315", "Pickerington", "OH", "2527116902", "86 Pheasant Street", 7, "200000", "020000"
"Champions Sports Bar", "NC86860", "Leland", "NC", "3904135178", "7559 Studebaker Dr.", 1, "120000", "230000"
"Champions Sports Bar", "NC86860", "Leland", "NC", "3904135178", "7559 Studebaker Dr.", 2, "120000", "190000"
"Champions Sports Bar", "NC86860", "Leland", "NC", "3904135178", "7559 Studebaker Dr.", 3, "120000", "230000"
"Champions Sports Bar", "NC86860", "Leland", "NC", "3904135178", "7559 Studebaker Dr.", 4, "120000", "230000"
"Champions Sports Bar", "NC86860", "Leland", "NC", "3904135178", "7559 Studebaker Dr.", 5, "120000", "230000"
"Champions Sports Bar", "NC86860", "Leland", "NC", "3904135178", "7559 Studebaker Dr.", 6, "120000", "230000"
"Champions Sports Bar", "NC86860", "Leland", "NC", "3904135178", "7559 Studebaker Dr.", 7, "120000", "230000"
"Tradesman Tavern Inc", "NJ35874", "North Bergen", "NJ", "6232679852", "292 South Myers Dr.", 1, "210000", "010000"
"Tradesman Tavern Inc", "NJ35874", "North Bergen", "NJ", "6232679852", "292 South Myers Dr.", 2, "210000", "010000"
"Tradesman Tavern Inc", "NJ35874", "North Bergen", "NJ", "6232679852", "292 South Myers Dr.", 3, "210000", "010000"
"Tradesman Tavern Inc", "NJ35874", "North Bergen", "NJ", "6232679852", "292 South Myers Dr.", 4, "210000", "010000"
"Tradesman Tavern Inc", "NJ35874", "North Bergen", "NJ", "6232679852", "292 South Myers Dr.", 5, "210000", "010000"
"Tradesman Tavern Inc", "NJ35874", "North Bergen", "NJ", "6232679852", "292 South Myers Dr.", 6, "210000", "010000"
"Tradesman Tavern Inc", "NJ35874", "North Bergen", "NJ", "6232679852", "292 South Myers Dr.", 7, "210000", "010000"
"Stonebridge Village Poa", "OH23284", "Toledo", "OH", "4776051791", "16 53rd Drive", 1, "190000", "000000"
"Stonebridge Village Poa", "OH23284", "Toledo", "OH", "4776051791", "16 53rd Drive", 2, "190000", "000000"
"Stonebridge Village Poa", "OH23284", "Toledo", "OH", "4776051791", "16 53rd Drive", 3, "190000", "000000"
"Stonebridge Village Poa", "OH23284", "Toledo", "OH", "4776051791", "16 53rd Drive", 4, "190000", "000000"
"Stonebridge Village Poa", "OH23284", "Toledo", "OH", "4776051791", "16 53rd Drive", 5, "190000", "000000"
"Stonebridge Village Poa", "OH23284", "Toledo", "OH", "4776051791", "16 53rd Drive", 6, "190000", "000000"
"Stonebridge Village Poa", "OH23284", "Toledo", "OH", "4776051791", "16 53rd Drive", 7, "190000", "000000"
"Hotshots Sports Bar & Grill", "OH58375", "Maineville", "OH", "5374542409", "9922 Pearl Avenue", 1, "060000", "150000"
"Hotshots Sports Bar & Grill", "OH58375", "Maineville", "OH", "5374542409", "9922 Pearl Avenue", 2, "060000", "150000"
"Hotshots Sports Bar & Grill", "OH58375", "Maineville", "OH", "5374542409", "9922 Pearl Avenue", 3, "060000", "150000"
"Hotshots Sports Bar & Grill", "OH58375", "Maineville", "OH", "5374542409", "9922 Pearl Avenue", 4, "060000", "150000"
"Hotshots Sports Bar & Grill", "OH58375", "Maineville", "OH", "5374542409", "9922 Pearl Avenue", 5, "060000", "150000"
"Hotshots Sports Bar & Grill", "OH58375", "Maineville", "OH", "5374542409", "9922 Pearl Avenue", 6, "060000", "150000"
"Hotshots Sports Bar & Grill", "OH58375", "Maineville", "OH", "5374542409", "9922 Pearl Avenue", 7, "060000", "150000"
"Kainoa's Sports Bar & Restrnt", "NY62585", "Astoria", "NY", "5709353680", "165 Leeton Ridge St.", 1, "190000", "230000"
"Kainoa's Sports Bar & Restrnt", "NY62585", "Astoria", "NY", "5709353680", "165 Leeton Ridge St.", 2, "190000", "230000"
"Kainoa's Sports Bar & Restrnt", "NY62585", "Astoria", "NY", "5709353680", "165 Leeton Ridge St.", 3, "190000", "230000"
"Kainoa's Sports Bar & Restrnt", "NY62585", "Astoria", "NY", "5709353680", "165 Leeton Ridge St.", 4, "190000", "230000"
"Kainoa's Sports Bar & Restrnt", "NY62585", "Astoria", "NY", "5709353680", "165 Leeton Ridge St.", 5, "190000", "230000"
"Kainoa's Sports Bar & Restrnt", "NY62585", "Astoria", "NY", "5709353680", "165 Leeton Ridge St.", 6, "190000", "230000"
"Kainoa's Sports Bar & Restrnt", "NY62585", "Astoria", "NY", "5709353680", "165 Leeton Ridge St.", 7, "190000", "230000"
"Tweed's Pub Restaurant", "NJ56305", "Vineland", "NJ", "3105834091", "859 Roehampton Ave.", 1, "170000", "020000"
"Tweed's Pub Restaurant", "NJ56305", "Vineland", "NJ", "3105834091", "859 Roehampton Ave.", 2, "170000", "020000"
"Tweed's Pub Restaurant", "NJ56305", "Vineland", "NJ", "3105834091", "859 Roehampton Ave.", 3, "170000", "020000"
"Tweed's Pub Restaurant", "NJ56305", "Vineland", "NJ", "3105834091", "859 Roehampton Ave.", 4, "170000", "020000"
"Tweed's Pub Restaurant", "NJ56305", "Vineland", "NJ", "3105834091", "859 Roehampton Ave.", 5, "170000", "020000"
"Tweed's Pub Restaurant", "NJ56305", "Vineland", "NJ", "3105834091", "859 Roehampton Ave.", 6, "170000", "020000"
"Tweed's Pub Restaurant", "NJ56305", "Vineland", "NJ", "3105834091", "859 Roehampton Ave.", 7, "170000", "020000"
"Moms Toy Box", "GA85982", "Lilburn", "GA", "9305529864", "8088 4th Road", 1, "090000", "020000"
"Moms Toy Box", "GA85982", "Lilburn", "GA", "9305529864", "8088 4th Road", 2, "090000", "020000"
"Moms Toy Box", "GA85982", "Lilburn", "GA", "9305529864", "8088 4th Road", 3, "090000", "020000"
"Moms Toy Box", "GA85982", "Lilburn", "GA", "9305529864", "8088 4th Road", 4, "090000", "020000"
"Moms Toy Box", "GA85982", "Lilburn", "GA", "9305529864", "8088 4th Road", 5, "090000", "020000"
"Moms Toy Box", "GA85982", "Lilburn", "GA", "9305529864", "8088 4th Road", 6, "170000", "230000"
"Moms Toy Box", "GA85982", "Lilburn", "GA", "9305529864", "8088 4th Road", 7, "090000", "020000"
"Round-Up Saloon", "MA26479", "Brookline", "MA", "7062664726", "980 Kirkland Avenue", 1, "080000", "190000"
"Round-Up Saloon", "MA26479", "Brookline", "MA", "7062664726", "980 Kirkland Avenue", 2, "080000", "180000"
"Round-Up Saloon", "MA26479", "Brookline", "MA", "7062664726", "980 Kirkland Avenue", 3, "080000", "180000"
"Round-Up Saloon", "MA26479", "Brookline", "MA", "7062664726", "980 Kirkland Avenue", 4, "080000", "180000"
"Round-Up Saloon", "MA26479", "Brookline", "MA", "7062664726", "980 Kirkland Avenue", 5, "080000", "180000"
"Round-Up Saloon", "MA26479", "Brookline", "MA", "7062664726", "980 Kirkland Avenue", 6, "080000", "180000"
"Round-Up Saloon", "MA26479", "Brookline", "MA", "7062664726", "980 Kirkland Avenue", 7, "080000", "190000"
"Tryst Lounge", "NY24747", "Hopewell Junction", "NY", "2112434906", "321 Orange Ave.", 1, "180000", "020000"
"Tryst Lounge", "NY24747", "Hopewell Junction", "NY", "2112434906", "321 Orange Ave.", 2, "180000", "020000"
"Tryst Lounge", "NY24747", "Hopewell Junction", "NY", "2112434906", "321 Orange Ave.", 3, "180000", "020000"
"Tryst Lounge", "NY24747", "Hopewell Junction", "NY", "2112434906", "321 Orange Ave.", 4, "180000", "020000"
"Tryst Lounge", "NY24747", "Hopewell Junction", "NY", "2112434906", "321 Orange Ave.", 5, "180000", "020000"
"Tryst Lounge", "NY24747", "Hopewell Junction", "NY", "2112434906", "321 Orange Ave.", 6, "180000", "020000"
"Tryst Lounge", "NY24747", "Hopewell Junction", "NY", "2112434906", "321 Orange Ave.", 7, "180000", "020000"
"Atomic Cantina", "KY30487", "Owensboro", "KY", "9339000005", "8471 Smith Drive", 1, "120000", "000000"
"Atomic Cantina", "KY30487", "Owensboro", "KY", "9339000005", "8471 Smith Drive", 2, "120000", "000000"
"Atomic Cantina", "KY30487", "Owensboro", "KY", "9339000005", "8471 Smith Drive", 3, "120000", "000000"
"Atomic Cantina", "KY30487", "Owensboro", "KY", "9339000005", "8471 Smith Drive", 4, "120000", "000000"
"Atomic Cantina", "KY30487", "Owensboro", "KY", "9339000005", "8471 Smith Drive", 5, "120000", "000000"
"Atomic Cantina", "KY30487", "Owensboro", "KY", "9339000005", "8471 Smith Drive", 6, "120000", "000000"
"Atomic Cantina", "KY30487", "Owensboro", "KY", "9339000005", "8471 Smith Drive", 7, "120000", "000000"
"Kesler Sports Bar & Grill", "MA50302", "Reading", "MA", "7174812419", "454 Nut Swamp Court", 1, "160000", "210000"
"Kesler Sports Bar & Grill", "MA50302", "Reading", "MA", "7174812419", "454 Nut Swamp Court", 2, "160000", "210000"
"Kesler Sports Bar & Grill", "MA50302", "Reading", "MA", "7174812419", "454 Nut Swamp Court", 3, "160000", "210000"
"Kesler Sports Bar & Grill", "MA50302", "Reading", "MA", "7174812419", "454 Nut Swamp Court", 4, "160000", "210000"
"Kesler Sports Bar & Grill", "MA50302", "Reading", "MA", "7174812419", "454 Nut Swamp Court", 5, "160000", "210000"
"Kesler Sports Bar & Grill", "MA50302", "Reading", "MA", "7174812419", "454 Nut Swamp Court", 6, "160000", "210000"
"Kesler Sports Bar & Grill", "MA50302", "Reading", "MA", "7174812419", "454 Nut Swamp Court", 7, "160000", "210000"
"Sheffield Wine & Spirits Center", "MD63376", "Rockville", "MD", "9243701173", "1 Ann Drive", 1, "120000", "190000"
"Sheffield Wine & Spirits Center", "MD63376", "Rockville", "MD", "9243701173", "1 Ann Drive", 2, "120000", "190000"
"Sheffield Wine & Spirits Center", "MD63376", "Rockville", "MD", "9243701173", "1 Ann Drive", 3, "110000", "000000"
"Sheffield Wine & Spirits Center", "MD63376", "Rockville", "MD", "9243701173", "1 Ann Drive", 4, "110000", "000000"
"Sheffield Wine & Spirits Center", "MD63376", "Rockville", "MD", "9243701173", "1 Ann Drive", 5, "110000", "000000"
"Sheffield Wine & Spirits Center", "MD63376", "Rockville", "MD", "9243701173", "1 Ann Drive", 6, "120000", "190000"
"Sheffield Wine & Spirits Center", "MD63376", "Rockville", "MD", "9243701173", "1 Ann Drive", 7, "120000", "190000"
"Basement", "PA15827", "Glenside", "PA", "7262992001", "874 Newbridge St.", 1, "170000", "220000"
"Basement", "PA15827", "Glenside", "PA", "7262992001", "874 Newbridge St.", 2, "170000", "220000"
"Basement", "PA15827", "Glenside", "PA", "7262992001", "874 Newbridge St.", 3, "170000", "220000"
"Basement", "PA15827", "Glenside", "PA", "7262992001", "874 Newbridge St.", 4, "160000", "210000"
"Basement", "PA15827", "Glenside", "PA", "7262992001", "874 Newbridge St.", 5, "170000", "220000"
"Basement", "PA15827", "Glenside", "PA", "7262992001", "874 Newbridge St.", 6, "170000", "220000"
"Basement", "PA15827", "Glenside", "PA", "7262992001", "874 Newbridge St.", 7, "180000", "220000"
"Worldwide Wine Services", "OH73400", "Hilliard", "OH", "6582802739", "180 Vermont Drive", 1, "130000", "220000"
"Worldwide Wine Services", "OH73400", "Hilliard", "OH", "6582802739", "180 Vermont Drive", 2, "130000", "220000"
"Worldwide Wine Services", "OH73400", "Hilliard", "OH", "6582802739", "180 Vermont Drive", 3, "130000", "220000"
"Worldwide Wine Services", "OH73400", "Hilliard", "OH", "6582802739", "180 Vermont Drive", 4, "130000", "220000"
"Worldwide Wine Services", "OH73400", "Hilliard", "OH", "6582802739", "180 Vermont Drive", 5, "130000", "220000"
"Worldwide Wine Services", "OH73400", "Hilliard", "OH", "6582802739", "180 Vermont Drive", 6, "130000", "220000"
"Worldwide Wine Services", "OH73400", "Hilliard", "OH", "6582802739", "180 Vermont Drive", 7, "130000", "220000"
"Park Tavern Lounge & Lanes", "MD39855", "Lanham", "MD", "7834897885", "8374 Tarkiln Hill Street", 1, "070000", "020000"
"Park Tavern Lounge & Lanes", "MD39855", "Lanham", "MD", "7834897885", "8374 Tarkiln Hill Street", 2, "070000", "020000"
"Park Tavern Lounge & Lanes", "MD39855", "Lanham", "MD", "7834897885", "8374 Tarkiln Hill Street", 3, "070000", "020000"
"Park Tavern Lounge & Lanes", "MD39855", "Lanham", "MD", "7834897885", "8374 Tarkiln Hill Street", 4, "080000", "130000"
"Park Tavern Lounge & Lanes", "MD39855", "Lanham", "MD", "7834897885", "8374 Tarkiln Hill Street", 5, "070000", "020000"
"Park Tavern Lounge & Lanes", "MD39855", "Lanham", "MD", "7834897885", "8374 Tarkiln Hill Street", 6, "070000", "020000"
"Park Tavern Lounge & Lanes", "MD39855", "Lanham", "MD", "7834897885", "8374 Tarkiln Hill Street", 7, "070000", "020000"
"Kells Restaurant", "NC30136", "Lexington", "NC", "5568207172", "812 Hamilton St.", 1, "130000", "010000"
"Kells Restaurant", "NC30136", "Lexington", "NC", "5568207172", "812 Hamilton St.", 2, "130000", "010000"
"Kells Restaurant", "NC30136", "Lexington", "NC", "5568207172", "812 Hamilton St.", 3, "130000", "010000"
"Kells Restaurant", "NC30136", "Lexington", "NC", "5568207172", "812 Hamilton St.", 4, "130000", "010000"
"Kells Restaurant", "NC30136", "Lexington", "NC", "5568207172", "812 Hamilton St.", 5, "130000", "010000"
"Kells Restaurant", "NC30136", "Lexington", "NC", "5568207172", "812 Hamilton St.", 6, "130000", "010000"
"Kells Restaurant", "NC30136", "Lexington", "NC", "5568207172", "812 Hamilton St.", 7, "130000", "010000"
"Dolphin Inn", "CT50364", "East Haven", "CT", "9854226549", "468 Canal St.", 1, "070000", "110000"
"Dolphin Inn", "CT50364", "East Haven", "CT", "9854226549", "468 Canal St.", 2, "070000", "110000"
"Dolphin Inn", "CT50364", "East Haven", "CT", "9854226549", "468 Canal St.", 3, "070000", "110000"
"Dolphin Inn", "CT50364", "East Haven", "CT", "9854226549", "468 Canal St.", 4, "070000", "110000"
"Dolphin Inn", "CT50364", "East Haven", "CT", "9854226549", "468 Canal St.", 5, "070000", "110000"
"Dolphin Inn", "CT50364", "East Haven", "CT", "9854226549", "468 Canal St.", 6, "070000", "110000"
"Dolphin Inn", "CT50364", "East Haven", "CT", "9854226549", "468 Canal St.", 7, "070000", "110000"
"Union Street Station", "MD51723", "Salisbury", "MD", "3254949283", "217 Riverside Ave.", 1, "070000", "210000"
"Union Street Station", "MD51723", "Salisbury", "MD", "3254949283", "217 Riverside Ave.", 2, "070000", "210000"
"Union Street Station", "MD51723", "Salisbury", "MD", "3254949283", "217 Riverside Ave.", 3, "070000", "210000"
"Union Street Station", "MD51723", "Salisbury", "MD", "3254949283", "217 Riverside Ave.", 4, "070000", "210000"
"Union Street Station", "MD51723", "Salisbury", "MD", "3254949283", "217 Riverside Ave.", 5, "070000", "210000"
"Union Street Station", "MD51723", "Salisbury", "MD", "3254949283", "217 Riverside Ave.", 6, "070000", "210000"
"Union Street Station", "MD51723", "Salisbury", "MD", "3254949283", "217 Riverside Ave.", 7, "070000", "210000"
"Twin Peeks", "NJ63518", "Brick", "NJ", "7995619927", "995 Hillside Road", 1, "140000", "000000"
"Twin Peeks", "NJ63518", "Brick", "NJ", "7995619927", "995 Hillside Road", 2, "140000", "000000"
"Twin Peeks", "NJ63518", "Brick", "NJ", "7995619927", "995 Hillside Road", 3, "140000", "000000"
"Twin Peeks", "NJ63518", "Brick", "NJ", "7995619927", "995 Hillside Road", 4, "090000", "130000"
"Twin Peeks", "NJ63518", "Brick", "NJ", "7995619927", "995 Hillside Road", 5, "140000", "000000"
"Twin Peeks", "NJ63518", "Brick", "NJ", "7995619927", "995 Hillside Road", 6, "140000", "000000"
"Twin Peeks", "NJ63518", "Brick", "NJ", "7995619927", "995 Hillside Road", 7, "200000", "010000"
"Crystal Corner Bar", "NY12503", "Lindenhurst", "NY", "6348326448", "8727 West Brandywine Road", 1, "150000", "230000"
"Crystal Corner Bar", "NY12503", "Lindenhurst", "NY", "6348326448", "8727 West Brandywine Road", 2, "150000", "230000"
"Crystal Corner Bar", "NY12503", "Lindenhurst", "NY", "6348326448", "8727 West Brandywine Road", 3, "150000", "230000"
"Crystal Corner Bar", "NY12503", "Lindenhurst", "NY", "6348326448", "8727 West Brandywine Road", 4, "150000", "230000"
"Crystal Corner Bar", "NY12503", "Lindenhurst", "NY", "6348326448", "8727 West Brandywine Road", 5, "150000", "230000"
"Crystal Corner Bar", "NY12503", "Lindenhurst", "NY", "6348326448", "8727 West Brandywine Road", 6, "150000", "230000"
"Crystal Corner Bar", "NY12503", "Lindenhurst", "NY", "6348326448", "8727 West Brandywine Road", 7, "150000", "230000"
"Wolfs Tavern", "GA17399", "Decatur", "GA", "5552174061", "9714 Brandywine St.", 1, "060000", "200000"
"Wolfs Tavern", "GA17399", "Decatur", "GA", "5552174061", "9714 Brandywine St.", 2, "060000", "200000"
"Wolfs Tavern", "GA17399", "Decatur", "GA", "5552174061", "9714 Brandywine St.", 3, "060000", "200000"
"Wolfs Tavern", "GA17399", "Decatur", "GA", "5552174061", "9714 Brandywine St.", 4, "060000", "200000"
"Wolfs Tavern", "GA17399", "Decatur", "GA", "5552174061", "9714 Brandywine St.", 5, "060000", "200000"
"Wolfs Tavern", "GA17399", "Decatur", "GA", "5552174061", "9714 Brandywine St.", 6, "060000", "200000"
"Wolfs Tavern", "GA17399", "Decatur", "GA", "5552174061", "9714 Brandywine St.", 7, "060000", "200000"
"Bottling CO", "FL76313", "Bonita Springs", "FL", "3172194368", "9414 Littleton St.", 1, "120000", "200000"
"Bottling CO", "FL76313", "Bonita Springs", "FL", "3172194368", "9414 Littleton St.", 2, "120000", "200000"
"Bottling CO", "FL76313", "Bonita Springs", "FL", "3172194368", "9414 Littleton St.", 3, "120000", "200000"
"Bottling CO", "FL76313", "Bonita Springs", "FL", "3172194368", "9414 Littleton St.", 4, "120000", "200000"
"Bottling CO", "FL76313", "Bonita Springs", "FL", "3172194368", "9414 Littleton St.", 5, "120000", "200000"
"Bottling CO", "FL76313", "Bonita Springs", "FL", "3172194368", "9414 Littleton St.", 6, "120000", "200000"
"Bottling CO", "FL76313", "Bonita Springs", "FL", "3172194368", "9414 Littleton St.", 7, "120000", "200000"
"Off Broadway", "GA44118", "Ellenwood", "GA", "3377242023", "7526 E. La Sierra Ave.", 1, "180000", "020000"
"Off Broadway", "GA44118", "Ellenwood", "GA", "3377242023", "7526 E. La Sierra Ave.", 2, "170000", "000000"
"Off Broadway", "GA44118", "Ellenwood", "GA", "3377242023", "7526 E. La Sierra Ave.", 3, "180000", "020000"
"Off Broadway", "GA44118", "Ellenwood", "GA", "3377242023", "7526 E. La Sierra Ave.", 4, "180000", "020000"
"Off Broadway", "GA44118", "Ellenwood", "GA", "3377242023", "7526 E. La Sierra Ave.", 5, "170000", "000000"
"Off Broadway", "GA44118", "Ellenwood", "GA", "3377242023", "7526 E. La Sierra Ave.", 6, "170000", "000000"
"Off Broadway", "GA44118", "Ellenwood", "GA", "3377242023", "7526 E. La Sierra Ave.", 7, "170000", "000000"
"Saturn", "TN10328", "Hermitage", "TN", "5512537850", "8050 Taylor Dr.", 1, "180000", "020000"
"Saturn", "TN10328", "Hermitage", "TN", "5512537850", "8050 Taylor Dr.", 2, "180000", "020000"
"Saturn", "TN10328", "Hermitage", "TN", "5512537850", "8050 Taylor Dr.", 3, "180000", "020000"
"Saturn", "TN10328", "Hermitage", "TN", "5512537850", "8050 Taylor Dr.", 4, "180000", "020000"
"Saturn", "TN10328", "Hermitage", "TN", "5512537850", "8050 Taylor Dr.", 5, "130000", "180000"
"Saturn", "TN10328", "Hermitage", "TN", "5512537850", "8050 Taylor Dr.", 6, "180000", "020000"
"Saturn", "TN10328", "Hermitage", "TN", "5512537850", "8050 Taylor Dr.", 7, "180000", "020000"
"Met Lounge", "NY64469", "Holbrook", "NY", "7826320246", "33 Prospect St.", 1, "100000", "210000"
"Met Lounge", "NY64469", "Holbrook", "NY", "7826320246", "33 Prospect St.", 2, "100000", "210000"
"Met Lounge", "NY64469", "Holbrook", "NY", "7826320246", "33 Prospect St.", 3, "100000", "210000"
"Met Lounge", "NY64469", "Holbrook", "NY", "7826320246", "33 Prospect St.", 4, "100000", "210000"
"Met Lounge", "NY64469", "Holbrook", "NY", "7826320246", "33 Prospect St.", 5, "100000", "210000"
"Met Lounge", "NY64469", "Holbrook", "NY", "7826320246", "33 Prospect St.", 6, "100000", "210000"
"Met Lounge", "NY64469", "Holbrook", "NY", "7826320246", "33 Prospect St.", 7, "100000", "210000"
"Dillinger's Inc", "GA17394", "Dalton", "GA", "3985518816", "239 Fifth St.", 1, "110000", "150000"
"Dillinger's Inc", "GA17394", "Dalton", "GA", "3985518816", "239 Fifth St.", 2, "200000", "000000"
"Dillinger's Inc", "GA17394", "Dalton", "GA", "3985518816", "239 Fifth St.", 3, "200000", "020000"
"Dillinger's Inc", "GA17394", "Dalton", "GA", "3985518816", "239 Fifth St.", 4, "200000", "020000"
"Dillinger's Inc", "GA17394", "Dalton", "GA", "3985518816", "239 Fifth St.", 5, "200000", "020000"
"Dillinger's Inc", "GA17394", "Dalton", "GA", "3985518816", "239 Fifth St.", 6, "200000", "020000"
"Dillinger's Inc", "GA17394", "Dalton", "GA", "3985518816", "239 Fifth St.", 7, "200000", "020000"
"War Room", "NC49664", "Graham", "NC", "8898086247", "655 Anderson Street", 1, "100000", "180000"
"War Room", "NC49664", "Graham", "NC", "8898086247", "655 Anderson Street", 2, "100000", "180000"
"War Room", "NC49664", "Graham", "NC", "8898086247", "655 Anderson Street", 3, "100000", "180000"
"War Room", "NC49664", "Graham", "NC", "8898086247", "655 Anderson Street", 4, "100000", "180000"
"War Room", "NC49664", "Graham", "NC", "8898086247", "655 Anderson Street", 5, "100000", "180000"
"War Room", "NC49664", "Graham", "NC", "8898086247", "655 Anderson Street", 6, "080000", "190000"
"War Room", "NC49664", "Graham", "NC", "8898086247", "655 Anderson Street", 7, "100000", "180000"
"New York Dolls", "NY41058", "Oceanside", "NY", "2345685033", "84 Mulberry St.", 1, "170000", "000000"
"New York Dolls", "NY41058", "Oceanside", "NY", "2345685033", "84 Mulberry St.", 2, "170000", "000000"
"New York Dolls", "NY41058", "Oceanside", "NY", "2345685033", "84 Mulberry St.", 3, "070000", "180000"
"New York Dolls", "NY41058", "Oceanside", "NY", "2345685033", "84 Mulberry St.", 4, "170000", "000000"
"New York Dolls", "NY41058", "Oceanside", "NY", "2345685033", "84 Mulberry St.", 5, "170000", "000000"
"New York Dolls", "NY41058", "Oceanside", "NY", "2345685033", "84 Mulberry St.", 6, "170000", "000000"
"New York Dolls", "NY41058", "Oceanside", "NY", "2345685033", "84 Mulberry St.", 7, "170000", "000000"
"Crowe Bar", "LA74858", "Metairie", "LA", "9865140839", "194 Tallwood St.", 1, "150000", "040000"
"Crowe Bar", "LA74858", "Metairie", "LA", "9865140839", "194 Tallwood St.", 2, "150000", "040000"
"Crowe Bar", "LA74858", "Metairie", "LA", "9865140839", "194 Tallwood St.", 3, "150000", "040000"
"Crowe Bar", "LA74858", "Metairie", "LA", "9865140839", "194 Tallwood St.", 4, "150000", "040000"
"Crowe Bar", "LA74858", "Metairie", "LA", "9865140839", "194 Tallwood St.", 5, "150000", "040000"
"Crowe Bar", "LA74858", "Metairie", "LA", "9865140839", "194 Tallwood St.", 6, "150000", "040000"
"Crowe Bar", "LA74858", "Metairie", "LA", "9865140839", "194 Tallwood St.", 7, "150000", "040000"
"Dejavu Nightclub", "NJ18127", "Bridgeton", "NJ", "9244351028", "872 Purple Finch Road", 1, "110000", "150000"
"Dejavu Nightclub", "NJ18127", "Bridgeton", "NJ", "9244351028", "872 Purple Finch Road", 2, "110000", "150000"
"Dejavu Nightclub", "NJ18127", "Bridgeton", "NJ", "9244351028", "872 Purple Finch Road", 3, "170000", "230000"
"Dejavu Nightclub", "NJ18127", "Bridgeton", "NJ", "9244351028", "872 Purple Finch Road", 4, "110000", "150000"
"Dejavu Nightclub", "NJ18127", "Bridgeton", "NJ", "9244351028", "872 Purple Finch Road", 5, "110000", "150000"
"Dejavu Nightclub", "NJ18127", "Bridgeton", "NJ", "9244351028", "872 Purple Finch Road", 6, "110000", "150000"
"Dejavu Nightclub", "NJ18127", "Bridgeton", "NJ", "9244351028", "872 Purple Finch Road", 7, "110000", "150000"
"Charles A. Meyer", "MD16567", "Columbia", "MD", "8944148041", "572 Third Road", 1, "220000", "020000"
"Charles A. Meyer", "MD16567", "Columbia", "MD", "8944148041", "572 Third Road", 2, "220000", "020000"
"Charles A. Meyer", "MD16567", "Columbia", "MD", "8944148041", "572 Third Road", 3, "220000", "020000"
"Charles A. Meyer", "MD16567", "Columbia", "MD", "8944148041", "572 Third Road", 4, "220000", "020000"
"Charles A. Meyer", "MD16567", "Columbia", "MD", "8944148041", "572 Third Road", 5, "220000", "020000"
"Charles A. Meyer", "MD16567", "Columbia", "MD", "8944148041", "572 Third Road", 6, "070000", "000000"
"Charles A. Meyer", "MD16567", "Columbia", "MD", "8944148041", "572 Third Road", 7, "070000", "000000"
"Spot On The Alley", "OH24326", "Xenia", "OH", "9503842045", "729 San Carlos Ave.", 1, "170000", "020000"
"Spot On The Alley", "OH24326", "Xenia", "OH", "9503842045", "729 San Carlos Ave.", 2, "170000", "020000"
"Spot On The Alley", "OH24326", "Xenia", "OH", "9503842045", "729 San Carlos Ave.", 3, "170000", "020000"
"Spot On The Alley", "OH24326", "Xenia", "OH", "9503842045", "729 San Carlos Ave.", 4, "170000", "020000"
"Spot On The Alley", "OH24326", "Xenia", "OH", "9503842045", "729 San Carlos Ave.", 5, "170000", "020000"
"Spot On The Alley", "OH24326", "Xenia", "OH", "9503842045", "729 San Carlos Ave.", 6, "170000", "020000"
"Spot On The Alley", "OH24326", "Xenia", "OH", "9503842045", "729 San Carlos Ave.", 7, "170000", "020000"
"J D Bar Corp", "NY94841", "Ozone Park", "NY", "2329619137", "323 Amherst St.", 1, "110000", "220000"
"J D Bar Corp", "NY94841", "Ozone Park", "NY", "2329619137", "323 Amherst St.", 2, "110000", "220000"
"J D Bar Corp", "NY94841", "Ozone Park", "NY", "2329619137", "323 Amherst St.", 3, "110000", "220000"
"J D Bar Corp", "NY94841", "Ozone Park", "NY", "2329619137", "323 Amherst St.", 4, "110000", "220000"
"J D Bar Corp", "NY94841", "Ozone Park", "NY", "2329619137", "323 Amherst St.", 5, "110000", "220000"
"J D Bar Corp", "NY94841", "Ozone Park", "NY", "2329619137", "323 Amherst St.", 6, "110000", "220000"
"J D Bar Corp", "NY94841", "Ozone Park", "NY", "2329619137", "323 Amherst St.", 7, "070000", "210000"
"Arlene's", "MD94281", "Bethesda", "MD", "7865562720", "188 Annadale Street", 1, "170000", "000000"
"Arlene's", "MD94281", "Bethesda", "MD", "7865562720", "188 Annadale Street", 2, "170000", "000000"
"Arlene's", "MD94281", "Bethesda", "MD", "7865562720", "188 Annadale Street", 3, "170000", "000000"
"Arlene's", "MD94281", "Bethesda", "MD", "7865562720", "188 Annadale Street", 4, "170000", "000000"
"Arlene's", "MD94281", "Bethesda", "MD", "7865562720", "188 Annadale Street", 5, "170000", "010000"
"Arlene's", "MD94281", "Bethesda", "MD", "7865562720", "188 Annadale Street", 6, "170000", "010000"
"Arlene's", "MD94281", "Bethesda", "MD", "7865562720", "188 Annadale Street", 7, "170000", "000000"
"Vault Night Club", "GA87496", "Evans", "GA", "3822766612", "187 Bradford Drive", 1, "140000", "000000"
"Vault Night Club", "GA87496", "Evans", "GA", "3822766612", "187 Bradford Drive", 2, "140000", "000000"
"Vault Night Club", "GA87496", "Evans", "GA", "3822766612", "187 Bradford Drive", 3, "140000", "000000"
"Vault Night Club", "GA87496", "Evans", "GA", "3822766612", "187 Bradford Drive", 4, "140000", "000000"
"Vault Night Club", "GA87496", "Evans", "GA", "3822766612", "187 Bradford Drive", 5, "140000", "000000"
"Vault Night Club", "GA87496", "Evans", "GA", "3822766612", "187 Bradford Drive", 6, "160000", "200000"
"Vault Night Club", "GA87496", "Evans", "GA", "3822766612", "187 Bradford Drive", 7, "140000", "000000"
"YUMIS SUSHI BAR", "VA37857", "Lynchburg", "VA", "7934586234", "886 Tower St.", 1, "180000", "230000"
"YUMIS SUSHI BAR", "VA37857", "Lynchburg", "VA", "7934586234", "886 Tower St.", 2, "180000", "230000"
"YUMIS SUSHI BAR", "VA37857", "Lynchburg", "VA", "7934586234", "886 Tower St.", 3, "180000", "230000"
"YUMIS SUSHI BAR", "VA37857", "Lynchburg", "VA", "7934586234", "886 Tower St.", 4, "180000", "230000"
"YUMIS SUSHI BAR", "VA37857", "Lynchburg", "VA", "7934586234", "886 Tower St.", 5, "150000", "200000"
"YUMIS SUSHI BAR", "VA37857", "Lynchburg", "VA", "7934586234", "886 Tower St.", 6, "180000", "230000"
"YUMIS SUSHI BAR", "VA37857", "Lynchburg", "VA", "7934586234", "886 Tower St.", 7, "150000", "200000"
"Johnny Mac's Scoreboard", "CA30165", "Redondo Beach", "CA", "7924344168", "637 Gregory Street", 1, "070000", "220000"
"Johnny Mac's Scoreboard", "CA30165", "Redondo Beach", "CA", "7924344168", "637 Gregory Street", 2, "070000", "220000"
"Johnny Mac's Scoreboard", "CA30165", "Redondo Beach", "CA", "7924344168", "637 Gregory Street", 3, "070000", "220000"
"Johnny Mac's Scoreboard", "CA30165", "Redondo Beach", "CA", "7924344168", "637 Gregory Street", 4, "070000", "220000"
"Johnny Mac's Scoreboard", "CA30165", "Redondo Beach", "CA", "7924344168", "637 Gregory Street", 5, "070000", "220000"
"Johnny Mac's Scoreboard", "CA30165", "Redondo Beach", "CA", "7924344168", "637 Gregory Street", 6, "070000", "220000"
"Johnny Mac's Scoreboard", "CA30165", "Redondo Beach", "CA", "7924344168", "637 Gregory Street", 7, "070000", "220000"
"Comedy Cellar", "CT53787", "Enfield", "CT", "9419708944", "991 Mill Pond St.", 1, "170000", "000000"
"Comedy Cellar", "CT53787", "Enfield", "CT", "9419708944", "991 Mill Pond St.", 2, "170000", "000000"
"Comedy Cellar", "CT53787", "Enfield", "CT", "9419708944", "991 Mill Pond St.", 3, "170000", "000000"
"Comedy Cellar", "CT53787", "Enfield", "CT", "9419708944", "991 Mill Pond St.", 4, "170000", "000000"
"Comedy Cellar", "CT53787", "Enfield", "CT", "9419708944", "991 Mill Pond St.", 5, "170000", "000000"
"Comedy Cellar", "CT53787", "Enfield", "CT", "9419708944", "991 Mill Pond St.", 6, "170000", "000000"
"Comedy Cellar", "CT53787", "Enfield", "CT", "9419708944", "991 Mill Pond St.", 7, "170000", "000000"
"Stanhope House", "NH39780", "Nashua", "NH", "3775007654", "7197 Brickell Road", 1, "080000", "210000"
"Stanhope House", "NH39780", "Nashua", "NH", "3775007654", "7197 Brickell Road", 2, "080000", "210000"
"Stanhope House", "NH39780", "Nashua", "NH", "3775007654", "7197 Brickell Road", 3, "080000", "210000"
"Stanhope House", "NH39780", "Nashua", "NH", "3775007654", "7197 Brickell Road", 4, "080000", "210000"
"Stanhope House", "NH39780", "Nashua", "NH", "3775007654", "7197 Brickell Road", 5, "080000", "210000"
"Stanhope House", "NH39780", "Nashua", "NH", "3775007654", "7197 Brickell Road", 6, "080000", "210000"
"Stanhope House", "NH39780", "Nashua", "NH", "3775007654", "7197 Brickell Road", 7, "080000", "210000"
"Scooters", "NJ67928", "Atlantic City", "NJ", "3223217574", "4 Hudson Rd.", 1, "070000", "230000"
"Scooters", "NJ67928", "Atlantic City", "NJ", "3223217574", "4 Hudson Rd.", 2, "070000", "230000"
"Scooters", "NJ67928", "Atlantic City", "NJ", "3223217574", "4 Hudson Rd.", 3, "070000", "230000"
"Scooters", "NJ67928", "Atlantic City", "NJ", "3223217574", "4 Hudson Rd.", 4, "070000", "230000"
"Scooters", "NJ67928", "Atlantic City", "NJ", "3223217574", "4 Hudson Rd.", 5, "190000", "230000"
"Scooters", "NJ67928", "Atlantic City", "NJ", "3223217574", "4 Hudson Rd.", 6, "070000", "230000"
"Scooters", "NJ67928", "Atlantic City", "NJ", "3223217574", "4 Hudson Rd.", 7, "070000", "230000"
"Daddy-O's", "WI67367", "Pewaukee", "WI", "5276231530", "229 W. Maiden St.", 1, "090000", "010000"
"Daddy-O's", "WI67367", "Pewaukee", "WI", "5276231530", "229 W. Maiden St.", 2, "090000", "010000"
"Daddy-O's", "WI67367", "Pewaukee", "WI", "5276231530", "229 W. Maiden St.", 3, "090000", "010000"
"Daddy-O's", "WI67367", "Pewaukee", "WI", "5276231530", "229 W. Maiden St.", 4, "090000", "010000"
"Daddy-O's", "WI67367", "Pewaukee", "WI", "5276231530", "229 W. Maiden St.", 5, "090000", "010000"
"Daddy-O's", "WI67367", "Pewaukee", "WI", "5276231530", "229 W. Maiden St.", 6, "090000", "010000"
"Daddy-O's", "WI67367", "Pewaukee", "WI", "5276231530", "229 W. Maiden St.", 7, "090000", "010000"
"Gay Nineties Theatre Cafe", "IN73020", "Schererville", "IN", "2955604871", "368 E. Rockland Drive", 1, "120000", "170000"
"Gay Nineties Theatre Cafe", "IN73020", "Schererville", "IN", "2955604871", "368 E. Rockland Drive", 2, "120000", "170000"
"Gay Nineties Theatre Cafe", "IN73020", "Schererville", "IN", "2955604871", "368 E. Rockland Drive", 3, "120000", "170000"
"Gay Nineties Theatre Cafe", "IN73020", "Schererville", "IN", "2955604871", "368 E. Rockland Drive", 4, "120000", "170000"
"Gay Nineties Theatre Cafe", "IN73020", "Schererville", "IN", "2955604871", "368 E. Rockland Drive", 5, "120000", "170000"
"Gay Nineties Theatre Cafe", "IN73020", "Schererville", "IN", "2955604871", "368 E. Rockland Drive", 6, "120000", "170000"
"Gay Nineties Theatre Cafe", "IN73020", "Schererville", "IN", "2955604871", "368 E. Rockland Drive", 7, "170000", "000000"
"Pizza Shoppe", "IL46535", "Carpentersville", "IL", "2828577065", "8547 River Street", 1, "160000", "000000"
"Pizza Shoppe", "IL46535", "Carpentersville", "IL", "2828577065", "8547 River Street", 2, "160000", "000000"
"Pizza Shoppe", "IL46535", "Carpentersville", "IL", "2828577065", "8547 River Street", 3, "160000", "000000"
"Pizza Shoppe", "IL46535", "Carpentersville", "IL", "2828577065", "8547 River Street", 4, "160000", "000000"
"Pizza Shoppe", "IL46535", "Carpentersville", "IL", "2828577065", "8547 River Street", 5, "160000", "000000"
"Pizza Shoppe", "IL46535", "Carpentersville", "IL", "2828577065", "8547 River Street", 6, "160000", "000000"
"Pizza Shoppe", "IL46535", "Carpentersville", "IL", "2828577065", "8547 River Street", 7, "160000", "000000"
"Hurricane Alley", "MI85414", "Battle Creek", "MI", "7285266274", "7845 West Brewery Street", 1, "180000", "020000"
"Hurricane Alley", "MI85414", "Battle Creek", "MI", "7285266274", "7845 West Brewery Street", 2, "180000", "020000"
"Hurricane Alley", "MI85414", "Battle Creek", "MI", "7285266274", "7845 West Brewery Street", 3, "180000", "020000"
"Hurricane Alley", "MI85414", "Battle Creek", "MI", "7285266274", "7845 West Brewery Street", 4, "180000", "020000"
"Hurricane Alley", "MI85414", "Battle Creek", "MI", "7285266274", "7845 West Brewery Street", 5, "080000", "150000"
"Hurricane Alley", "MI85414", "Battle Creek", "MI", "7285266274", "7845 West Brewery Street", 6, "180000", "020000"
"Hurricane Alley", "MI85414", "Battle Creek", "MI", "7285266274", "7845 West Brewery Street", 7, "080000", "150000"
"New Orleans Original Daiquiris", "TN22720", "Dickson", "TN", "9085135472", "98 Rockledge Ave.", 1, "170000", "220000"
"New Orleans Original Daiquiris", "TN22720", "Dickson", "TN", "9085135472", "98 Rockledge Ave.", 2, "170000", "220000"
"New Orleans Original Daiquiris", "TN22720", "Dickson", "TN", "9085135472", "98 Rockledge Ave.", 3, "170000", "220000"
"New Orleans Original Daiquiris", "TN22720", "Dickson", "TN", "9085135472", "98 Rockledge Ave.", 4, "170000", "220000"
"New Orleans Original Daiquiris", "TN22720", "Dickson", "TN", "9085135472", "98 Rockledge Ave.", 5, "080000", "230000"
"New Orleans Original Daiquiris", "TN22720", "Dickson", "TN", "9085135472", "98 Rockledge Ave.", 6, "080000", "230000"
"New Orleans Original Daiquiris", "TN22720", "Dickson", "TN", "9085135472", "98 Rockledge Ave.", 7, "080000", "230000"
"Gold Hawk", "FL53736", "Hollywood", "FL", "6534046745", "7471 Sheffield St.", 1, "140000", "220000"
"Gold Hawk", "FL53736", "Hollywood", "FL", "6534046745", "7471 Sheffield St.", 2, "140000", "220000"
"Gold Hawk", "FL53736", "Hollywood", "FL", "6534046745", "7471 Sheffield St.", 3, "140000", "220000"
"Gold Hawk", "FL53736", "Hollywood", "FL", "6534046745", "7471 Sheffield St.", 4, "140000", "220000"
"Gold Hawk", "FL53736", "Hollywood", "FL", "6534046745", "7471 Sheffield St.", 5, "140000", "220000"
"Gold Hawk", "FL53736", "Hollywood", "FL", "6534046745", "7471 Sheffield St.", 6, "140000", "220000"
"Gold Hawk", "FL53736", "Hollywood", "FL", "6534046745", "7471 Sheffield St.", 7, "190000", "020000"
"Topper", "CO24228", "Colorado Springs", "CO", "3102475102", "21 Smith Store Lane", 1, "190000", "230000"
"Topper", "CO24228", "Colorado Springs", "CO", "3102475102", "21 Smith Store Lane", 2, "190000", "230000"
"Topper", "CO24228", "Colorado Springs", "CO", "3102475102", "21 Smith Store Lane", 3, "190000", "230000"
"Topper", "CO24228", "Colorado Springs", "CO", "3102475102", "21 Smith Store Lane", 4, "190000", "230000"
"Topper", "CO24228", "Colorado Springs", "CO", "3102475102", "21 Smith Store Lane", 5, "190000", "230000"
"Topper", "CO24228", "Colorado Springs", "CO", "3102475102", "21 Smith Store Lane", 6, "190000", "230000"
"Topper", "CO24228", "Colorado Springs", "CO", "3102475102", "21 Smith Store Lane", 7, "190000", "230000"
"Jonathan's Restaurant", "IL56785", "Saint Charles", "IL", "3587531852", "9016 Depot St.", 1, "110000", "170000"
"Jonathan's Restaurant", "IL56785", "Saint Charles", "IL", "3587531852", "9016 Depot St.", 2, "110000", "170000"
"Jonathan's Restaurant", "IL56785", "Saint Charles", "IL", "3587531852", "9016 Depot St.", 3, "110000", "170000"
"Jonathan's Restaurant", "IL56785", "Saint Charles", "IL", "3587531852", "9016 Depot St.", 4, "110000", "170000"
"Jonathan's Restaurant", "IL56785", "Saint Charles", "IL", "3587531852", "9016 Depot St.", 5, "110000", "170000"
"Jonathan's Restaurant", "IL56785", "Saint Charles", "IL", "3587531852", "9016 Depot St.", 6, "110000", "170000"
"Jonathan's Restaurant", "IL56785", "Saint Charles", "IL", "3587531852", "9016 Depot St.", 7, "110000", "170000"
"Phebe's", "NC96953", "Huntersville", "NC", "9064886521", "34 Peg Shop Court", 1, "200000", "010000"
"Phebe's", "NC96953", "Huntersville", "NC", "9064886521", "34 Peg Shop Court", 2, "200000", "010000"
"Phebe's", "NC96953", "Huntersville", "NC", "9064886521", "34 Peg Shop Court", 3, "170000", "220000"
"Phebe's", "NC96953", "Huntersville", "NC", "9064886521", "34 Peg Shop Court", 4, "200000", "010000"
"Phebe's", "NC96953", "Huntersville", "NC", "9064886521", "34 Peg Shop Court", 5, "170000", "220000"
"Phebe's", "NC96953", "Huntersville", "NC", "9064886521", "34 Peg Shop Court", 6, "200000", "010000"
"Phebe's", "NC96953", "Huntersville", "NC", "9064886521", "34 Peg Shop Court", 7, "200000", "010000"
"Wibs", "FL79974", "Port Orange", "FL", "3078815182", "49 South Kirkland Street", 1, "070000", "160000"
"Wibs", "FL79974", "Port Orange", "FL", "3078815182", "49 South Kirkland Street", 2, "100000", "180000"
"Wibs", "FL79974", "Port Orange", "FL", "3078815182", "49 South Kirkland Street", 3, "100000", "180000"
"Wibs", "FL79974", "Port Orange", "FL", "3078815182", "49 South Kirkland Street", 4, "100000", "180000"
"Wibs", "FL79974", "Port Orange", "FL", "3078815182", "49 South Kirkland Street", 5, "070000", "160000"
"Wibs", "FL79974", "Port Orange", "FL", "3078815182", "49 South Kirkland Street", 6, "100000", "180000"
"Wibs", "FL79974", "Port Orange", "FL", "3078815182", "49 South Kirkland Street", 7, "100000", "180000"
"Smitty's Sports Pub", "FL62353", "Panama City", "FL", "3854485157", "22 Corona Street", 1, "140000", "230000"
"Smitty's Sports Pub", "FL62353", "Panama City", "FL", "3854485157", "22 Corona Street", 2, "140000", "230000"
"Smitty's Sports Pub", "FL62353", "Panama City", "FL", "3854485157", "22 Corona Street", 3, "140000", "230000"
"Smitty's Sports Pub", "FL62353", "Panama City", "FL", "3854485157", "22 Corona Street", 4, "140000", "230000"
"Smitty's Sports Pub", "FL62353", "Panama City", "FL", "3854485157", "22 Corona Street", 5, "140000", "230000"
"Smitty's Sports Pub", "FL62353", "Panama City", "FL", "3854485157", "22 Corona Street", 6, "140000", "230000"
"Smitty's Sports Pub", "FL62353", "Panama City", "FL", "3854485157", "22 Corona Street", 7, "140000", "230000"
"Jungle Restaurant-Fat Cat's", "VA53117", "Colonial Heights", "VA", "3739907973", "971 Foxrun Street", 1, "160000", "010000"
"Jungle Restaurant-Fat Cat's", "VA53117", "Colonial Heights", "VA", "3739907973", "971 Foxrun Street", 2, "160000", "010000"
"Jungle Restaurant-Fat Cat's", "VA53117", "Colonial Heights", "VA", "3739907973", "971 Foxrun Street", 3, "160000", "010000"
"Jungle Restaurant-Fat Cat's", "VA53117", "Colonial Heights", "VA", "3739907973", "971 Foxrun Street", 4, "160000", "010000"
"Jungle Restaurant-Fat Cat's", "VA53117", "Colonial Heights", "VA", "3739907973", "971 Foxrun Street", 5, "160000", "010000"
"Jungle Restaurant-Fat Cat's", "VA53117", "Colonial Heights", "VA", "3739907973", "971 Foxrun Street", 6, "160000", "010000"
"Jungle Restaurant-Fat Cat's", "VA53117", "Colonial Heights", "VA", "3739907973", "971 Foxrun Street", 7, "160000", "010000"
"LongHorn Steakhouse", "GA88840", "Newnan", "GA", "8289753375", "9635 Warren Ave.", 1, "170000", "230000"
"LongHorn Steakhouse", "GA88840", "Newnan", "GA", "8289753375", "9635 Warren Ave.", 2, "170000", "230000"
"LongHorn Steakhouse", "GA88840", "Newnan", "GA", "8289753375", "9635 Warren Ave.", 3, "180000", "220000"
"LongHorn Steakhouse", "GA88840", "Newnan", "GA", "8289753375", "9635 Warren Ave.", 4, "170000", "230000"
"LongHorn Steakhouse", "GA88840", "Newnan", "GA", "8289753375", "9635 Warren Ave.", 5, "170000", "230000"
"LongHorn Steakhouse", "GA88840", "Newnan", "GA", "8289753375", "9635 Warren Ave.", 6, "170000", "230000"
"LongHorn Steakhouse", "GA88840", "Newnan", "GA", "8289753375", "9635 Warren Ave.", 7, "170000", "230000"
"Dick's Last Resort", "FL69644", "Miami Gardens", "FL", "6952302363", "7189 Wall St.", 1, "130000", "020000"
"Dick's Last Resort", "FL69644", "Miami Gardens", "FL", "6952302363", "7189 Wall St.", 2, "130000", "020000"
"Dick's Last Resort", "FL69644", "Miami Gardens", "FL", "6952302363", "7189 Wall St.", 3, "130000", "020000"
"Dick's Last Resort", "FL69644", "Miami Gardens", "FL", "6952302363", "7189 Wall St.", 4, "130000", "020000"
"Dick's Last Resort", "FL69644", "Miami Gardens", "FL", "6952302363", "7189 Wall St.", 5, "130000", "020000"
"Dick's Last Resort", "FL69644", "Miami Gardens", "FL", "6952302363", "7189 Wall St.", 6, "130000", "020000"
"Dick's Last Resort", "FL69644", "Miami Gardens", "FL", "6952302363", "7189 Wall St.", 7, "130000", "020000"
"Bennigan's", "FL98338", "Deltona", "FL", "2245456137", "9957 Brickell St.", 1, "060000", "180000"
"Bennigan's", "FL98338", "Deltona", "FL", "2245456137", "9957 Brickell St.", 2, "060000", "180000"
"Bennigan's", "FL98338", "Deltona", "FL", "2245456137", "9957 Brickell St.", 3, "060000", "180000"
"Bennigan's", "FL98338", "Deltona", "FL", "2245456137", "9957 Brickell St.", 4, "060000", "180000"
"Bennigan's", "FL98338", "Deltona", "FL", "2245456137", "9957 Brickell St.", 5, "060000", "180000"
"Bennigan's", "FL98338", "Deltona", "FL", "2245456137", "9957 Brickell St.", 6, "060000", "180000"
"Bennigan's", "FL98338", "Deltona", "FL", "2245456137", "9957 Brickell St.", 7, "060000", "180000"
"Ruby Tuesday", "MA73550", "Lynn", "MA", "3006002719", "611 Blackburn Street", 1, "150000", "190000"
"Ruby Tuesday", "MA73550", "Lynn", "MA", "3006002719", "611 Blackburn Street", 2, "070000", "130000"
"Ruby Tuesday", "MA73550", "Lynn", "MA", "3006002719", "611 Blackburn Street", 3, "150000", "190000"
"Ruby Tuesday", "MA73550", "Lynn", "MA", "3006002719", "611 Blackburn Street", 4, "150000", "190000"
"Ruby Tuesday", "MA73550", "Lynn", "MA", "3006002719", "611 Blackburn Street", 5, "150000", "190000"
"Ruby Tuesday", "MA73550", "Lynn", "MA", "3006002719", "611 Blackburn Street", 6, "150000", "190000"
"Ruby Tuesday", "MA73550", "Lynn", "MA", "3006002719", "611 Blackburn Street", 7, "150000", "190000"
"Texas Roadhouse", "OH40075", "North Royalton", "OH", "6594055288", "48 Cambridge Rd.", 1, "060000", "160000"
"Texas Roadhouse", "OH40075", "North Royalton", "OH", "6594055288", "48 Cambridge Rd.", 2, "060000", "160000"
"Texas Roadhouse", "OH40075", "North Royalton", "OH", "6594055288", "48 Cambridge Rd.", 3, "060000", "160000"
"Texas Roadhouse", "OH40075", "North Royalton", "OH", "6594055288", "48 Cambridge Rd.", 4, "060000", "160000"
"Texas Roadhouse", "OH40075", "North Royalton", "OH", "6594055288", "48 Cambridge Rd.", 5, "060000", "160000"
"Texas Roadhouse", "OH40075", "North Royalton", "OH", "6594055288", "48 Cambridge Rd.", 6, "160000", "020000"
"Texas Roadhouse", "OH40075", "North Royalton", "OH", "6594055288", "48 Cambridge Rd.", 7, "060000", "160000"
"Applebee's", "PA81077", "Wilkes Barre", "PA", "8144583634", "520 Oakland St.", 1, "220000", "020000"
"Applebee's", "PA81077", "Wilkes Barre", "PA", "8144583634", "520 Oakland St.", 2, "220000", "020000"
"Applebee's", "PA81077", "Wilkes Barre", "PA", "8144583634", "520 Oakland St.", 3, "220000", "020000"
"Applebee's", "PA81077", "Wilkes Barre", "PA", "8144583634", "520 Oakland St.", 4, "220000", "020000"
"Applebee's", "PA81077", "Wilkes Barre", "PA", "8144583634", "520 Oakland St.", 5, "220000", "020000"
"Applebee's", "PA81077", "Wilkes Barre", "PA", "8144583634", "520 Oakland St.", 6, "220000", "020000"
"Applebee's", "PA81077", "Wilkes Barre", "PA", "8144583634", "520 Oakland St.", 7, "220000", "020000"
"Red Robin", "OH30281", "Bedford", "OH", "5034312274", "671 Oak Ave.", 1, "100000", "220000"
"Red Robin", "OH30281", "Bedford", "OH", "5034312274", "671 Oak Ave.", 2, "100000", "220000"
"Red Robin", "OH30281", "Bedford", "OH", "5034312274", "671 Oak Ave.", 3, "100000", "220000"
"Red Robin", "OH30281", "Bedford", "OH", "5034312274", "671 Oak Ave.", 4, "100000", "220000"
"Red Robin", "OH30281", "Bedford", "OH", "5034312274", "671 Oak Ave.", 5, "100000", "220000"
"Red Robin", "OH30281", "Bedford", "OH", "5034312274", "671 Oak Ave.", 6, "100000", "220000"
"Red Robin", "OH30281", "Bedford", "OH", "5034312274", "671 Oak Ave.", 7, "100000", "220000"
"Dave & Buster's", "IL52229", "Bartlett", "IL", "8905995895", "8098 Randall Mill Street", 1, "120000", "190000"
"Dave & Buster's", "IL52229", "Bartlett", "IL", "8905995895", "8098 Randall Mill Street", 2, "120000", "190000"
"Dave & Buster's", "IL52229", "Bartlett", "IL", "8905995895", "8098 Randall Mill Street", 3, "120000", "190000"
"Dave & Buster's", "IL52229", "Bartlett", "IL", "8905995895", "8098 Randall Mill Street", 4, "120000", "190000"
"Dave & Buster's", "IL52229", "Bartlett", "IL", "8905995895", "8098 Randall Mill Street", 5, "120000", "190000"
"Dave & Buster's", "IL52229", "Bartlett", "IL", "8905995895", "8098 Randall Mill Street", 6, "120000", "190000"
"Dave & Buster's", "IL52229", "Bartlett", "IL", "8905995895", "8098 Randall Mill Street", 7, "120000", "230000"
"Islands Fine Burgers & Drinks", "TX67400", "San Antonio", "TX", "6684278327", "17 Newbridge Avenue", 1, "160000", "230000"
"Islands Fine Burgers & Drinks", "TX67400", "San Antonio", "TX", "6684278327", "17 Newbridge Avenue", 2, "100000", "180000"
"Islands Fine Burgers & Drinks", "TX67400", "San Antonio", "TX", "6684278327", "17 Newbridge Avenue", 3, "100000", "180000"
"Islands Fine Burgers & Drinks", "TX67400", "San Antonio", "TX", "6684278327", "17 Newbridge Avenue", 4, "100000", "180000"
"Islands Fine Burgers & Drinks", "TX67400", "San Antonio", "TX", "6684278327", "17 Newbridge Avenue", 5, "150000", "010000"
"Islands Fine Burgers & Drinks", "TX67400", "San Antonio", "TX", "6684278327", "17 Newbridge Avenue", 6, "100000", "180000"
"Islands Fine Burgers & Drinks", "TX67400", "San Antonio", "TX", "6684278327", "17 Newbridge Avenue", 7, "180000", "220000"
"IHOP", "AL23568", "Tuscaloosa", "AL", "9719227043", "84 Taylor Drive", 1, "090000", "140000"
"IHOP", "AL23568", "Tuscaloosa", "AL", "9719227043", "84 Taylor Drive", 2, "090000", "140000"
"IHOP", "AL23568", "Tuscaloosa", "AL", "9719227043", "84 Taylor Drive", 3, "090000", "140000"
"IHOP", "AL23568", "Tuscaloosa", "AL", "9719227043", "84 Taylor Drive", 4, "090000", "140000"
"IHOP", "AL23568", "Tuscaloosa", "AL", "9719227043", "84 Taylor Drive", 5, "090000", "140000"
"IHOP", "AL23568", "Tuscaloosa", "AL", "9719227043", "84 Taylor Drive", 6, "090000", "140000"
"IHOP", "AL23568", "Tuscaloosa", "AL", "9719227043", "84 Taylor Drive", 7, "090000", "140000"
"Bubba Gump Shrimp Company", "OH19679", "Reynoldsburg", "OH", "7784646777", "47 South Valley View Court", 1, "060000", "000000"
"Bubba Gump Shrimp Company", "OH19679", "Reynoldsburg", "OH", "7784646777", "47 South Valley View Court", 2, "060000", "000000"
"Bubba Gump Shrimp Company", "OH19679", "Reynoldsburg", "OH", "7784646777", "47 South Valley View Court", 3, "060000", "000000"
"Bubba Gump Shrimp Company", "OH19679", "Reynoldsburg", "OH", "7784646777", "47 South Valley View Court", 4, "060000", "000000"
"Bubba Gump Shrimp Company", "OH19679", "Reynoldsburg", "OH", "7784646777", "47 South Valley View Court", 5, "060000", "000000"
"Bubba Gump Shrimp Company", "OH19679", "Reynoldsburg", "OH", "7784646777", "47 South Valley View Court", 6, "060000", "000000"
"Bubba Gump Shrimp Company", "OH19679", "Reynoldsburg", "OH", "7784646777", "47 South Valley View Court", 7, "060000", "000000"
"On the Border Mexican Grill & Cantina", "PA31632", "Lansdowne", "PA", "5359009426", "756 Third St.", 1, "210000", "010000"
"On the Border Mexican Grill & Cantina", "PA31632", "Lansdowne", "PA", "5359009426", "756 Third St.", 2, "210000", "010000"
"On the Border Mexican Grill & Cantina", "PA31632", "Lansdowne", "PA", "5359009426", "756 Third St.", 3, "210000", "010000"
"On the Border Mexican Grill & Cantina", "PA31632", "Lansdowne", "PA", "5359009426", "756 Third St.", 4, "210000", "010000"
"On the Border Mexican Grill & Cantina", "PA31632", "Lansdowne", "PA", "5359009426", "756 Third St.", 5, "210000", "010000"
"On the Border Mexican Grill & Cantina", "PA31632", "Lansdowne", "PA", "5359009426", "756 Third St.", 6, "210000", "010000"
"On the Border Mexican Grill & Cantina", "PA31632", "Lansdowne", "PA", "5359009426", "756 Third St.", 7, "210000", "010000"
"Smokey Bones", "MD41855", "Westminster", "MD", "3529336169", "8058 N. Campfire Rd.", 1, "120000", "000000"
"Smokey Bones", "MD41855", "Westminster", "MD", "3529336169", "8058 N. Campfire Rd.", 2, "120000", "000000"
"Smokey Bones", "MD41855", "Westminster", "MD", "3529336169", "8058 N. Campfire Rd.", 3, "120000", "000000"
"Smokey Bones", "MD41855", "Westminster", "MD", "3529336169", "8058 N. Campfire Rd.", 4, "120000", "000000"
"Smokey Bones", "MD41855", "Westminster", "MD", "3529336169", "8058 N. Campfire Rd.", 5, "120000", "000000"
"Smokey Bones", "MD41855", "Westminster", "MD", "3529336169", "8058 N. Campfire Rd.", 6, "120000", "000000"
"Smokey Bones", "MD41855", "Westminster", "MD", "3529336169", "8058 N. Campfire Rd.", 7, "120000", "000000"
"Houlihan's", "NY95444", "Monroe", "NY", "2377362601", "9973 Ashley Drive", 1, "070000", "230000"
"Houlihan's", "NY95444", "Monroe", "NY", "2377362601", "9973 Ashley Drive", 2, "100000", "040000"
"Houlihan's", "NY95444", "Monroe", "NY", "2377362601", "9973 Ashley Drive", 3, "070000", "230000"
"Houlihan's", "NY95444", "Monroe", "NY", "2377362601", "9973 Ashley Drive", 4, "070000", "230000"
"Houlihan's", "NY95444", "Monroe", "NY", "2377362601", "9973 Ashley Drive", 5, "070000", "230000"
"Houlihan's", "NY95444", "Monroe", "NY", "2377362601", "9973 Ashley Drive", 6, "070000", "230000"
"Houlihan's", "NY95444", "Monroe", "NY", "2377362601", "9973 Ashley Drive", 7, "070000", "230000"
"Old Country Buffet", "CA33350", "Banning", "CA", "9513533832", "796 East Bedford Dr.", 1, "100000", "150000"
"Old Country Buffet", "CA33350", "Banning", "CA", "9513533832", "796 East Bedford Dr.", 2, "100000", "150000"
"Old Country Buffet", "CA33350", "Banning", "CA", "9513533832", "796 East Bedford Dr.", 3, "100000", "150000"
"Old Country Buffet", "CA33350", "Banning", "CA", "9513533832", "796 East Bedford Dr.", 4, "100000", "150000"
"Old Country Buffet", "CA33350", "Banning", "CA", "9513533832", "796 East Bedford Dr.", 5, "100000", "150000"
"Old Country Buffet", "CA33350", "Banning", "CA", "9513533832", "796 East Bedford Dr.", 6, "190000", "230000"
"Old Country Buffet", "CA33350", "Banning", "CA", "9513533832", "796 East Bedford Dr.", 7, "120000", "180000"
"Hoss's Steak and Sea House", "NC24707", "Kernersville", "NC", "3337803108", "10 East Rd.", 1, "150000", "230000"
"Hoss's Steak and Sea House", "NC24707", "Kernersville", "NC", "3337803108", "10 East Rd.", 2, "140000", "210000"
"Hoss's Steak and Sea House", "NC24707", "Kernersville", "NC", "3337803108", "10 East Rd.", 3, "150000", "230000"
"Hoss's Steak and Sea House", "NC24707", "Kernersville", "NC", "3337803108", "10 East Rd.", 4, "150000", "230000"
"Hoss's Steak and Sea House", "NC24707", "Kernersville", "NC", "3337803108", "10 East Rd.", 5, "140000", "210000"
"Hoss's Steak and Sea House", "NC24707", "Kernersville", "NC", "3337803108", "10 East Rd.", 6, "150000", "230000"
"Hoss's Steak and Sea House", "NC24707", "Kernersville", "NC", "3337803108", "10 East Rd.", 7, "140000", "210000"
"Hard Rock Cafe", "OH37866", "Akron", "OH", "9364041807", "252 Arlington Street", 1, "220000", "020000"
"Hard Rock Cafe", "OH37866", "Akron", "OH", "9364041807", "252 Arlington Street", 2, "220000", "020000"
"Hard Rock Cafe", "OH37866", "Akron", "OH", "9364041807", "252 Arlington Street", 3, "120000", "180000"
"Hard Rock Cafe", "OH37866", "Akron", "OH", "9364041807", "252 Arlington Street", 4, "220000", "020000"
"Hard Rock Cafe", "OH37866", "Akron", "OH", "9364041807", "252 Arlington Street", 5, "220000", "020000"
"Hard Rock Cafe", "OH37866", "Akron", "OH", "9364041807", "252 Arlington Street", 6, "220000", "020000"
"Hard Rock Cafe", "OH37866", "Akron", "OH", "9364041807", "252 Arlington Street", 7, "220000", "020000"
"Red Lobster", "NC83782", "Holly Springs", "NC", "3572723517", "8940 Beechwood Ave.", 1, "180000", "010000"
"Red Lobster", "NC83782", "Holly Springs", "NC", "3572723517", "8940 Beechwood Ave.", 2, "180000", "010000"
"Red Lobster", "NC83782", "Holly Springs", "NC", "3572723517", "8940 Beechwood Ave.", 3, "180000", "010000"
"Red Lobster", "NC83782", "Holly Springs", "NC", "3572723517", "8940 Beechwood Ave.", 4, "180000", "010000"
"Red Lobster", "NC83782", "Holly Springs", "NC", "3572723517", "8940 Beechwood Ave.", 5, "180000", "010000"
"Red Lobster", "NC83782", "Holly Springs", "NC", "3572723517", "8940 Beechwood Ave.", 6, "130000", "180000"
"Red Lobster", "NC83782", "Holly Springs", "NC", "3572723517", "8940 Beechwood Ave.", 7, "180000", "010000"
"Denny's", "CA93262", "Atwater", "CA", "9783811370", "7314 East Ridgeview Drive", 1, "080000", "160000"
"Denny's", "CA93262", "Atwater", "CA", "9783811370", "7314 East Ridgeview Drive", 2, "080000", "160000"
"Denny's", "CA93262", "Atwater", "CA", "9783811370", "7314 East Ridgeview Drive", 3, "080000", "160000"
"Denny's", "CA93262", "Atwater", "CA", "9783811370", "7314 East Ridgeview Drive", 4, "080000", "160000"
"Denny's", "CA93262", "Atwater", "CA", "9783811370", "7314 East Ridgeview Drive", 5, "080000", "160000"
"Denny's", "CA93262", "Atwater", "CA", "9783811370", "7314 East Ridgeview Drive", 6, "080000", "160000"
"Denny's", "CA93262", "Atwater", "CA", "9783811370", "7314 East Ridgeview Drive", 7, "080000", "160000"
"The Original Pancake House", "RI57828", "Cranston", "RI", "5125935586", "95 6th Ave.", 1, "100000", "150000"
"The Original Pancake House", "RI57828", "Cranston", "RI", "5125935586", "95 6th Ave.", 2, "100000", "150000"
"The Original Pancake House", "RI57828", "Cranston", "RI", "5125935586", "95 6th Ave.", 3, "100000", "150000"
"The Original Pancake House", "RI57828", "Cranston", "RI", "5125935586", "95 6th Ave.", 4, "100000", "150000"
"The Original Pancake House", "RI57828", "Cranston", "RI", "5125935586", "95 6th Ave.", 5, "100000", "150000"
"The Original Pancake House", "RI57828", "Cranston", "RI", "5125935586", "95 6th Ave.", 6, "100000", "150000"
"The Original Pancake House", "RI57828", "Cranston", "RI", "5125935586", "95 6th Ave.", 7, "100000", "150000"
"Ground Round", "WV49332", "Parkersburg", "WV", "5239183794", "850 Alton Lane", 1, "090000", "020000"
"Ground Round", "WV49332", "Parkersburg", "WV", "5239183794", "850 Alton Lane", 2, "090000", "030000"
"Ground Round", "WV49332", "Parkersburg", "WV", "5239183794", "850 Alton Lane", 3, "090000", "020000"
"Ground Round", "WV49332", "Parkersburg", "WV", "5239183794", "850 Alton Lane", 4, "090000", "030000"
"Ground Round", "WV49332", "Parkersburg", "WV", "5239183794", "850 Alton Lane", 5, "090000", "030000"
"Ground Round", "WV49332", "Parkersburg", "WV", "5239183794", "850 Alton Lane", 6, "090000", "030000"
"Ground Round", "WV49332", "Parkersburg", "WV", "5239183794", "850 Alton Lane", 7, "090000", "030000"
"Cheddar's Casual Caf", "TX69994", "El Paso", "TX", "5888837368", "161 Greenview Ave.", 1, "120000", "200000"
"Cheddar's Casual Caf", "TX69994", "El Paso", "TX", "5888837368", "161 Greenview Ave.", 2, "120000", "200000"
"Cheddar's Casual Caf", "TX69994", "El Paso", "TX", "5888837368", "161 Greenview Ave.", 3, "120000", "200000"
"Cheddar's Casual Caf", "TX69994", "El Paso", "TX", "5888837368", "161 Greenview Ave.", 4, "120000", "200000"
"Cheddar's Casual Caf", "TX69994", "El Paso", "TX", "5888837368", "161 Greenview Ave.", 5, "120000", "200000"
"Cheddar's Casual Caf", "TX69994", "El Paso", "TX", "5888837368", "161 Greenview Ave.", 6, "120000", "200000"
"Cheddar's Casual Caf", "TX69994", "El Paso", "TX", "5888837368", "161 Greenview Ave.", 7, "120000", "200000"
"Chiquito", "MS55746", "Hernando", "MS", "4872241592", "95 West Pumpkin Hill Court", 1, "120000", "160000"
"Chiquito", "MS55746", "Hernando", "MS", "4872241592", "95 West Pumpkin Hill Court", 2, "120000", "160000"
"Chiquito", "MS55746", "Hernando", "MS", "4872241592", "95 West Pumpkin Hill Court", 3, "120000", "160000"
"Chiquito", "MS55746", "Hernando", "MS", "4872241592", "95 West Pumpkin Hill Court", 4, "120000", "160000"
"Chiquito", "MS55746", "Hernando", "MS", "4872241592", "95 West Pumpkin Hill Court", 5, "120000", "160000"
"Chiquito", "MS55746", "Hernando", "MS", "4872241592", "95 West Pumpkin Hill Court", 6, "120000", "160000"
"Chiquito", "MS55746", "Hernando", "MS", "4872241592", "95 West Pumpkin Hill Court", 7, "120000", "160000"
"Boston Pizza", "KY47701", "Bowling Green", "KY", "4703062909", "9432 East Glendale St.", 1, "110000", "190000"
"Boston Pizza", "KY47701", "Bowling Green", "KY", "4703062909", "9432 East Glendale St.", 2, "110000", "190000"
"Boston Pizza", "KY47701", "Bowling Green", "KY", "4703062909", "9432 East Glendale St.", 3, "110000", "190000"
"Boston Pizza", "KY47701", "Bowling Green", "KY", "4703062909", "9432 East Glendale St.", 4, "110000", "190000"
"Boston Pizza", "KY47701", "Bowling Green", "KY", "4703062909", "9432 East Glendale St.", 5, "110000", "190000"
"Boston Pizza", "KY47701", "Bowling Green", "KY", "4703062909", "9432 East Glendale St.", 6, "110000", "190000"
"Boston Pizza", "KY47701", "Bowling Green", "KY", "4703062909", "9432 East Glendale St.", 7, "190000", "010000"
"Cracker Barrel Old Country Store", "PA66599", "Coraopolis", "PA", "5357876781", "7630 Myers Drive", 1, "090000", "150000"
"Cracker Barrel Old Country Store", "PA66599", "Coraopolis", "PA", "5357876781", "7630 Myers Drive", 2, "090000", "150000"
"Cracker Barrel Old Country Store", "PA66599", "Coraopolis", "PA", "5357876781", "7630 Myers Drive", 3, "090000", "150000"
"Cracker Barrel Old Country Store", "PA66599", "Coraopolis", "PA", "5357876781", "7630 Myers Drive", 4, "090000", "150000"
"Cracker Barrel Old Country Store", "PA66599", "Coraopolis", "PA", "5357876781", "7630 Myers Drive", 5, "090000", "150000"
"Cracker Barrel Old Country Store", "PA66599", "Coraopolis", "PA", "5357876781", "7630 Myers Drive", 6, "090000", "150000"
"Cracker Barrel Old Country Store", "PA66599", "Coraopolis", "PA", "5357876781", "7630 Myers Drive", 7, "090000", "150000"
"The Cheesecake Factory", "NY91767", "Richmond Hill", "NY", "3549920337", "70 Corona Street", 1, "180000", "030000"
"The Cheesecake Factory", "NY91767", "Richmond Hill", "NY", "3549920337", "70 Corona Street", 2, "180000", "030000"
"The Cheesecake Factory", "NY91767", "Richmond Hill", "NY", "3549920337", "70 Corona Street", 3, "120000", "210000"
"The Cheesecake Factory", "NY91767", "Richmond Hill", "NY", "3549920337", "70 Corona Street", 4, "180000", "030000"
"The Cheesecake Factory", "NY91767", "Richmond Hill", "NY", "3549920337", "70 Corona Street", 5, "180000", "030000"
"The Cheesecake Factory", "NY91767", "Richmond Hill", "NY", "3549920337", "70 Corona Street", 6, "120000", "210000"
"The Cheesecake Factory", "NY91767", "Richmond Hill", "NY", "3549920337", "70 Corona Street", 7, "180000", "030000"
"T.G.I. Friday's", "NY68456", "Port Chester", "NY", "6537907823", "62 Devonshire Rd.", 1, "080000", "230000"
"T.G.I. Friday's", "NY68456", "Port Chester", "NY", "6537907823", "62 Devonshire Rd.", 2, "080000", "230000"
"T.G.I. Friday's", "NY68456", "Port Chester", "NY", "6537907823", "62 Devonshire Rd.", 3, "080000", "230000"
"T.G.I. Friday's", "NY68456", "Port Chester", "NY", "6537907823", "62 Devonshire Rd.", 4, "080000", "230000"
"T.G.I. Friday's", "NY68456", "Port Chester", "NY", "6537907823", "62 Devonshire Rd.", 5, "080000", "230000"
"T.G.I. Friday's", "NY68456", "Port Chester", "NY", "6537907823", "62 Devonshire Rd.", 6, "080000", "230000"
"T.G.I. Friday's", "NY68456", "Port Chester", "NY", "6537907823", "62 Devonshire Rd.", 7, "080000", "230000"
"Olive Garden", "WI15709", "Superior", "WI", "7282004747", "8 Baker Dr.", 1, "140000", "180000"
"Olive Garden", "WI15709", "Superior", "WI", "7282004747", "8 Baker Dr.", 2, "140000", "180000"
"Olive Garden", "WI15709", "Superior", "WI", "7282004747", "8 Baker Dr.", 3, "140000", "180000"
"Olive Garden", "WI15709", "Superior", "WI", "7282004747", "8 Baker Dr.", 4, "140000", "180000"
"Olive Garden", "WI15709", "Superior", "WI", "7282004747", "8 Baker Dr.", 5, "140000", "180000"
"Olive Garden", "WI15709", "Superior", "WI", "7282004747", "8 Baker Dr.", 6, "140000", "180000"
"Olive Garden", "WI15709", "Superior", "WI", "7282004747", "8 Baker Dr.", 7, "140000", "180000"
"Planet Hollywood", "VA72823", "Stafford", "VA", "2714033538", "856 Henry St.", 1, "220000", "020000"
"Planet Hollywood", "VA72823", "Stafford", "VA", "2714033538", "856 Henry St.", 2, "220000", "020000"
"Planet Hollywood", "VA72823", "Stafford", "VA", "2714033538", "856 Henry St.", 3, "220000", "020000"
"Planet Hollywood", "VA72823", "Stafford", "VA", "2714033538", "856 Henry St.", 4, "220000", "020000"
"Planet Hollywood", "VA72823", "Stafford", "VA", "2714033538", "856 Henry St.", 5, "220000", "020000"
"Planet Hollywood", "VA72823", "Stafford", "VA", "2714033538", "856 Henry St.", 6, "220000", "020000"
"Planet Hollywood", "VA72823", "Stafford", "VA", "2714033538", "856 Henry St.", 7, "100000", "160000"
"Heart Attack Grill", "OR11301", "Tualatin", "OR", "8868224281", "8928 N. Kent St.", 1, "110000", "210000"
"Heart Attack Grill", "OR11301", "Tualatin", "OR", "8868224281", "8928 N. Kent St.", 2, "110000", "210000"
"Heart Attack Grill", "OR11301", "Tualatin", "OR", "8868224281", "8928 N. Kent St.", 3, "110000", "210000"
"Heart Attack Grill", "OR11301", "Tualatin", "OR", "8868224281", "8928 N. Kent St.", 4, "110000", "210000"
"Heart Attack Grill", "OR11301", "Tualatin", "OR", "8868224281", "8928 N. Kent St.", 5, "110000", "210000"
"Heart Attack Grill", "OR11301", "Tualatin", "OR", "8868224281", "8928 N. Kent St.", 6, "120000", "160000"
"Heart Attack Grill", "OR11301", "Tualatin", "OR", "8868224281", "8928 N. Kent St.", 7, "120000", "160000"
"Rainforest Cafe", "MI86097", "Romulus", "MI", "8105368726", "7954 Belmont St.", 1, "200000", "000000"
"Rainforest Cafe", "MI86097", "Romulus", "MI", "8105368726", "7954 Belmont St.", 2, "200000", "000000"
"Rainforest Cafe", "MI86097", "Romulus", "MI", "8105368726", "7954 Belmont St.", 3, "200000", "000000"
"Rainforest Cafe", "MI86097", "Romulus", "MI", "8105368726", "7954 Belmont St.", 4, "200000", "000000"
"Rainforest Cafe", "MI86097", "Romulus", "MI", "8105368726", "7954 Belmont St.", 5, "120000", "020000"
"Rainforest Cafe", "MI86097", "Romulus", "MI", "8105368726", "7954 Belmont St.", 6, "200000", "000000"
"Rainforest Cafe", "MI86097", "Romulus", "MI", "8105368726", "7954 Belmont St.", 7, "110000", "150000"
"Caf Rouge", "TN84754", "Cleveland", "TN", "3913750798", "8 West Peg Shop Ave.", 1, "120000", "000000"
"Caf Rouge", "TN84754", "Cleveland", "TN", "3913750798", "8 West Peg Shop Ave.", 2, "120000", "000000"
"Caf Rouge", "TN84754", "Cleveland", "TN", "3913750798", "8 West Peg Shop Ave.", 3, "120000", "000000"
"Caf Rouge", "TN84754", "Cleveland", "TN", "3913750798", "8 West Peg Shop Ave.", 4, "120000", "000000"
"Caf Rouge", "TN84754", "Cleveland", "TN", "3913750798", "8 West Peg Shop Ave.", 5, "120000", "000000"
"Caf Rouge", "TN84754", "Cleveland", "TN", "3913750798", "8 West Peg Shop Ave.", 6, "120000", "000000"
"Caf Rouge", "TN84754", "Cleveland", "TN", "3913750798", "8 West Peg Shop Ave.", 7, "120000", "000000"
"Black-eyed Pea", "IL91402", "Bolingbrook", "IL", "6515701160", "82 Ridgewood Dr.", 1, "140000", "210000"
"Black-eyed Pea", "IL91402", "Bolingbrook", "IL", "6515701160", "82 Ridgewood Dr.", 2, "140000", "210000"
"Black-eyed Pea", "IL91402", "Bolingbrook", "IL", "6515701160", "82 Ridgewood Dr.", 3, "140000", "210000"
"Black-eyed Pea", "IL91402", "Bolingbrook", "IL", "6515701160", "82 Ridgewood Dr.", 4, "140000", "210000"
"Black-eyed Pea", "IL91402", "Bolingbrook", "IL", "6515701160", "82 Ridgewood Dr.", 5, "160000", "210000"
"Black-eyed Pea", "IL91402", "Bolingbrook", "IL", "6515701160", "82 Ridgewood Dr.", 6, "160000", "210000"
"Black-eyed Pea", "IL91402", "Bolingbrook", "IL", "6515701160", "82 Ridgewood Dr.", 7, "140000", "210000"
"Tony Roma's", "IN13195", "Evansville", "IN", "3117528937", "507 Water St.", 1, "080000", "010000"
"Tony Roma's", "IN13195", "Evansville", "IN", "3117528937", "507 Water St.", 2, "080000", "010000"
"Tony Roma's", "IN13195", "Evansville", "IN", "3117528937", "507 Water St.", 3, "080000", "010000"
"Tony Roma's", "IN13195", "Evansville", "IN", "3117528937", "507 Water St.", 4, "080000", "010000"
"Tony Roma's", "IN13195", "Evansville", "IN", "3117528937", "507 Water St.", 5, "080000", "010000"
"Tony Roma's", "IN13195", "Evansville", "IN", "3117528937", "507 Water St.", 6, "080000", "010000"
"Tony Roma's", "IN13195", "Evansville", "IN", "3117528937", "507 Water St.", 7, "080000", "010000"
"Cheese Burger in Paradise", "NJ62619", "Scotch Plains", "NJ", "2678415983", "40 Baker Dr.", 1, "070000", "130000"
"Cheese Burger in Paradise", "NJ62619", "Scotch Plains", "NJ", "2678415983", "40 Baker Dr.", 2, "070000", "130000"
"Cheese Burger in Paradise", "NJ62619", "Scotch Plains", "NJ", "2678415983", "40 Baker Dr.", 3, "170000", "230000"
"Cheese Burger in Paradise", "NJ62619", "Scotch Plains", "NJ", "2678415983", "40 Baker Dr.", 4, "070000", "130000"
"Cheese Burger in Paradise", "NJ62619", "Scotch Plains", "NJ", "2678415983", "40 Baker Dr.", 5, "070000", "130000"
"Cheese Burger in Paradise", "NJ62619", "Scotch Plains", "NJ", "2678415983", "40 Baker Dr.", 6, "170000", "230000"
"Cheese Burger in Paradise", "NJ62619", "Scotch Plains", "NJ", "2678415983", "40 Baker Dr.", 7, "070000", "130000"
"Perkins Restaurant and Bakery", "NY95645", "Amsterdam", "NY", "7603162713", "22 Essex Lane", 1, "080000", "130000"
"Perkins Restaurant and Bakery", "NY95645", "Amsterdam", "NY", "7603162713", "22 Essex Lane", 2, "080000", "130000"
"Perkins Restaurant and Bakery", "NY95645", "Amsterdam", "NY", "7603162713", "22 Essex Lane", 3, "080000", "130000"
"Perkins Restaurant and Bakery", "NY95645", "Amsterdam", "NY", "7603162713", "22 Essex Lane", 4, "230000", "030000"
"Perkins Restaurant and Bakery", "NY95645", "Amsterdam", "NY", "7603162713", "22 Essex Lane", 5, "080000", "130000"
"Perkins Restaurant and Bakery", "NY95645", "Amsterdam", "NY", "7603162713", "22 Essex Lane", 6, "080000", "130000"
"Perkins Restaurant and Bakery", "NY95645", "Amsterdam", "NY", "7603162713", "22 Essex Lane", 7, "080000", "130000"
"Johnny Rockets", "NC96249", "Greenville", "NC", "3942376654", "94 South Saxton Dr.", 1, "150000", "200000"
"Johnny Rockets", "NC96249", "Greenville", "NC", "3942376654", "94 South Saxton Dr.", 2, "150000", "200000"
"Johnny Rockets", "NC96249", "Greenville", "NC", "3942376654", "94 South Saxton Dr.", 3, "150000", "200000"
"Johnny Rockets", "NC96249", "Greenville", "NC", "3942376654", "94 South Saxton Dr.", 4, "150000", "200000"
"Johnny Rockets", "NC96249", "Greenville", "NC", "3942376654", "94 South Saxton Dr.", 5, "150000", "200000"
"Johnny Rockets", "NC96249", "Greenville", "NC", "3942376654", "94 South Saxton Dr.", 6, "150000", "200000"
"Johnny Rockets", "NC96249", "Greenville", "NC", "3942376654", "94 South Saxton Dr.", 7, "150000", "200000"
"Charlie Brown's Steakhouse", "PA41137", "Bethel Park", "PA", "8749811305", "38 Gates St.", 1, "200000", "020000"
"Charlie Brown's Steakhouse", "PA41137", "Bethel Park", "PA", "8749811305", "38 Gates St.", 2, "200000", "020000"
"Charlie Brown's Steakhouse", "PA41137", "Bethel Park", "PA", "8749811305", "38 Gates St.", 3, "200000", "020000"
"Charlie Brown's Steakhouse", "PA41137", "Bethel Park", "PA", "8749811305", "38 Gates St.", 4, "200000", "020000"
"Charlie Brown's Steakhouse", "PA41137", "Bethel Park", "PA", "8749811305", "38 Gates St.", 5, "200000", "020000"
"Charlie Brown's Steakhouse", "PA41137", "Bethel Park", "PA", "8749811305", "38 Gates St.", 6, "200000", "020000"
"Charlie Brown's Steakhouse", "PA41137", "Bethel Park", "PA", "8749811305", "38 Gates St.", 7, "200000", "020000"
"Steak 'n Shake", "MN83348", "Owatonna", "MN", "9353046978", "875 Cedar Drive", 1, "160000", "020000"
"Steak 'n Shake", "MN83348", "Owatonna", "MN", "9353046978", "875 Cedar Drive", 2, "160000", "020000"
"Steak 'n Shake", "MN83348", "Owatonna", "MN", "9353046978", "875 Cedar Drive", 3, "200000", "020000"
"Steak 'n Shake", "MN83348", "Owatonna", "MN", "9353046978", "875 Cedar Drive", 4, "160000", "020000"
"Steak 'n Shake", "MN83348", "Owatonna", "MN", "9353046978", "875 Cedar Drive", 5, "160000", "020000"
"Steak 'n Shake", "MN83348", "Owatonna", "MN", "9353046978", "875 Cedar Drive", 6, "160000", "020000"
"Steak 'n Shake", "MN83348", "Owatonna", "MN", "9353046978", "875 Cedar Drive", 7, "160000", "020000"
"The Old Spaghetti Factory", "FL43096", "Land O Lakes", "FL", "2708507306", "830 Delaware Street", 1, "160000", "020000"
"The Old Spaghetti Factory", "FL43096", "Land O Lakes", "FL", "2708507306", "830 Delaware Street", 2, "160000", "020000"
"The Old Spaghetti Factory", "FL43096", "Land O Lakes", "FL", "2708507306", "830 Delaware Street", 3, "160000", "020000"
"The Old Spaghetti Factory", "FL43096", "Land O Lakes", "FL", "2708507306", "830 Delaware Street", 4, "160000", "020000"
"The Old Spaghetti Factory", "FL43096", "Land O Lakes", "FL", "2708507306", "830 Delaware Street", 5, "160000", "020000"
"The Old Spaghetti Factory", "FL43096", "Land O Lakes", "FL", "2708507306", "830 Delaware Street", 6, "160000", "020000"
"The Old Spaghetti Factory", "FL43096", "Land O Lakes", "FL", "2708507306", "830 Delaware Street", 7, "160000", "020000"
"Bob Evans Restaurants", "MI34647", "Southgate", "MI", "6994922378", "670 Ramblewood Ave.", 1, "150000", "210000"
"Bob Evans Restaurants", "MI34647", "Southgate", "MI", "6994922378", "670 Ramblewood Ave.", 2, "150000", "210000"
"Bob Evans Restaurants", "MI34647", "Southgate", "MI", "6994922378", "670 Ramblewood Ave.", 3, "150000", "210000"
"Bob Evans Restaurants", "MI34647", "Southgate", "MI", "6994922378", "670 Ramblewood Ave.", 4, "150000", "210000"
"Bob Evans Restaurants", "MI34647", "Southgate", "MI", "6994922378", "670 Ramblewood Ave.", 5, "150000", "210000"
"Bob Evans Restaurants", "MI34647", "Southgate", "MI", "6994922378", "670 Ramblewood Ave.", 6, "150000", "210000"
"Bob Evans Restaurants", "MI34647", "Southgate", "MI", "6994922378", "670 Ramblewood Ave.", 7, "150000", "210000"
"Boston Market", "IL90829", "Dekalb", "IL", "9358238513", "86 Airport Street", 1, "150000", "010000"
"Boston Market", "IL90829", "Dekalb", "IL", "9358238513", "86 Airport Street", 2, "150000", "010000"
"Boston Market", "IL90829", "Dekalb", "IL", "9358238513", "86 Airport Street", 3, "150000", "010000"
"Boston Market", "IL90829", "Dekalb", "IL", "9358238513", "86 Airport Street", 4, "150000", "010000"
"Boston Market", "IL90829", "Dekalb", "IL", "9358238513", "86 Airport Street", 5, "150000", "010000"
"Boston Market", "IL90829", "Dekalb", "IL", "9358238513", "86 Airport Street", 6, "150000", "010000"
"Boston Market", "IL90829", "Dekalb", "IL", "9358238513", "86 Airport Street", 7, "150000", "010000"
"Lone Star Steakhouse & Saloon", "FL58691", "Haines City", "FL", "7475543943", "859 Golf Avenue", 1, "080000", "230000"
"Lone Star Steakhouse & Saloon", "FL58691", "Haines City", "FL", "7475543943", "859 Golf Avenue", 2, "080000", "230000"
"Lone Star Steakhouse & Saloon", "FL58691", "Haines City", "FL", "7475543943", "859 Golf Avenue", 3, "080000", "230000"
"Lone Star Steakhouse & Saloon", "FL58691", "Haines City", "FL", "7475543943", "859 Golf Avenue", 4, "080000", "230000"
"Lone Star Steakhouse & Saloon", "FL58691", "Haines City", "FL", "7475543943", "859 Golf Avenue", 5, "080000", "230000"
"Lone Star Steakhouse & Saloon", "FL58691", "Haines City", "FL", "7475543943", "859 Golf Avenue", 6, "080000", "230000"
"Lone Star Steakhouse & Saloon", "FL58691", "Haines City", "FL", "7475543943", "859 Golf Avenue", 7, "080000", "230000"
"Bertucci's", "MN24012", "Rosemount", "MN", "3242932329", "49 Mayfield Drive", 1, "220000", "020000"
"Bertucci's", "MN24012", "Rosemount", "MN", "3242932329", "49 Mayfield Drive", 2, "220000", "020000"
"Bertucci's", "MN24012", "Rosemount", "MN", "3242932329", "49 Mayfield Drive", 3, "130000", "170000"
"Bertucci's", "MN24012", "Rosemount", "MN", "3242932329", "49 Mayfield Drive", 4, "220000", "020000"
"Bertucci's", "MN24012", "Rosemount", "MN", "3242932329", "49 Mayfield Drive", 5, "220000", "020000"
"Bertucci's", "MN24012", "Rosemount", "MN", "3242932329", "49 Mayfield Drive", 6, "220000", "020000"
"Bertucci's", "MN24012", "Rosemount", "MN", "3242932329", "49 Mayfield Drive", 7, "220000", "020000"
"Carrabba's Italian Grill", "NJ79173", "Morristown", "NJ", "8364982102", "60 Lakewood Ave.", 1, "150000", "000000"
"Carrabba's Italian Grill", "NJ79173", "Morristown", "NJ", "8364982102", "60 Lakewood Ave.", 2, "150000", "000000"
"Carrabba's Italian Grill", "NJ79173", "Morristown", "NJ", "8364982102", "60 Lakewood Ave.", 3, "150000", "000000"
"Carrabba's Italian Grill", "NJ79173", "Morristown", "NJ", "8364982102", "60 Lakewood Ave.", 4, "150000", "000000"
"Carrabba's Italian Grill", "NJ79173", "Morristown", "NJ", "8364982102", "60 Lakewood Ave.", 5, "150000", "000000"
"Carrabba's Italian Grill", "NJ79173", "Morristown", "NJ", "8364982102", "60 Lakewood Ave.", 6, "150000", "000000"
"Carrabba's Italian Grill", "NJ79173", "Morristown", "NJ", "8364982102", "60 Lakewood Ave.", 7, "150000", "000000"
"Waffle House", "NJ27287", "Williamstown", "NJ", "3846201583", "7740 Hudson Ave.", 1, "090000", "150000"
"Waffle House", "NJ27287", "Williamstown", "NJ", "3846201583", "7740 Hudson Ave.", 2, "090000", "150000"
"Waffle House", "NJ27287", "Williamstown", "NJ", "3846201583", "7740 Hudson Ave.", 3, "090000", "150000"
"Waffle House", "NJ27287", "Williamstown", "NJ", "3846201583", "7740 Hudson Ave.", 4, "090000", "150000"
"Waffle House", "NJ27287", "Williamstown", "NJ", "3846201583", "7740 Hudson Ave.", 5, "090000", "150000"
"Waffle House", "NJ27287", "Williamstown", "NJ", "3846201583", "7740 Hudson Ave.", 6, "090000", "150000"
"Waffle House", "NJ27287", "Williamstown", "NJ", "3846201583", "7740 Hudson Ave.", 7, "090000", "150000"
"Big Boy", "SC25119", "Mount Pleasant", "SC", "6465029957", "911 Sunset Court", 1, "060000", "140000"
"Big Boy", "SC25119", "Mount Pleasant", "SC", "6465029957", "911 Sunset Court", 2, "060000", "140000"
"Big Boy", "SC25119", "Mount Pleasant", "SC", "6465029957", "911 Sunset Court", 3, "060000", "140000"
"Big Boy", "SC25119", "Mount Pleasant", "SC", "6465029957", "911 Sunset Court", 4, "060000", "140000"
"Big Boy", "SC25119", "Mount Pleasant", "SC", "6465029957", "911 Sunset Court", 5, "160000", "040000"
"Big Boy", "SC25119", "Mount Pleasant", "SC", "6465029957", "911 Sunset Court", 6, "060000", "140000"
"Big Boy", "SC25119", "Mount Pleasant", "SC", "6465029957", "911 Sunset Court", 7, "060000", "140000"
"Chili's", "TN62555", "Elizabethton", "TN", "3619156824", "86 Edgefield Street", 1, "160000", "230000"
"Chili's", "TN62555", "Elizabethton", "TN", "3619156824", "86 Edgefield Street", 2, "160000", "230000"
"Chili's", "TN62555", "Elizabethton", "TN", "3619156824", "86 Edgefield Street", 3, "160000", "230000"
"Chili's", "TN62555", "Elizabethton", "TN", "3619156824", "86 Edgefield Street", 4, "150000", "030000"
"Chili's", "TN62555", "Elizabethton", "TN", "3619156824", "86 Edgefield Street", 5, "150000", "030000"
"Chili's", "TN62555", "Elizabethton", "TN", "3619156824", "86 Edgefield Street", 6, "160000", "230000"
"Chili's", "TN62555", "Elizabethton", "TN", "3619156824", "86 Edgefield Street", 7, "160000", "230000"
"Friendly's", "CA79945", "San Carlos", "CA", "3694353488", "52 Windfall Street", 1, "160000", "200000"
"Friendly's", "CA79945", "San Carlos", "CA", "3694353488", "52 Windfall Street", 2, "160000", "200000"
"Friendly's", "CA79945", "San Carlos", "CA", "3694353488", "52 Windfall Street", 3, "150000", "220000"
"Friendly's", "CA79945", "San Carlos", "CA", "3694353488", "52 Windfall Street", 4, "160000", "200000"
"Friendly's", "CA79945", "San Carlos", "CA", "3694353488", "52 Windfall Street", 5, "120000", "160000"
"Friendly's", "CA79945", "San Carlos", "CA", "3694353488", "52 Windfall Street", 6, "160000", "200000"
"Friendly's", "CA79945", "San Carlos", "CA", "3694353488", "52 Windfall Street", 7, "120000", "160000"
"Bahama Breeze", "IN97679", "Goshen", "IN", "9879372443", "7144 South Lane", 1, "190000", "230000"
"Bahama Breeze", "IN97679", "Goshen", "IN", "9879372443", "7144 South Lane", 2, "190000", "230000"
"Bahama Breeze", "IN97679", "Goshen", "IN", "9879372443", "7144 South Lane", 3, "190000", "230000"
"Bahama Breeze", "IN97679", "Goshen", "IN", "9879372443", "7144 South Lane", 4, "190000", "230000"
"Bahama Breeze", "IN97679", "Goshen", "IN", "9879372443", "7144 South Lane", 5, "190000", "230000"
"Bahama Breeze", "IN97679", "Goshen", "IN", "9879372443", "7144 South Lane", 6, "190000", "230000"
"Bahama Breeze", "IN97679", "Goshen", "IN", "9879372443", "7144 South Lane", 7, "190000", "230000"
"P. F. Chang's China Bistro", "NC87644", "Gastonia", "NC", "6602079069", "75 North Birchpond Ave.", 1, "170000", "220000"
"P. F. Chang's China Bistro", "NC87644", "Gastonia", "NC", "6602079069", "75 North Birchpond Ave.", 2, "170000", "220000"
"P. F. Chang's China Bistro", "NC87644", "Gastonia", "NC", "6602079069", "75 North Birchpond Ave.", 3, "170000", "220000"
"P. F. Chang's China Bistro", "NC87644", "Gastonia", "NC", "6602079069", "75 North Birchpond Ave.", 4, "170000", "220000"
"P. F. Chang's China Bistro", "NC87644", "Gastonia", "NC", "6602079069", "75 North Birchpond Ave.", 5, "170000", "220000"
"P. F. Chang's China Bistro", "NC87644", "Gastonia", "NC", "6602079069", "75 North Birchpond Ave.", 6, "170000", "220000"
"P. F. Chang's China Bistro", "NC87644", "Gastonia", "NC", "6602079069", "75 North Birchpond Ave.", 7, "170000", "220000"
"Seor Frog's", "MI35825", "Lapeer", "MI", "3995891894", "477 Andover Dr.", 1, "170000", "220000"
"Seor Frog's", "MI35825", "Lapeer", "MI", "3995891894", "477 Andover Dr.", 2, "170000", "220000"
"Seor Frog's", "MI35825", "Lapeer", "MI", "3995891894", "477 Andover Dr.", 3, "170000", "220000"
"Seor Frog's", "MI35825", "Lapeer", "MI", "3995891894", "477 Andover Dr.", 4, "170000", "220000"
"Seor Frog's", "MI35825", "Lapeer", "MI", "3995891894", "477 Andover Dr.", 5, "170000", "220000"
"Seor Frog's", "MI35825", "Lapeer", "MI", "3995891894", "477 Andover Dr.", 6, "170000", "220000"
"Seor Frog's", "MI35825", "Lapeer", "MI", "3995891894", "477 Andover Dr.", 7, "170000", "220000"
"Romano's Macaroni Grill", "MA56392", "Peabody", "MA", "5918358759", "269 Gulf Rd.", 1, "090000", "170000"
"Romano's Macaroni Grill", "MA56392", "Peabody", "MA", "5918358759", "269 Gulf Rd.", 2, "090000", "170000"
"Romano's Macaroni Grill", "MA56392", "Peabody", "MA", "5918358759", "269 Gulf Rd.", 3, "090000", "170000"
"Romano's Macaroni Grill", "MA56392", "Peabody", "MA", "5918358759", "269 Gulf Rd.", 4, "090000", "170000"
"Romano's Macaroni Grill", "MA56392", "Peabody", "MA", "5918358759", "269 Gulf Rd.", 5, "090000", "170000"
"Romano's Macaroni Grill", "MA56392", "Peabody", "MA", "5918358759", "269 Gulf Rd.", 6, "090000", "170000"
"Romano's Macaroni Grill", "MA56392", "Peabody", "MA", "5918358759", "269 Gulf Rd.", 7, "090000", "170000"
"Quaker Steak & Lube", "NJ25064", "Manahawkin", "NJ", "9045083143", "247 Wild Rose St.", 1, "180000", "230000"
"Quaker Steak & Lube", "NJ25064", "Manahawkin", "NJ", "9045083143", "247 Wild Rose St.", 2, "180000", "230000"
"Quaker Steak & Lube", "NJ25064", "Manahawkin", "NJ", "9045083143", "247 Wild Rose St.", 3, "180000", "230000"
"Quaker Steak & Lube", "NJ25064", "Manahawkin", "NJ", "9045083143", "247 Wild Rose St.", 4, "180000", "230000"
"Quaker Steak & Lube", "NJ25064", "Manahawkin", "NJ", "9045083143", "247 Wild Rose St.", 5, "180000", "230000"
"Quaker Steak & Lube", "NJ25064", "Manahawkin", "NJ", "9045083143", "247 Wild Rose St.", 6, "180000", "230000"
"Quaker Steak & Lube", "NJ25064", "Manahawkin", "NJ", "9045083143", "247 Wild Rose St.", 7, "180000", "230000"
"Black Angus Steakhouse", "IL22252", "Hoffman Estates", "IL", "6204792142", "40 New Road", 1, "160000", "220000"
"Black Angus Steakhouse", "IL22252", "Hoffman Estates", "IL", "6204792142", "40 New Road", 2, "170000", "000000"
"Black Angus Steakhouse", "IL22252", "Hoffman Estates", "IL", "6204792142", "40 New Road", 3, "170000", "000000"
"Black Angus Steakhouse", "IL22252", "Hoffman Estates", "IL", "6204792142", "40 New Road", 4, "170000", "000000"
"Black Angus Steakhouse", "IL22252", "Hoffman Estates", "IL", "6204792142", "40 New Road", 5, "170000", "000000"
"Black Angus Steakhouse", "IL22252", "Hoffman Estates", "IL", "6204792142", "40 New Road", 6, "170000", "000000"
"Black Angus Steakhouse", "IL22252", "Hoffman Estates", "IL", "6204792142", "40 New Road", 7, "170000", "000000"
"Outback Steakhouse", "WV43161", "Morgantown", "WV", "7864082102", "772 E. Brickell Ave.", 1, "150000", "030000"
"Outback Steakhouse", "WV43161", "Morgantown", "WV", "7864082102", "772 E. Brickell Ave.", 2, "150000", "030000"
"Outback Steakhouse", "WV43161", "Morgantown", "WV", "7864082102", "772 E. Brickell Ave.", 3, "150000", "030000"
"Outback Steakhouse", "WV43161", "Morgantown", "WV", "7864082102", "772 E. Brickell Ave.", 4, "170000", "010000"
"Outback Steakhouse", "WV43161", "Morgantown", "WV", "7864082102", "772 E. Brickell Ave.", 5, "150000", "030000"
"Outback Steakhouse", "WV43161", "Morgantown", "WV", "7864082102", "772 E. Brickell Ave.", 6, "150000", "030000"
"Outback Steakhouse", "WV43161", "Morgantown", "WV", "7864082102", "772 E. Brickell Ave.", 7, "150000", "030000"
"BJ's Restaurant & Brewery", "KY13263", "Louisville", "KY", "5273608680", "370 Bayport Court", 1, "080000", "200000"
"BJ's Restaurant & Brewery", "KY13263", "Louisville", "KY", "5273608680", "370 Bayport Court", 2, "080000", "200000"
"BJ's Restaurant & Brewery", "KY13263", "Louisville", "KY", "5273608680", "370 Bayport Court", 3, "080000", "200000"
"BJ's Restaurant & Brewery", "KY13263", "Louisville", "KY", "5273608680", "370 Bayport Court", 4, "080000", "200000"
"BJ's Restaurant & Brewery", "KY13263", "Louisville", "KY", "5273608680", "370 Bayport Court", 5, "080000", "200000"
"BJ's Restaurant & Brewery", "KY13263", "Louisville", "KY", "5273608680", "370 Bayport Court", 6, "080000", "200000"
"BJ's Restaurant & Brewery", "KY13263", "Louisville", "KY", "5273608680", "370 Bayport Court", 7, "080000", "200000"
"Pei Wei Asian Diner", "MI78785", "Grandville", "MI", "3603391599", "7649 E. Sunnyslope Ave.", 1, "060000", "220000"
"Pei Wei Asian Diner", "MI78785", "Grandville", "MI", "3603391599", "7649 E. Sunnyslope Ave.", 2, "060000", "220000"
"Pei Wei Asian Diner", "MI78785", "Grandville", "MI", "3603391599", "7649 E. Sunnyslope Ave.", 3, "060000", "220000"
"Pei Wei Asian Diner", "MI78785", "Grandville", "MI", "3603391599", "7649 E. Sunnyslope Ave.", 4, "060000", "220000"
"Pei Wei Asian Diner", "MI78785", "Grandville", "MI", "3603391599", "7649 E. Sunnyslope Ave.", 5, "060000", "220000"
"Pei Wei Asian Diner", "MI78785", "Grandville", "MI", "3603391599", "7649 E. Sunnyslope Ave.", 6, "060000", "220000"
"Pei Wei Asian Diner", "MI78785", "Grandville", "MI", "3603391599", "7649 E. Sunnyslope Ave.", 7, "060000", "220000"
"Sizzler", "FL93895", "Boca Raton", "FL", "2919002811", "5 Garfield Rd.", 1, "080000", "190000"
"Sizzler", "FL93895", "Boca Raton", "FL", "2919002811", "5 Garfield Rd.", 2, "080000", "190000"
"Sizzler", "FL93895", "Boca Raton", "FL", "2919002811", "5 Garfield Rd.", 3, "080000", "190000"
"Sizzler", "FL93895", "Boca Raton", "FL", "2919002811", "5 Garfield Rd.", 4, "080000", "190000"
"Sizzler", "FL93895", "Boca Raton", "FL", "2919002811", "5 Garfield Rd.", 5, "080000", "190000"
"Sizzler", "FL93895", "Boca Raton", "FL", "2919002811", "5 Garfield Rd.", 6, "080000", "190000"
"Sizzler", "FL93895", "Boca Raton", "FL", "2919002811", "5 Garfield Rd.", 7, "080000", "190000"
"Hooters", "MI14569", "Marquette", "MI", "8512038877", "94 South Marsh St.", 1, "180000", "220000"
"Hooters", "MI14569", "Marquette", "MI", "8512038877", "94 South Marsh St.", 2, "180000", "220000"
"Hooters", "MI14569", "Marquette", "MI", "8512038877", "94 South Marsh St.", 3, "180000", "220000"
"Hooters", "MI14569", "Marquette", "MI", "8512038877", "94 South Marsh St.", 4, "180000", "220000"
"Hooters", "MI14569", "Marquette", "MI", "8512038877", "94 South Marsh St.", 5, "180000", "220000"
"Hooters", "MI14569", "Marquette", "MI", "8512038877", "94 South Marsh St.", 6, "180000", "220000"
"Hooters", "MI14569", "Marquette", "MI", "8512038877", "94 South Marsh St.", 7, "180000", "220000"
"Buffalo Wild Wings", "IA79567", "Ankeny", "IA", "9824536762", "360 St Margarets St.", 1, "200000", "000000"
"Buffalo Wild Wings", "IA79567", "Ankeny", "IA", "9824536762", "360 St Margarets St.", 2, "200000", "000000"
"Buffalo Wild Wings", "IA79567", "Ankeny", "IA", "9824536762", "360 St Margarets St.", 3, "200000", "000000"
"Buffalo Wild Wings", "IA79567", "Ankeny", "IA", "9824536762", "360 St Margarets St.", 4, "200000", "000000"
"Buffalo Wild Wings", "IA79567", "Ankeny", "IA", "9824536762", "360 St Margarets St.", 5, "200000", "000000"
"Buffalo Wild Wings", "IA79567", "Ankeny", "IA", "9824536762", "360 St Margarets St.", 6, "200000", "000000"
"Buffalo Wild Wings", "IA79567", "Ankeny", "IA", "9824536762", "360 St Margarets St.", 7, "200000", "000000"
"Joe's Crab Shack", "IN94893", "Valparaiso", "IN", "7323017664", "8277 N. Bridge Street", 1, "230000", "030000"
"Joe's Crab Shack", "IN94893", "Valparaiso", "IN", "7323017664", "8277 N. Bridge Street", 2, "230000", "030000"
"Joe's Crab Shack", "IN94893", "Valparaiso", "IN", "7323017664", "8277 N. Bridge Street", 3, "120000", "230000"
"Joe's Crab Shack", "IN94893", "Valparaiso", "IN", "7323017664", "8277 N. Bridge Street", 4, "230000", "030000"
"Joe's Crab Shack", "IN94893", "Valparaiso", "IN", "7323017664", "8277 N. Bridge Street", 5, "230000", "030000"
"Joe's Crab Shack", "IN94893", "Valparaiso", "IN", "7323017664", "8277 N. Bridge Street", 6, "230000", "030000"
"Joe's Crab Shack", "IN94893", "Valparaiso", "IN", "7323017664", "8277 N. Bridge Street", 7, "230000", "030000"
"Uno Chicago Grill", "FL51272", "Ocoee", "FL", "3515647663", "527 Iroquois Ave.", 1, "130000", "170000"
"Uno Chicago Grill", "FL51272", "Ocoee", "FL", "3515647663", "527 Iroquois Ave.", 2, "130000", "170000"
"Uno Chicago Grill", "FL51272", "Ocoee", "FL", "3515647663", "527 Iroquois Ave.", 3, "130000", "170000"
"Uno Chicago Grill", "FL51272", "Ocoee", "FL", "3515647663", "527 Iroquois Ave.", 4, "130000", "170000"
"Uno Chicago Grill", "FL51272", "Ocoee", "FL", "3515647663", "527 Iroquois Ave.", 5, "130000", "170000"
"Uno Chicago Grill", "FL51272", "Ocoee", "FL", "3515647663", "527 Iroquois Ave.", 6, "130000", "170000"
"Uno Chicago Grill", "FL51272", "Ocoee", "FL", "3515647663", "527 Iroquois Ave.", 7, "130000", "170000"
"California Pizza Kitchen", "NY77258", "Baldwin", "NY", "8418361544", "7037 Glenlake Circle", 1, "160000", "040000"
"California Pizza Kitchen", "NY77258", "Baldwin", "NY", "8418361544", "7037 Glenlake Circle", 2, "160000", "040000"
"California Pizza Kitchen", "NY77258", "Baldwin", "NY", "8418361544", "7037 Glenlake Circle", 3, "160000", "040000"
"California Pizza Kitchen", "NY77258", "Baldwin", "NY", "8418361544", "7037 Glenlake Circle", 4, "160000", "040000"
"California Pizza Kitchen", "NY77258", "Baldwin", "NY", "8418361544", "7037 Glenlake Circle", 5, "160000", "040000"
"California Pizza Kitchen", "NY77258", "Baldwin", "NY", "8418361544", "7037 Glenlake Circle", 6, "160000", "040000"
"California Pizza Kitchen", "NY77258", "Baldwin", "NY", "8418361544", "7037 Glenlake Circle", 7, "160000", "040000"
"Chipotle Mexican Grill", "OH25798", "Barberton", "OH", "5772384893", "9702 2nd St.", 1, "190000", "230000"
"Chipotle Mexican Grill", "OH25798", "Barberton", "OH", "5772384893", "9702 2nd St.", 2, "190000", "230000"
"Chipotle Mexican Grill", "OH25798", "Barberton", "OH", "5772384893", "9702 2nd St.", 3, "190000", "230000"
"Chipotle Mexican Grill", "OH25798", "Barberton", "OH", "5772384893", "9702 2nd St.", 4, "190000", "230000"
"Chipotle Mexican Grill", "OH25798", "Barberton", "OH", "5772384893", "9702 2nd St.", 5, "190000", "230000"
"Chipotle Mexican Grill", "OH25798", "Barberton", "OH", "5772384893", "9702 2nd St.", 6, "190000", "230000"
"Chipotle Mexican Grill", "OH25798", "Barberton", "OH", "5772384893", "9702 2nd St.", 7, "190000", "010000"
"Qdoba Mexican Grill", "WI42458", "Manitowoc", "WI", "6607655923", "600 Jefferson Lane", 1, "100000", "160000"
"Qdoba Mexican Grill", "WI42458", "Manitowoc", "WI", "6607655923", "600 Jefferson Lane", 2, "100000", "160000"
"Qdoba Mexican Grill", "WI42458", "Manitowoc", "WI", "6607655923", "600 Jefferson Lane", 3, "100000", "160000"
"Qdoba Mexican Grill", "WI42458", "Manitowoc", "WI", "6607655923", "600 Jefferson Lane", 4, "100000", "160000"
"Qdoba Mexican Grill", "WI42458", "Manitowoc", "WI", "6607655923", "600 Jefferson Lane", 5, "100000", "160000"
"Qdoba Mexican Grill", "WI42458", "Manitowoc", "WI", "6607655923", "600 Jefferson Lane", 6, "100000", "160000"
"Qdoba Mexican Grill", "WI42458", "Manitowoc", "WI", "6607655923", "600 Jefferson Lane", 7, "100000", "160000"
"Baja Fresh", "WI68576", "Menasha", "WI", "9864180517", "24 NE. Richardson Drive", 1, "070000", "180000"
"Baja Fresh", "WI68576", "Menasha", "WI", "9864180517", "24 NE. Richardson Drive", 2, "070000", "180000"
"Baja Fresh", "WI68576", "Menasha", "WI", "9864180517", "24 NE. Richardson Drive", 3, "070000", "180000"
"Baja Fresh", "WI68576", "Menasha", "WI", "9864180517", "24 NE. Richardson Drive", 4, "070000", "180000"
"Baja Fresh", "WI68576", "Menasha", "WI", "9864180517", "24 NE. Richardson Drive", 5, "070000", "180000"
"Baja Fresh", "WI68576", "Menasha", "WI", "9864180517", "24 NE. Richardson Drive", 6, "070000", "180000"
"Baja Fresh", "WI68576", "Menasha", "WI", "9864180517", "24 NE. Richardson Drive", 7, "070000", "180000"
"Famous Dave's", "NY57033", "Pittsford", "NY", "7314648903", "75 Cottage St.", 1, "110000", "180000"
"Famous Dave's", "NY57033", "Pittsford", "NY", "7314648903", "75 Cottage St.", 2, "110000", "180000"
"Famous Dave's", "NY57033", "Pittsford", "NY", "7314648903", "75 Cottage St.", 3, "110000", "180000"
"Famous Dave's", "NY57033", "Pittsford", "NY", "7314648903", "75 Cottage St.", 4, "110000", "180000"
"Famous Dave's", "NY57033", "Pittsford", "NY", "7314648903", "75 Cottage St.", 5, "110000", "180000"
"Famous Dave's", "NY57033", "Pittsford", "NY", "7314648903", "75 Cottage St.", 6, "110000", "180000"
"Famous Dave's", "NY57033", "Pittsford", "NY", "7314648903", "75 Cottage St.", 7, "110000", "040000"
"Golden Corral", "OH68197", "Findlay", "OH", "3608540068", "34 North Joy Ridge Ave.", 1, "140000", "010000"
"Golden Corral", "OH68197", "Findlay", "OH", "3608540068", "34 North Joy Ridge Ave.", 2, "140000", "010000"
"Golden Corral", "OH68197", "Findlay", "OH", "3608540068", "34 North Joy Ridge Ave.", 3, "140000", "010000"
"Golden Corral", "OH68197", "Findlay", "OH", "3608540068", "34 North Joy Ridge Ave.", 4, "140000", "010000"
"Golden Corral", "OH68197", "Findlay", "OH", "3608540068", "34 North Joy Ridge Ave.", 5, "140000", "010000"
"Golden Corral", "OH68197", "Findlay", "OH", "3608540068", "34 North Joy Ridge Ave.", 6, "140000", "010000"
"Golden Corral", "OH68197", "Findlay", "OH", "3608540068", "34 North Joy Ridge Ave.", 7, "180000", "220000"
"Scores", "MN58656", "Osseo", "MN", "3416346665", "9782 Green Lake St.", 1, "160000", "200000"
"Scores", "MN58656", "Osseo", "MN", "3416346665", "9782 Green Lake St.", 2, "160000", "200000"
"Scores", "MN58656", "Osseo", "MN", "3416346665", "9782 Green Lake St.", 3, "160000", "200000"
"Scores", "MN58656", "Osseo", "MN", "3416346665", "9782 Green Lake St.", 4, "160000", "200000"
"Scores", "MN58656", "Osseo", "MN", "3416346665", "9782 Green Lake St.", 5, "160000", "200000"
"Scores", "MN58656", "Osseo", "MN", "3416346665", "9782 Green Lake St.", 6, "160000", "200000"
"Scores", "MN58656", "Osseo", "MN", "3416346665", "9782 Green Lake St.", 7, "160000", "200000"
"Benihana", "IL76339", "Joliet", "IL", "6336603954", "9437 Bellevue Ave.", 1, "190000", "230000"
"Benihana", "IL76339", "Joliet", "IL", "6336603954", "9437 Bellevue Ave.", 2, "190000", "230000"
"Benihana", "IL76339", "Joliet", "IL", "6336603954", "9437 Bellevue Ave.", 3, "190000", "230000"
"Benihana", "IL76339", "Joliet", "IL", "6336603954", "9437 Bellevue Ave.", 4, "190000", "230000"
"Benihana", "IL76339", "Joliet", "IL", "6336603954", "9437 Bellevue Ave.", 5, "190000", "230000"
"Benihana", "IL76339", "Joliet", "IL", "6336603954", "9437 Bellevue Ave.", 6, "190000", "230000"
"Benihana", "IL76339", "Joliet", "IL", "6336603954", "9437 Bellevue Ave.", 7, "190000", "230000"
"Bluepoint Sage Cafe", "OH35120", "Kent", "OH", "5116729914", "787 NW. Harvey Dr.", 1, "080000", "200000"
"Bluepoint Sage Cafe", "OH35120", "Kent", "OH", "5116729914", "787 NW. Harvey Dr.", 2, "080000", "200000"
"Bluepoint Sage Cafe", "OH35120", "Kent", "OH", "5116729914", "787 NW. Harvey Dr.", 3, "080000", "200000"
"Bluepoint Sage Cafe", "OH35120", "Kent", "OH", "5116729914", "787 NW. Harvey Dr.", 4, "060000", "130000"
"Bluepoint Sage Cafe", "OH35120", "Kent", "OH", "5116729914", "787 NW. Harvey Dr.", 5, "080000", "200000"
"Bluepoint Sage Cafe", "OH35120", "Kent", "OH", "5116729914", "787 NW. Harvey Dr.", 6, "140000", "230000"
"Bluepoint Sage Cafe", "OH35120", "Kent", "OH", "5116729914", "787 NW. Harvey Dr.", 7, "080000", "200000"