name,city,state,addr,phone
"Catherine Faulkner","Covington","GA","720 Fairground Lane","6493331392"
"Clarissa Price","Niles","MI","12 North Van Dyke Avenue","6216526184"
"Marisol Duncan","New Port Richey","FL","370 Princess Rd.","2054786893"
"Helen Fuentes","Traverse City","MI","961 Gonzales Court","9403263240"
"Madyson Owen","Morton Grove","IL","802 W. Inverness Rd.","7343826424"
"Zayden Salazar","Douglasville","GA","2 Lookout Dr.","6825445879"
"Claire Hoover","Lewiston","ME","517 Longbranch St.","8265659619"
"German Nelson","Middle Village","NY","6 Brandywine St.","4645219150"
"Kara Carrillo","Sugar Land","TX","51 N. Griffin Ave.","2175819728"
"Ezra Harvey","Pelham","AL","7574 Jefferson Street","5124823912"
"Bruno Lloyd","Salem","MA","5 High Ridge Street","5633657949"
"Kenna Garza","Dorchester","MA","8823 Sunset Street","4922602680"
"Scarlet Villarreal","Amityville","NY","9 Ashley Drive","4679807033"
"Baylee Lawrence","Wakefield","MA","99 N. Sage St.","9542411898"
"Kaylynn Small","South Lyon","MI","7 Miller Avenue","9383687680"
"Aron Richards","Toms River","NJ","223 Big Rock Cove St.","5456945321"
"Aylin Gutierrez","Rocky Mount","NC","411 Fairway St.","2274198872"
"Monique Branch","New Castle","PA","40 Morris Ave.","7415658576"
"Brian Leon","Nanuet","NY","499 53rd Lane","9584664196"
"Mara Cervantes","Faribault","MN","93 N. Lookout Lane","3968344871"
"Hadassah Marsh","Cheshire","CT","25 Vine Street","8084625810"
"Lukas Stanton","Branford","CT","2 Schoolhouse Street","4578580648"
"Kamari Vargas","Hazleton","PA","7727 South Border Drive","2432995608"
"Keyon Powers","Huntington","NY","8837 Cherry Hill St.","5412430360"
"Molly Ponce","Rosedale","NY","42 Philmont Street","2033935287"
"Valentino Baldwin","Bettendorf","IA","17 Anderson Ave.","4516419302"
"Jameson Best","Clinton Township","MI","146 Victoria Dr.","5379548857"
"Toby Combs","Voorhees","NJ","39 Creek Dr.","9072109158"
"Charlotte Garrett","Ringgold","GA","942 Victoria Lane","7386641365"
"Darion Stevens","Brunswick","GA","9131 Charles Ave.","5557888446"
"Brennan Whitney","Elk River","MN","308 Griffin Lane","4155476813"
"Ralph Mathews","New Berlin","WI","52 Illinois Dr.","7639929896"
"Milagros Davidson","Canandaigua","NY","7934 Pumpkin Hill Dr.","5843915623"
"Carina Pham","Uniontown","PA","9013 East Trusel Street","4842482325"
"Luis Hunt","Wheaton","IL","22 Pumpkin Hill Lane","8412168509"
"Kyla Baird","Sylvania","OH","9498 Queen Circle","8747379970"
"Alonzo Vasquez","Euless","TX","698 West Race St.","6846126427"
"Ahmed Castillo","Apopka","FL","365 Lancaster Ave.","6905039454"
"Aniya Rangel","Hallandale","FL","4 Princess Drive","8622747750"
"Micaela Crane","Maplewood","NJ","31 Ridge St.","4464555783"
"Maliyah Good","Brandon","FL","7 Galvin Avenue","4137231888"
"Ashlynn Diaz","Manchester","NH","926 Hartford Court","3713604271"
"Paityn Jenkins","Ithaca","NY","8358 Green Hill St.","4466721592"
"Ramon Schmitt","Lumberton","NC","224 Vale St.","9347563503"
"Wendy Shepherd","Shirley","NY","47 Cardinal Dr.","4832798855"
"Curtis Richardson","Zionsville","IN","18 Orange Court","8882650317"
"Victoria Roman","Yuba City","CA","555 Valley Street","4734904071"
"Levi Walsh","Pompano Beach","FL","854 Sierra Dr.","2386046275"
"Regan Taylor","New City","NY","92 Elm St.","7943110683"
"Tianna Schmidt","Hixson","TN","404 Wintergreen Street","4369262967"
"Michelle Snyder","Bridgeport","CT","26 Gonzales Dr.","7413417936"
"Bailey Hanson","Mooresville","NC","9145 Smoky Hollow St.","2522693408"
"Brendon Silva","Hartsville","SC","8311 Prairie Street","8602052860"
"Tommy Schroeder","Mechanicsburg","PA","9537 Aspen Ave.","6523726114"
"Skyler Wall","Harrisonburg","VA","189 Alderwood Ave.","9498428044"
"Myah Walters","Anoka","MN","68 Marvon Dr.","9194293004"
"Vance Merritt","Glen Allen","VA","9687 Border Street","7246926366"
"Darryl Rosario","Carrollton","GA","242 Dunbar Drive","4658966443"
"Melissa Davenport","Lawrenceville","GA","5 Cedar Road","8036574821"
"Kyra Shannon","Solon","OH","7047 West Canal Dr.","5412878119"
"Hayden Hardy","Wilmington","MA","7007 Valley View St.","2435325518"
"Pamela Hobbs","Janesville","WI","838 W. Elizabeth Ave.","3295508004"
"Haylie Munoz","Roanoke Rapids","NC","971 Church Dr.","8683461470"
"Madalynn Flores","Paducah","KY","6 S. Greenview Drive","5155583478"
"Heaven Miles","Milledgeville","GA","276 Clay Court","6473065447"
"Alonso Park","Bethpage","NY","477 Branch Dr.","9907767383"
"Juliana Johns","Garner","NC","8902 Rockledge St.","8424950370"
"Aubree Wright","Crawfordsville","IN","7012 W. Summerhouse Ave.","3726900130"
"Kelsie Coleman","Fall River","MA","114 Pennsylvania Ave.","8098614619"
"Avah Tucker","Rahway","NJ","224 Bayport Street","9859877301"
"Kaitlyn French","Livingston","NJ","8777 Wintergreen Dr.","6564239805"
"Carleigh Gross","Amarillo","TX","354 N. Ashley St.","3337481009"
"Renee Francis","Elyria","OH","8998 West Rock Maple St.","2564578619"
"Azul Fox","Fleming Island","FL","86 Washington St.","8723173371"
"Damian Hayes","Orchard Park","NY","8 Bank Street","6488496800"
"Nikhil Middleton","Irmo","SC","39 Walt Whitman Road","8613039447"
"Elliana James","Depew","NY","3 Sage St.","7847809838"
"Adam Montes","Indianapolis","IN","9582 West Lilac Rd.","2002510266"
"Kenyon Conway","Newtown","PA","966 Goldfield Court","8316006311"
"Axel Bell","Oviedo","FL","8114 East Cypress Rd.","2325575017"
"Davis Singh","Burnsville","MN","23 Argyle Ave.","3875486983"
"Amya Dalton","Gallatin","TN","881 Circle Avenue","5032161112"
"Jaidyn Lindsey","Danvers","MA","8355 Tunnel Street","8512763957"
"Ana Randolph","Canton","GA","1 Sussex Street","3293680791"
"Tristin Cox","Brownsburg","IN","745 Trusel St.","3468822417"
"Tomas Drake","Elizabeth","NJ","592 River Lane","2762918090"
"Xavier Roth","Stevens Point","WI","45 Arcadia Lane","6385566058"
"Denise Hunter","Cranford","NJ","7296 Cedar Swamp Lane","7372101502"
"Mina Shaw","Hamburg","NY","156 Prairie Drive","6244991766"
"Jazlene Cisneros","Fargo","ND","106 Union St.","3262061950"
"Bobby Brady","Danbury","CT","572 Birchpond St.","3292116524"
"Trent Carney","Daphne","AL","1 Pulaski Court","2499451085"
"Lindsey Gallagher","Elmont","NY","9183 Yukon St.","2419952991"
"Eduardo Glover","Montgomery Village","MD","9479 Theatre Lane","7569637811"
"Kate Kennedy","North Ridgeville","OH","8389 Oklahoma Street","7034611081"
"Marcos Wallace","Bergenfield","NJ","65 Bradford Drive","5152299505"
"Precious Meadows","Hartford","CT","43 Grandrose Rd.","2519193499"
"Yamilet Murphy","New York","NY","7693 Woodsman Rd.","9989676893"
"Sanai Obrien","Hamden","CT","8566 Hill Field St.","2983352714"
"Meadow Monroe","Kings Mountain","NC","33 West Bear Hill Street","8732469158"
"Gloria Brooks","Phoenix","AZ","258 South Winchester St.","8093311923"
"Ashly Turner","Olive Branch","MS","86 Belmont Rd.","6624896098"
"Jadyn Lin","Alexandria","VA","9222 Galvin Court","8424309675"
"Dayanara Mills","Wellington","FL","82 N. High Point Dr.","4369501565"
"Ashton Olson","Chicago","IL","7229 Military St.","7346680540"
"Brooks Hull","Holland","MI","750 Cedar Swamp St.","8307360665"
"Arnav Simmons","Stuart","FL","977 Kingston Street","3657939408"
"Mireya Arroyo","Camden","NJ","27 Bohemia St.","3203679429"
"Ellie Ortega","Spring Valley","NY","944 Eagle Ave.","5136894560"
"Noemi Dickerson","Longview","TX","958 Ramblewood Dr.","6758982848"
"Kolton Hess","Nampa","ID","113 Henry Circle","2168554877"
"Mohammad Kaiser","Smithtown","NY","10 South Mulberry Drive","3663186361"
"Drew Walter","Glen Ellyn","IL","194 Hall Ave.","6126072817"
"Alfonso Foley","West Chester","PA","2 Sulphur Springs Rd.","2205091478"
"Kendra Gillespie","Hastings","MN","38 E. Philmont Road","6246959894"
"Aliyah Pace","Riverview","FL","8754 Arlington Street","6119895935"
"Lauren Rogers","Lockport","NY","7884 Swanson Ave.","8584342194"
"Vivian Hodge","Dubuque","IA","97 Brewery Dr.","3275207892"
"Carissa Mejia","Detroit","MI","1 Thatcher St.","7062321356"
"Michaela Mcbride","Alliance","OH","258 Union Drive","2178633126"
"Aryanna Fitzpatrick","Woburn","MA","8267 N. Plymouth Ave.","6066700961"
"Zackery Velazquez","Grovetown","GA","9680 S. Rocky River Ave.","6732067371"
"Gaige Campos","Chicopee","MA","7 E. Indian Spring Dr.","8456700057"
"Gary Jordan","Green Bay","WI","439 Pennington Lane","4992888991"
"Christian Willis","East Lansing","MI","8745 South Gulf St.","5464829728"
"Harper Colon","Mount Prospect","IL","442 Acacia Street","5898463223"
"Denzel Hines","New Milford","CT","37 Summer St.","4553866867"
"Nadia Reyes","Hamilton","OH","8577 Pierce Ave.","7697505676"
"Darwin Riggs","Portland","ME","79 Glendale Street","4202711515"
"Emery Ross","Perrysburg","OH","109 Thorne Ave.","5928919067"
"Karter Huffman","Missoula","MT","9780 Gates St.","5229918051"
"Ariana Allen","Tullahoma","TN","9501 Henry Smith Ave.","9349260038"
"Ryder Phelps","Kennesaw","GA","9669 West Harvey Lane","6786769435"
"Riley Kelley","Little Falls","NJ","949 Halifax St.","9639118779"
"Finn Franco","Terre Haute","IN","9392 Shore Lane","8499091668"
"Triston Lynch","Delaware","OH","652 Hall Lane","2635013511"
"Elisabeth Mullen","Quakertown","PA","802 Lafayette Drive","7367429624"
"Gracelyn Brennan","Iowa City","IA","857 Ridgewood St.","6213034921"
"Lana Tran","Eugene","OR","8218 Illinois Dr.","6738937214"
"Yusuf Oneill","Chesterfield","VA","601 Depot Road","2234883410"
"Jose Newman","Capitol Heights","MD","7306 Old Gulf Drive","3228850549"
"Joel Snow","Lutherville Timonium","MD","78 Miles Dr.","8704360390"
"Seamus Spence","Summerfield","FL","190 S. Bayport Court","8312444471"
"Kaylee Wade","Henrico","VA","84 Mayfair Drive","3294522753"
"Colin Rivera","Owosso","MI","1 Fordham Street","7824357329"
"Maximilian Lopez","Kingston","NY","332 South Valley Farms Drive","5674250138"
"Jaylon Nguyen","Long Branch","NJ","648 Sycamore Road","9033815937"
"Andrea Ho","Allison Park","PA","4 Ridgewood Street","2836523641"
"Charles Atkinson","Minneapolis","MN","708 Golf Rd.","3592053931"
"Cash Haas","Muncie","IN","44 Virginia Avenue","7339813497"
"Bruce Deleon","Stoughton","MA","9307 St Margarets Rd.","2604283861"
"Julianna Frederick","Fairfax","VA","9632 Addison St.","3728122463"
"Olivia Franklin","Chevy Chase","MD","75 Taylor Dr.","5466348282"
"Alvin Davila","Soddy Daisy","TN","10 Wagon Road","2338439731"
"Derick Sutton","District Heights","MD","933 Linden Lane","6735684393"
"Camryn Montgomery","Piscataway","NJ","971 West Tunnel Street","9956888606"
"Hannah Olsen","Griffin","GA","20 Bayport Ave.","2546642294"
"Sanaa Velez","Savannah","GA","9407 Edgemont Drive","2766951914"
"Logan Saunders","Barrington","IL","545 West Anderson St.","2302634629"
"Diana Arellano","Staunton","VA","8574 East Windfall St.","2286950941"
"Carlos Gentry","Trumbull","CT","8698 Eagle Court","3699101822"
"Marquis Wang","Oak Lawn","IL","798 Shub Farm Lane","3319025294"
"Jennifer Sims","Havertown","PA","584 Annadale St.","5656776509"
"Frederick Proctor","Rome","NY","7357 Lafayette Street","7076478559"
"Carsen Oconnor","Holyoke","MA","5 S. Pacific Lane","8963266225"
"Johnathon Russo","Old Bridge","NJ","828 Fifth Road","9568064599"
"Porter Wilkins","Levittown","NY","331 School Street","4709838966"
"Walker Mack","Melrose","MA","204 Lafayette St.","3657859598"
"Nick Pugh","Waterbury","CT","926 Pumpkin Hill St.","3464636951"
"Mitchell Peters","Cranberry Twp","PA","884 Olive Drive","6347596080"
"Brianna Jennings","Mount Vernon","NY","69 High Point Ave.","9317978402"
"Markus Herring","Taylors","SC","39 Winding Way St.","6708255184"
"Kathy Pruitt","Latrobe","PA","20 River Ave.","3135259109"
"Deanna Mason","Saint Paul","MN","557 Primrose St.","6102018024"
"Gunnar Zavala","Dedham","MA","798 Prospect Circle","7612344969"
"Blake Holland","Harrisburg","PA","7250 S. Kent Dr.","3155408072"
"Brooke Webster","Davenport","IA","619 Pennsylvania Ave.","7769512835"
"Kaitlin Byrd","Zanesville","OH","70 Riverview Dr.","5648463188"
"Finley Calderon","Yuma","AZ","912 Sussex Dr.","8652918710"
"Evelin Bush","Clementon","NJ","8171 E. 4th Street","3186907785"
"Karson Jarvis","Enterprise","AL","730 St Louis Drive","7746995353"
"Miriam Richmond","Allentown","PA","965 Laurel Drive","5029328189"
"Marilyn Bruce","Grand Forks","ND","87 Cross Court","8067270082"
"Skyla Mcintyre","Westland","MI","864 NE. Third Ave.","5954897324"
"Emmanuel Aguilar","Reno","NV","8353 Acacia St.","2446477346"
"Jamie Barnes","Smyrna","GA","7105 Glen Ridge Ave.","2984466480"
"Gabriella Carlson","Shepherdsville","KY","8880 Bridle Street","9304407799"
"Rosa Ball","Mesa","AZ","9876 Jennings Lane","5632241725"
"Gerardo Blair","Auburn","NY","77 1st Street","2155042744"
"Lailah Moss","Ypsilanti","MI","7917 E. 3rd Lane","8744804270"
"Irene Mccarty","Aiken","SC","10 San Carlos Avenue","8747185964"
"Isai Larsen","Erlanger","KY","727 Lafayette Road","7178198321"
"Tara Ballard","Oak Forest","IL","267 John Street","2475780915"
"Bridger Mcmillan","North Kingstown","RI","24 Lawrence St.","6632044515"
"Aimee Hicks","Southampton","PA","7126 South Manhattan Dr.","5867243818"
"Matteo Walls","Harleysville","PA","9560 Essex Dr.","6284097705"
"Richard Werner","Algonquin","IL","7428 N. Valley Court","4569583980"
"Moriah Kidd","Spartanburg","SC","53 Beach St.","4889341295"
"Lindsay Wagner","Ephrata","PA","70 Meadowbrook Ave.","5744330166"
"Halle Valdez","Davison","MI","9871 Westminster Street","3142008793"
"Corey Levy","Berwyn","IL","8496 Hartford Dr.","7303188477"
"Delaney Pratt","San Lorenzo","CA","8 N. Prospect Street","9048843284"
"Paris Beltran","Seymour","IN","7121 Heritage Ave.","6014461145"
"Jovani Yates","Massapequa","NY","104 E. Ridge St.","7998257489"
"Reese Griffin","Grosse Pointe","MI","7150 Glenholme Street","3572357257"
"Elsie Stein","Bloomfield","NJ","50 Linda Street","6943526409"
"Mariah Odom","Flemington","NJ","8710 Howard Dr.","8586525929"
"Josephine Holmes","Upland","CA","102 Temple St.","7408376234"
"Liana Gibbs","Huntsville","AL","76 South Holly Ave.","5203029731"
"Lamar Ferguson","Roy","UT","900 Rocky River Street","2968470568"
"Graham Williams","Macon","GA","414 Prospect Street","5587095072"
"Nora Pittman","Rapid City","SD","667 White Street","2193224446"
"Royce Goodman","Williamsburg","VA","38 S. Fairfield Drive","7639483460"
"Emiliano Duffy","Mentor","OH","8858 Sunnyslope Drive","3414054518"
"Deegan Khan","Michigan City","IN","9009 Thorne St.","3388964130"
"Amber Henson","East Hartford","CT","482 Heather Avenue","2673380314"
"Kirsten Howard","Wyoming","MI","847 Fairfield Avenue","9835693849"
"Nia Jefferson","Royersford","PA","9 Linda Drive","6538546365"
"Anderson Graham","Baltimore","MD","9914 W. Rockaway Ave.","5613423163"
"Sheldon Atkins","Hobart","IN","6 Baker Ave.","6344009546"
"Susan Mayo","Yorktown","VA","973 Lafayette Street","9485621985"
"Alyssa Rasmussen","Portsmouth","VA","25 Hill Lane","2583635147"
"Sincere Villanueva","Honolulu","HI","731 Purple Finch Circle","7784008243"
"Aracely Ford","Libertyville","IL","47 Cherry Hill Ave.","9745603249"
"Leia Key","Dayton","OH","8035 SW. Cactus Dr.","9385339767"
"Alvaro Mccarthy","Omaha","NE","82 Cottage Street","4092630294"
"Rowan Shea","Fort Lauderdale","FL","851 West San Juan Drive","7522423645"
"Steve Barajas","Piedmont","SC","32 Victoria Dr.","4675659849"
"Brenton Poole","Stamford","CT","26 Briarwood Lane","6422253343"
"Frank Orr","Norwalk","CT","794 Beach St.","5375293269"
"Mark Winters","Saratoga Springs","NY","8095 Stonybrook Ave.","9694535166"
"Presley Mosley","Torrance","CA","25 Addison Ave.","7109583241"
"Teagan Hutchinson","Leominster","MA","8498 Arch Lane","3605606445"
"Rachael Newton","Stillwater","MN","55 High Point Ave.","9396383656"
"Jaylynn Farmer","Melbourne","FL","538 Bridle Dr.","2063001500"
"Jimena Solomon","Naugatuck","CT","408 Fawn St.","3607809921"
"Amara Sanchez","Bensalem","PA","203 Oak St.","8874281269"
"Alden Sanford","Greensboro","NC","9571 NE. Pierce Lane","8203045263"
"Amari Foster","Eden Prairie","MN","9429 Beach St.","2584870086"
"Kelvin Walton","New Haven","CT","9292 Fordham Ave.","3737808176"
"Trace Huff","Windermere","FL","61 Lilac Ave.","9517114799"
"Braxton Torres","Loveland","OH","407 Sutor Court","3562327452"
"Joshua Mendez","Flint","MI","883 E. Yukon Drive","5176533659"
"Alan Stanley","Sun City","AZ","7094 Campfire Avenue","8699383009"
"Kaliyah Mcgee","Indiana","PA","7783 Snake Hill Court","6655966983"
"Jayda Dyer","Lansing","MI","7345 Glen Creek Street","2999004097"
"Solomon Hogan","Nazareth","PA","745 Ramblewood Street","7768658527"
"Lewis Gallegos","Chelmsford","MA","747 Saxon St.","2332313162"
"Izabelle Duarte","North Fort Myers","FL","96 Lafayette Dr.","9784894639"
"Selena Duke","Nicholasville","KY","55 Glenwood St.","2914558286"
"Mikaela Tanner","Pleasanton","CA","85 Mayfair Drive","8552621995"
"Caroline Casey","Chester","PA","38 Rockwell Street","2668470413"
"Skyler Salas","Clarkston","MI","62 Richardson Road","6655857549"
"Daniella Webb","East Stroudsburg","PA","9985 Courtland Drive","9334436705"
"Karma Pollard","Saint Augustine","FL","8219 Bedford Lane","4532451397"
"Beckett Donaldson","Norristown","PA","9 Fordham Rd.","8608281747"
"Aiden Zimmerman","Savage","MN","351 Airport Street","8193990838"
"Gemma Montoya","Victoria","TX","9410 Vale St.","5875555698"
"Aleah Huang","Ann Arbor","MI","49 Academy Street","7555808867"
"Stephany Fernandez","Buffalo Grove","IL","7661 Fairview Road","3942965369"
"Joanna Mcguire","Harrison Township","MI","60A Clinton Dr.","7779284291"
"Noah Avila","Annandale","VA","541 Front Street","6524214279"
"Kaylin Evans","Sunnyside","NY","439 Rose Court","5578122817"
"Declan Crosby","Thornton","CO","9597 Williams Rd.","8705652493"
"Jazmin Figueroa","San Jose","CA","363 Hilldale St.","4452725551"
"Jessica Booth","Lacey","WA","719 East Princeton Dr.","2892427479"
"Alejandra Hahn","Powhatan","VA","9450 Euclid Street","4149575497"
"Devyn Dawson","Malden","MA","490 Heather St.","7639628730"
"Lorelai Holden","Severn","MD","8843 Redwood Road","2728286597"
"Isabella Lamb","Gloucester","MA","4 Westminster St.","7988098630"
"Shamar Johnston","Palm Coast","FL","7785 Cypress St.","2327414744"
"Whitney Clarke","Oak Park","MI","284 8th St.","4478840018"
"Bridget Marquez","Belleville","NJ","771 Arch Drive","3516936179"
"Travis Harmon","Owings Mills","MD","916 Blackburn Avenue","6552459082"
"Nylah Bentley","Palmetto","FL","9939 Santa Clara St.","2725174476"
"Sylvia Randall","Medford","MA","8482 Smith Store St.","9506499614"
"Keaton Greer","Irwin","PA","681 Tailwater Dr.","3645951572"
"Londyn Hancock","Hanover Park","IL","28 Halifax Rd.","2745751282"
"Izabella Gay","Pomona","CA","8670 High St.","8209301171"
"Keon West","Reidsville","NC","7157 Carson Avenue","2134387524"
"Ari Coffey","Vernon Rockville","CT","638 N. Valley View St.","8865368851"
"Julianne Thomas","Wilson","NC","11 Arnold Street","6353321523"
"Shelby Stewart","Fishers","IN","253 Orange Lane","9134860094"
"Abram Rodriguez","Bear","DE","9816 Saxon Dr.","3419319787"
"Khalil Boyle","Williamsport","PA","74 Harrison Court","8476751285"
"Kaelyn Wells","Fairborn","OH","20 Miller Ave.","5467889653"
"Raina Singleton","Fullerton","CA","57 Acacia Ave.","5979064799"
"Kane Todd","Jonesborough","TN","8381 East Fawn St.","5168439538"
"Zoey Lyons","Belmont","MA","30 Pineknoll St.","3398733365"
"Andreas Le","Rego Park","NY","9124 Lower River Street","5949690815"
"Eugene Chase","Tonawanda","NY","726 Bridge Drive","2767718662"
"Nola Potter","Chicago Heights","IL","97 Trusel Drive","5144547077"
"Jayden Arias","Marcus Hook","PA","659 Second Street","6736153807"
"Alexander Guzman","Newton","NJ","584 North Tower Rd.","6098971155"
"Madelyn Watson","Cantonment","FL","8429 Birch Hill Street","4219580917"
"Yosef Cowan","Chambersburg","PA","7427 Elm Drive","3204852542"
"Samir Rocha","Manchester Township","NJ","9479 Leeton Ridge Ave.","8115989964"
"Joaquin Conley","Worcester","MA","22 Euclid Road","5427118170"
"Jerome Butler","Centreville","VA","9082 S. High Point Street","9423883897"
"Jase Zhang","Avon Lake","OH","865 Old Jefferson Avenue","5239740580"
"Marshall Leach","Central Islip","NY","949 Littleton Street","9092971158"
"Bria Banks","Fenton","MI","965 Illinois Street","3938078832"
"Eileen Mcdonald","Lakeville","MN","2 Glen Creek St.","4946352323"
"Skylar Estrada","Stockbridge","GA","8947 E. Hudson Street","5554243591"
"Laci Underwood","Hartselle","AL","45 Meadow Court","3895225653"
"David Bryan","West Fargo","ND","83 Prairie St.","8635991545"
"Lilyana Freeman","Titusville","FL","402 Annadale Dr.","5712788910"
"Jaydon Krause","Norwood","MA","7176 N. Alderwood St.","8805705340"
"Sophia Lozano","Elizabethtown","PA","30 Myrtle Dr.","7658737726"
"Kamren Payne","Mundelein","IL","13 Valley View Circle","9804122560"
"Guadalupe Chung","Olympia","WA","394 Lakeview St.","5954604121"
"Ramiro Watkins","Temple Hills","MD","84 South Gulf Road","7223256166"
"Lizbeth Terry","Ontario","CA","922 1st Court","9347663169"
"Samson Nicholson","Houston","TX","671 NE. Military St.","7412892282"
"Taylor Cook","Huntington Station","NY","48 Wild Horse Lane","8766960202"
"Brodie Nunez","Dublin","GA","8659 Penn Circle","5345936403"
"Dakota Cummings","Desoto","TX","54 E. Hartford St.","9152852314"
"Pranav Mcclure","Champaign","IL","5 Bowman St.","2924282680"
"Kinley Santiago","Middleburg","FL","63 Gregory St.","4867208424"
"Summer Wilkinson","Crystal Lake","IL","96 South Berkshire Dr.","6959279348"
"Annika Luna","Philadelphia","PA","340 Fairview Street","8214432654"
"Tia Townsend","Chelsea","MA","557 Foxrun Drive","6518898758"
"Ethan Harding","Braintree","MA","9766 East Second Court","6236706777"
"Drake Buckley","Winder","GA","40 West Birchwood Rd.","8053255038"
"Reuben Bowers","Hopkins","MN","91 Blue Spring Ave.","8744181685"
"Marley Bowen","West Babylon","NY","418 Carson St.","5354547374"
"Areli Skinner","Hudson","NH","995 10th Drive","5006218400"
"Quintin Peterson","Jeffersonville","IN","460 Summit Court","6792708333"
"Jagger Bright","La Vergne","TN","37 Wild Rose Lane","2267138369"
"Alisa Cohen","Fairburn","GA","174 SW. Glen Eagles Lane","3204354318"
"Celeste Dunlap","Petersburg","VA","72 Stonybrook Dr.","7392351116"
"Prince Jones","West Orange","NJ","499 North Shadow Brook Street","9167429224"
"Danielle Nielsen","Parkville","MD","7687 Harrison Road","2713550108"
"Jakob Cabrera","Sarasota","FL","686 Valley St.","8524351576"
"Riya Dean","Howell","NJ","95 Franklin Street","4688127183"
"Jamya Chang","Blackwood","NJ","92 Ridgewood Drive","7499906945"
"Kaleigh Hanna","Burlington","MA","7815 Henry Street","8435992221"
"Jorge Stevenson","Hanover","PA","31 N. Roehampton Ave.","3884034934"
"Destiny Beasley","Mechanicsville","VA","393 La Sierra Ave.","9435136756"
"Pablo Fields","Tucson","AZ","823 Wrangler Rd.","3415774506"
"Jason Gray","Grand Haven","MI","511 Gainsway St.","6937785834"
"Nicholas Daugherty","Ossining","NY","8247 Galvin Dr.","6968799887"
"Cullen Hubbard","Upper Marlboro","MD","301 Pearl Ave.","3273069230"
"Shayna Li","Lake In The Hills","IL","739 Wood Ave.","3115239689"
"Kyleigh Sheppard","Sacramento","CA","294 Fairground Drive","8995459425"
"Jalen Donovan","Danville","VA","603 3rd Street","2814044522"
"Kaley Medina","New Philadelphia","OH","8856 Atlantic Dr.","5134180380"
"Pedro Hurst","Hampton","VA","5 Delaware Lane","5923586843"
"Piper Riddle","Piqua","OH","7092 Jennings Road","4342839186"
"Raphael Christian","Westbury","NY","463 North George Drive","3208572649"
"Naomi Gomez","Beaver Falls","PA","8354 Hartford Street","7988055882"
"Laila Steele","Oswego","NY","14 Trenton Street","4588191445"
"Xiomara Sharp","Schaumburg","IL","8760 Arcadia St.","6556195802"
"Lila Bartlett","Benton Harbor","MI","9420 Addison Rd.","8802982457"
"Russell Collins","Hopkinsville","KY","5 N. San Pablo St.","4617787032"
"Kylee Oliver","Mount Laurel","NJ","696 Walnutwood St.","4253059035"
"Angie Burns","Beloit","WI","32 Birchwood Ave.","6434511534"
"Melina Glenn","Wappingers Falls","NY","367 N. South Street","8523226127"
"Lucille Swanson","Butler","PA","8190 Sherman St.","6894835459"
"Casey Patterson","Christiansburg","VA","746 W. Inverness Lane","6395600580"
"Cassie Gregory","Racine","WI","8261 North Drive","7638760417"
"Jaime Kim","Perth Amboy","NJ","7878 East Dr.","9262353681"
"Diya Gould","Hagerstown","MD","8509 Cardinal Avenue","3865244591"
"Alijah Meza","Canfield","OH","8776 Academy Lane","2613292756"
"Sydnee Ashley","Brooklyn","NY","72 N. 6th Road","7446667055"
"Trenton Manning","Chesapeake","VA","1 Fulton St.","2387525649"
"Jonathon Eaton","Rochester","NY","22 Sheffield Ave.","7749309718"
"Mia Jensen","Bristow","VA","615 Cottage Street","9384315880"
"Yasmin Nixon","Rowlett","TX","94 West Bayport Street","8109444597"
"Dante Wolfe","Auburndale","FL","7 Arrowhead Rd.","9796867300"
"Zariah Shields","Rockford","MI","56 East Magnolia Street","4242494522"
"Janet Schneider","Appleton","WI","474 Lookout Drive","2334221592"
"Katelyn Vang","Clemmons","NC","792 Summer St.","5394744296"
"Kyan Forbes","The Villages","FL","61 S. Constitution Dr.","7259527345"
"Isabell Callahan","Palos Verdes Peninsula","CA","629 George St.","5047359282"
"Monserrat Gaines","Birmingham","AL","68 Lake View Ave.","8235961432"
"Hector Bullock","Kennewick","WA","7502 Prince St.","2422136709"
"Kobe Stafford","Meriden","CT","218 Indian Summer Street","6535576330"
"Thaddeus Ortiz","Riverdale","GA","9385 North Beech Dr.","7689153849"
"Malachi Blevins","Nashville","TN","9211 Sunnyslope St.","6524426431"
"Jessie David","Hyattsville","MD","440 Rose Ave.","8036272080"
"Lincoln Lawson","Abingdon","MD","8738 S. Manhattan St.","4074468026"
"Eve Bond","Georgetown","SC","8248 Vine Avenue","4462885943"
"Magdalena Rose","Moses Lake","WA","45 Augusta St.","2055749056"
"Aiyana Ramirez","Linden","NJ","948 York Street","4033275583"
"Fatima Abbott","Vernon Hills","IL","378 Hickory Drive","4989721123"
"Rylie Houston","Billerica","MA","327 Beech Street","2486536617"
"Simeon Chen","Apex","NC","485 Pine St.","7422537861"
"Cassidy Barber","King Of Prussia","PA","9084 W. High Noon Dr.","7222197264"
"Lilly Woodard","Raleigh","NC","854 E. Washington St.","8643245367"
"Jakayla Harrington","Mebane","NC","7144 Anderson St.","6376031520"
"Luka Norton","Buckeye","AZ","158 East La Sierra Dr.","5837691526"
"Luciano Pacheco","Franklin","MA","721 Oakland Ave.","3644939872"
"Essence Ferrell","Tallahassee","FL","716 Fairway Lane","6624549850"
"Spencer Savage","Mobile","AL","30 Canterbury St.","3827117930"
"Annalise Hammond","North Attleboro","MA","7788 Bay Ave.","3266243487"
"Ainsley Mckee","Noblesville","IN","901 NE. Adams Street","2393500369"
"Alyson Madden","Orland Park","IL","34 Walnut Ave.","2984777976"
"Kameron Espinoza","Grove City","OH","9718 Princeton St.","3774226065"
"Kole Lynn","Hope Mills","NC","382 Hill Field Court","6875285217"
"Bo Mitchell","Hollis","NY","8816 Mammoth St.","5967283892"
"Aaron Tate","Round Lake","IL","819 South Overlook Street","3303286021"
"Francisco Sullivan","Garland","TX","30 Country St.","9675417368"
"Janessa Boyer","Gainesville","VA","8819 Goldfield Drive","7733695605"
"Wesley Buchanan","Potomac","MD","2 Center Drive","3956276315"
"Dwayne Hawkins","Copperas Cove","TX","98 Goldfield Circle","4696312239"
"Emilee Knox","Scarsdale","NY","499 Arcadia Ave.","2929971959"
"Felix Shelton","Reisterstown","MD","506 Woodside Road","9702740603"
"Addison Kaufman","Dearborn Heights","MI","23 Randall Mill St.","9919300523"
"Sarahi Armstrong","Powder Springs","GA","187 Stillwater St.","4837092594"
"Cassandra Elliott","Addison","IL","8694 Green Hill St.","4389714354"
"Skye Cooke","Munster","IN","820 South Heather Drive","6584789909"
"Paola Hendrix","Pearl","MS","725 Spring Rd.","4334679008"
"Brandon Prince","Uniondale","NY","7081 Theatre Street","7838959546"
"Cesar Keller","La Crosse","WI","839 East Green Lake Dr.","7842903829"
"Mira Rowe","Southington","CT","73 Lakeshore Court","2315378279"
"Reagan Dillon","Adrian","MI","475 South University Lane","8862682905"
"Yasmine Villa","Hyde Park","MA","7908 Bayport St.","4909170093"
"Milton Burton","Murrells Inlet","SC","600 N. Pacific St.","6595871076"
"Aileen Hodges","Park Forest","IL","32 Arcadia St.","5926330318"
"Heidi Glass","Elk Grove Village","IL","64 Brickyard Road","3346436888"
"Nehemiah Ayers","Merrillville","IN","28 North Gates St.","6214073720"
"Scott Barron","Roswell","GA","472 NW. Race St.","2408914673"
"Case Rios","Murfreesboro","TN","7314 Primrose Drive","6168551009"
"Shyla Wheeler","Farmingdale","NY","898 Brookside St.","5915516663"
"Dennis Simon","Wantagh","NY","9542 E. Glenlake Ave.","4928732932"
"Abigail Briggs","New Windsor","NY","8345 Tower Street","8482725917"
"Ryann Cruz","Mocksville","NC","185 Queen Circle","3767285031"
"Kayleigh Rowland","Calumet City","IL","81 Albany Drive","9196250377"
"Kennedi Mcgrath","Syosset","NY","805 East Hall Lane","6295838064"
"Emilie Kirby","Goodlettsville","TN","95 E. Pilgrim Street","9498669885"
"Lucas Novak","Corpus Christi","TX","58 Oak Lane","9387014001"
"Isla Benjamin","Salt Lake City","UT","9187 Livingston Drive","7303674957"
"Alberto Mata","Norfolk","VA","9158 Saxton Ave.","5382286071"
"Jaylin Woodward","South Portland","ME","8878 East Beacon St.","6526866731"
"Chance Mercado","Saint Petersburg","FL","8928 Green Lake Ave.","4608428441"
"Lexie Welch","Grand Island","NE","76 W. Rock Maple Drive","6754602137"
"Saniya Porter","Chillicothe","OH","7358 Liberty Ave.","3672730437"
"Jamir Whitaker","Montgomery","AL","63 Illinois Dr.","7656398111"
"Maximo Ruiz","Lewis Center","OH","786 Shirley Court","6266267065"
"Hailie Griffith","Painesville","OH","8528 Eagle Dr.","2774563285"
"Kira Mccann","Caldwell","NJ","8623 Rock Creek St.","7076004513"
"Aubrey Adkins","Feasterville Trevose","PA","89 Locust St.","9282873139"
"Kyler Booker","Butte","MT","420 George Street","5124136893"
"Kaylah Marks","Muscatine","IA","4 Amerige Street","8212450766"
"Broderick Durham","New Hyde Park","NY","28 St Louis Street","3314223515"
"Noe Gates","Natick","MA","8013 S. Augusta Dr.","2683181399"
"Isis Weiss","Beachwood","OH","7197 Constitution Street","6977467785"
"Haleigh Lee","Glastonbury","CT","21 Lees Creek Court","3885271837"
"Jazlyn Simpson","Avon","IN","7276 Gartner Street","2696090461"
"Yazmin Joyce","Peoria","IL","86 Plumb Branch Street","2537992541"
"Maribel Summers","Wasilla","AK","55 Thomas St.","5413811973"
"Damarion Kelly","Massapequa Park","NY","69 East Rockwell Street","7263511012"
"Adyson Blackburn","Circle Pines","MN","30 Old Division Drive","4295461091"
"Niko Robinson","York","PA","8069 Branch Dr.","2743728736"
"Avery Morrow","Windsor","CT","9407 Newport St.","4968372115"
"Quincy Meyers","Phoenixville","PA","264 NW. Santa Clara Dr.","7982562576"
"Lamont Shah","Madison Heights","MI","837 Mayfair Street","5692587047"
"Gillian Ward","Kalispell","MT","8909 Cambridge Ave.","2336144406"
"Marques Lane","Point Pleasant Beach","NJ","8947 East Longbranch Lane","7169253600"
"Ashanti Blanchard","Bethlehem","PA","8512 E. Jackson Dr.","9039345599"
"Elaine Dominguez","Strongsville","OH","293 Lower River Lane","7098493582"
"Aleena Jackson","North Andover","MA","951 Birchwood Ave.","2342718675"
"Trevon Howe","Jamestown","NY","719 East Annadale Dr.","6473357437"
"Callum Dickson","Fort Lee","NJ","39 Vine Court","5586884288"
"Keagan Carson","Twin Falls","ID","66 Surrey Rd.","4583945042"
"Abagail Cuevas","Paramus","NJ","901 N. Wall Street","5224599096"
"Jamiya Page","Elkhart","IN","21 N. Rosewood Street","3706763572"
"Dakota Fitzgerald","Carol Stream","IL","14 Newbridge Dr.","3119709002"
"Lillian Sloan","Irvington","NJ","279 N. Edgefield St.","2767288893"
"Jamarcus Bradley","East Elmhurst","NY","240 Elizabeth Drive","8786048790"
"Marlene Rosales","Laurel","MD","863 Mechanic Court","8688743719"
"Morgan Gamble","Encino","CA","951 SE. Pine Ave.","9278484154"
"Cristal Fry","Lenoir","NC","826 Proctor Ave.","9523128599"
"Cael Huynh","Fitchburg","MA","532 Oak Meadow Ave.","2254220526"
"Alexandria Landry","Gaithersburg","MD","5 Virginia Avenue","8967838464"
"Kaeden Vazquez","Batavia","OH","784 Circle Street","4473004784"
"Jorden Becker","Kenosha","WI","959 Hill Field St.","9243571119"
"Brennen Mcintosh","Bayside","NY","88 Arrowhead St.","8887050639"
"Victor Rhodes","Chardon","OH","9696 Lower River Street","6308021537"
"Deven Lara","West Springfield","MA","734 Mayflower Street","3936888315"
"Phillip Knight","Downers Grove","IL","723 E. Catherine Drive","8734252126"
"Colten Everett","Cookeville","TN","7696 School St.","7633560666"
"Malik Johnson","Palm City","FL","8 Glenridge Dr.","3856696335"
"Sierra Bowman","Port Huron","MI","956 Elizabeth St.","6943419563"
"Collin Morales","Moncks Corner","SC","205 S. Hilldale Dr.","5328331498"
"Leonidas Keith","West Des Moines","IA","815 Franklin Ave.","5789642002"
"Josie Holloway","Easley","SC","38 North Summit Ave.","8625049132"
"Philip Oneal","Hickory","NC","395 Lawrence Street","4648506591"
"Natalia Beck","El Dorado","AR","8776 Greenview Rd.","9072625085"
"Talia Jacobs","Glen Cove","NY","4 Prospect Street","6722370953"
"Edith Stark","West Haven","CT","777 Border Road","3392661496"
"Dale Quinn","Wilmette","IL","37 Pumpkin Hill Street","2094560808"
"Briana Alvarado","Starkville","MS","835 Bay Street","4279990111"
"Ellen Ellis","Oxon Hill","MD","8164 Poplar Ave.","4963970487"
"Braedon Mcclain","Springfield Gardens","NY","195 St Margarets Street","9345801052"
"Maggie Washington","Londonderry","NH","7509 Old York Ave.","8367996340"
"Paige Wyatt","Royal Oak","MI","3 W. Constitution Ave.","4384167681"
"Davian Benton","Loxahatchee","FL","445 Morris Dr.","3177074501"
"Emilia Mcpherson","Palm Beach Gardens","FL","32 Broad Ave.","4979170754"
"Adeline Hatfield","Hinesville","GA","435 Blue Spring Drive","7099500793"
"Jerimiah Weeks","Bemidji","MN","31 Poplar St.","8293253109"
"Ezequiel Valenzuela","Malvern","PA","14 E. Helen Road","8776416747"
"Sarah Craig","Athens","GA","7038 W. Schoolhouse Street","4253959856"
"Rhianna Schaefer","Grand Rapids","MI","228 Lincoln Ave.","3546297570"
"Norah Morris","Streamwood","IL","763 Jefferson Drive","7224828571"
"Ashlyn Hamilton","Schenectady","NY","426 North Walnut Lane","3846467711"
"Billy Mckenzie","Altamonte Springs","FL","841 Princess Street","7684220693"
"Braden Hughes","Easton","PA","493 Ridgewood Dr.","2932875729"
"Jake Decker","Des Moines","IA","7 Roehampton Dr.","4897120238"
"Celia Adams","Thomasville","NC","9257 Old Thorne Drive","3573090316"
"Nyla Dorsey","Granger","IN","28 Hickory Court","2878684099"
"Jaydin George","Clarksville","TN","492 Alderwood Dr.","6066906050"
"Lilah Dudley","Calhoun","GA","7294 Marlborough St.","4099314620"
"Giuliana Stokes","New Bern","NC","9771 Valley View St.","9283554559"
"Rowan Burke","Taunton","MA","53 Newbridge St.","2183187157"
"Ciara Yoder","Plattsburgh","NY","7981 Arlington St.","8452271128"
"Karley Pennington","Clinton","MD","29 Wellington Avenue","4694937787"
"Casey Barton","Saint Cloud","MN","137 Lakeview Court","8972095029"
"Leandro Mcconnell","Waterford","MI","719 Windsor St.","5609214490"
"Kai Villegas","Pittsfield","MA","8118 Clark St.","3137504531"
"Manuel Terrell","Washington","PA","184 Whitemarsh Street","4962515768"
"Izaiah Macdonald","Blacksburg","VA","8185 Harvard St.","5689726949"
"Alexus Moran","Wooster","OH","7 Arnold Street","4783753185"
"Gauge Melendez","Hicksville","NY","113 Annadale Dr.","4399302465"
"Gustavo Whitehead","Naples","FL","552 Sunnyslope Dr.","9178093419"
"Daniela Collier","West Islip","NY","85 Cobblestone Dr.","8089162030"
"Braylon Wilcox","Lake Villa","IL","50 South York Street","5687631386"
"Jack Brown","Chattanooga","TN","742 Beacon Drive","4168902927"
"Tobias Crawford","Lowell","MA","989 West Myrtle Ave.","6329852186"
"Maia Petty","Westfield","MA","8272 Golf Dr.","9897593656"
"Jordon Bernard","Garden City","NY","7731 Bank Street","2737042789"
"Zechariah Jimenez","Fuquay Varina","NC","7066 East Glen Ridge Street","7487163347"
"Larry Larson","Sulphur","LA","411 Old York St.","9907371859"
"Jonas Bolton","Camp Hill","PA","59 Applegate Rd.","5137164273"
"Ireland Maynard","Attleboro","MA","701 Pine St.","9017163885"
"Kolby Mays","North Haven","CT","14 E. Santa Clara Drive","4808523189"
"Kenzie Barr","Essex","MD","334 Carson Street","6413082406"
"Adriana Moore","Ottawa","IL","81 Glenlake Road","8672655212"
"Karla Hayden","Macomb","MI","557 N. Thorne Avenue","6917536475"
"Nikolai Gonzalez","Dallas","GA","240 Devonshire Street","3975771347"
"Asa Rice","Miamisburg","OH","540 East Trusel Ave.","9305939496"
"Allisson Rodgers","Frederick","MD","17 Maple Street","5986907774"
"Freddy Hopkins","Midlothian","VA","618 West Glen Creek Street","4753917508"
"Kasey Ingram","Mahwah","NJ","4 Penn St.","4145696418"
"Shannon Huerta","Sevierville","TN","978 Plumb Branch Dr.","6615900591"
"Andre Sweeney","Bay City","MI","8714 Lake Forest St.","6505869137"
"Sidney Carey","Paterson","NJ","9837 E. Arlington Dr.","8105282498"
"Alondra Delgado","Dawsonville","GA","712 Jockey Hollow St.","9328432798"
"Tiana Zamora","Antioch","TN","7375 Lees Creek Lane","7197588219"
"Dixie Ray","Plainfield","NJ","7506 Young Ave.","5827975245"
"Kiersten Giles","Wenatchee","WA","3 Ivy Lane","6327577686"
"Alexa Garcia","Kissimmee","FL","568 Studebaker Dr.","7442466217"
"Amaya Hays","Medina","OH","8 Prince Dr.","8024185386"
"Kristin Horn","Perkasie","PA","818 Sheffield Road","2668573617"
"Emery Sexton","Matawan","NJ","53 Ivy St.","5709980371"
"Anastasia Osborne","Forney","TX","34 Beaver Ridge Dr.","3362151653"
"Edward Garner","Prior Lake","MN","307 Pennsylvania Street","3866369732"
"James Hooper","Romeoville","IL","9050 Fairground Dr.","5384912948"
"Wayne Roberson","Winston Salem","NC","7705 West Glendale Lane","8943613261"
"Kiara Bray","Little Rock","AR","715 Airport Drive","7326043255"
"Brent Lowe","Pembroke Pines","FL","8372 River Ave.","5257510955"
"Houston Ayala","East Brunswick","NJ","815 Birch Hill Drive","8328766969"
"Elvis Strong","Willoughby","OH","73 Pendergast Rd.","9585496041"
"Aspen Kline","Trenton","NJ","823 Henry Lane","4078126469"
"Giovanna Alexander","Freeport","NY","95 School Circle","2348259000"
"Katrina Ritter","North Brunswick","NJ","20 W. Olive Road","5874230825"
"Jaelynn Carter","Martinsville","VA","8131 Third Rd.","6925441965"
"Damari Roberts","Venice","FL","819 Pierce St.","9707072083"
"Jonathan Marshall","Champlin","MN","90 Branch St.","9692344351"
"Ryleigh Lambert","Ridgecrest","CA","31 Woodsman Court","9154778179"
"Konnor Stuart","Sewell","NJ","7103 South Bishop St.","6652966085"
"Kevin Robles","Wisconsin Rapids","WI","9171 E. Summerhouse St.","7315760393"
"Giana Case","Natchez","MS","7693 Roosevelt Drive","7455485422"
"Esther Acosta","Hendersonville","NC","661 Oak Meadow Ave.","3979715673"
"Donna Spears","West Palm Beach","FL","165 Nichols Street","4822603693"
"Ivan Hood","Lakewood","NJ","9869 Sulphur Springs Drive","2877890175"
"Cali Noble","Arlington","MA","9862 E. Devonshire Drive","9295021582"
"Lesly Austin","Fair Lawn","NJ","737 Saxton Lane","7796783611"
"Makaila Roach","Elkridge","MD","35 Illinois Drive","4129389371"
"Anika Goodwin","Yakima","WA","92 Iroquois St.","7882729866"
"Beatrice Flowers","Dearborn","MI","7111 2nd Ave.","2684785364"
"Hayden Barrera","Eastpointe","MI","7663 Wild Horse Rd.","9963761670"
"Garrett Carr","Dundalk","MD","3 Buckingham St.","2273846234"
"Lilianna Preston","Parsippany","NJ","8387 Pleasant Court","2656571567"
"Roselyn Hernandez","Front Royal","VA","414 W. Glen Eagles St.","4433552037"
"Brenda Mcdowell","Merrick","NY","46 York Dr.","7532507350"
"Cadence Hart","Carlisle","PA","7971 Honey Creek Rd.","3408381967"
"Gunner Barrett","Rock Hill","SC","284 Roehampton Street","3664168920"
"Olive Maldonado","Hackettstown","NJ","68 South Circle Street","3269578097"
"Austin Cantrell","Ooltewah","TN","607 Amerige Ave.","5678813404"
"Keenan Cole","Youngstown","OH","861 Birchpond Ave.","5829429374"
"Tess Cherry","East Meadow","NY","971 Buckingham Ave.","6149098195"
"Elijah Gonzales","Fresh Meadows","NY","77 Country Club St.","6913829258"
"Zaria Hickman","Absecon","NJ","165 Pheasant Drive","4499924438"
"Savanna Bradshaw","Edison","NJ","9075 High St.","9704557649"
"Veronica Harrison","New Baltimore","MI","9811 North Glen Ridge St.","8458272855"
"Makenna Grant","Los Angeles","CA","5 Front Court","2048150699"
"Haiden Livingston","Marlton","NJ","8243 S. Water St.","9096318264"
"Rachel Guerrero","Conyers","GA","7042 West Pearl St.","3944407287"
"Perla Cardenas","Thibodaux","LA","89 Franklin Avenue","7022818164"
"Caylee Patel","Livonia","MI","9888 Essex St.","9157723025"
"Blaine Trevino","Westford","MA","575 Lees Creek Drive","3687142737"
"Johnathan Parker","Geneva","IL","542 Andover Ave.","2728110309"
"Mollie Sanders","Muskegon","MI","343 Summit St.","8134226496"
"Coleman Hinton","Harlingen","TX","55 Ridge Street","7019786019"
"Jaiden Vega","Independence","KY","712 Creek St.","8232863687"
"Aydin Vance","Marshalltown","IA","170 St Louis Rd.","8092888546"
"Tiara Contreras","Minot","ND","354 North Studebaker Street","9244302082"
"Joslyn Ramsey","Vienna","VA","7607 Overlook Dr.","2517473437"
"Ariella Chavez","Wake Forest","NC","471 Lake Drive","6662165175"
"Adelyn Petersen","Winter Haven","FL","8224 Rockcrest Drive","9998068730"
"Marcel Garrison","Nutley","NJ","8713 Primrose Ave.","9964645335"
"Karly Gibson","Matthews","NC","861 NW. Manor Street","8969271429"
"Jude Christensen","Deerfield","IL","626 Border Dr.","5613922067"
"Ahmad Hale","Raeford","NC","20 Hill Drive","9938875470"
"Justice Holt","Stroudsburg","PA","61 Belmont St.","3447843583"
"Mekhi Molina","Gulfport","MS","863 East Beechwood Drive","7075170900"
"Rihanna Levine","Spring Hill","FL","690 Hickory Street","3662973684"
"Vicente Cochran","South Richmond Hill","NY","9598 1st Drive","9392009748"
"Josiah Erickson","Suwanee","GA","34 NE. Cedarwood St.","2593053841"
"Mikayla Mendoza","New Albany","IN","9663 Orange Avenue","3027894959"
"Payton Velasquez","Lebanon","PA","8106 Hall Drive","7477495449"
"Timothy Orozco","Andover","MA","7244 Mill Pond Road","5696761642"
"Cloe Melton","Waltham","MA","8 Philmont St.","9144017477"
"Jaiden Palmer","Kalamazoo","MI","961 Roosevelt Street","5487948560"
"Eleanor Berger","Yonkers","NY","9116 Evergreen Rd.","2874888742"
"Cannon Wiley","Zion","IL","137 Clay Drive","6279964671"
"Leon Mcfarland","Glendale Heights","IL","7421 Wild Rose Street","9943437137"
"Cyrus Benitez","Port Richey","FL","8516 Elizabeth St.","7734012472"
"Jayce Sosa","Warner Robins","GA","7482 Shadow Brook Drive","9888708158"
"Jax Douglas","Vincentown","NJ","987 Parker Drive","6094130478"
"Emily Pitts","Coram","NY","22 Jones Avenue","4578375020"
"Amir Mclean","Mays Landing","NJ","413 Creek St.","7735374588"
"Carly Frazier","Allen Park","MI","8166 Harvard Lane","3789995298"
"Jabari Yu","Wheeling","WV","34 Berkshire Drive","4814806482"
"Azaria White","Clifton","NJ","9825 Bridle St.","2429834579"
"Rayna Williamson","Glenview","IL","8552 Livingston Road","3094434823"
"Allyson House","Brighton","MA","9118 Garfield Street","5616773213"
"Elisa Morton","Catonsville","MD","48 Nichols Ave.","6713551671"
"Kiera Pineda","Cherry Hill","NJ","60 Garfield Drive","2128127550"
"Brisa Escobar","Revere","MA","4 Canal Ave.","9539203627"
"Faith Miller","Norcross","GA","329 Manhattan Drive","9508155420"
"Stanley Clay","Bellmore","NY","18 Amherst Street","6114599249"
"Desmond Grimes","Fort Dodge","IA","8782 Meadow St.","9247099077"
"Alivia Black","Webster","NY","71 Greenrose Street","3624852698"
"Sydney Joseph","Massillon","OH","58 Sunnyslope Lane","5195064120"
"Nathan Padilla","Englewood","NJ","169 Parker Lane","8869502256"
"Brynn Carpenter","Langhorne","PA","87 Marsh Street","6353740593"
"Hailey Short","Patchogue","NY","56 Pennsylvania Drive","7509157920"
"Kael Dennis","Defiance","OH","29 St Louis Dr.","5303320969"
"Yadira Huber","Odenton","MD","4 Arnold Ave.","4419531087"
"Elliot Davies","Arlington Heights","IL","723 Rockwell Ave.","4376135301"
"Raul Valentine","Northbrook","IL","762 Baker Lane","7567235224"
"Moses Maxwell","Littleton","CO","24 Lakeview Street","7208710487"
"Giada Roy","Pikesville","MD","34 Del Monte St.","3352549915"
"Jaylyn Schwartz","Palatine","IL","316 Selby St.","6978349041"
"Leonardo Patton","Urbandale","IA","123 Court Ave.","3769432090"
"Steven Riley","Marshfield","WI","752 W. Windfall Ave.","3982814203"
"Nayeli Cooper","Anaheim","CA","927 Heather St.","8807164528"
"Lilia Hampton","Willingboro","NJ","9220 Hall Rd.","8002831830"
"Esmeralda Wood","Jupiter","FL","678 South Shady Dr.","2926392259"
"Braiden Beard","Clayton","NC","211 Wood St.","2188371800"
"Mateo Hill","Floral Park","NY","536 Nut Swamp Ave.","9479823786"
"Lorenzo Nichols","Duluth","GA","846 Pine Ave.","9004912095"
"Laylah Lam","Vicksburg","MS","98 Grand Avenue","6639481606"
"Shayla Rubio","Brookfield","WI","29 Surrey Dr.","2875308602"
"Santino Cain","Opa Locka","FL","69 Alton St.","6902634568"
"Natalya Greene","Bronx","NY","657 North Market St.","5948731035"
"Krish Bailey","Severna Park","MD","893 Morris St.","6345578736"
"June Rivers","Orlando","FL","9431 Brandywine Ave.","7404512830"
"Kayden Herrera","Sterling","VA","999 Mechanic Ave.","2764495770"
"Ishaan Mccoy","Winchester","VA","273 SE. Woodside Street","6185688729"
"Alejandro Pearson","Ashland","OH","766 Atlantic Drive","6208002037"
"Dustin Ryan","Baldwinsville","NY","855 Roosevelt Dr.","2998773041"
"Georgia Dunn","Beckley","WV","81 Foster Ave.","3482700461"
"Matthias Haley","Lorain","OH","21 Woodside Street","9138122449"
"Cooper York","Cary","NC","27 W. Strawberry Drive","8339955174"
"Rory Blake","Lake Worth","FL","107 Ridgeview Court","9359676593"
"Roberto Stout","Marysville","OH","874 SE. Hill Field Ave.","7708217733"
"Kristian Bautista","Wallingford","CT","526 West Valley Farms Dr.","5647027152"
"Abel Rojas","Memphis","TN","683 East Studebaker Avenue","9818987363"
"Nathen Lester","Homestead","FL","775 SE. Myrtle Avenue","4704377379"
"Zander Juarez","Saint Albans","NY","15 Bank St.","5044354952"
"Quentin Mcdaniel","Fort Worth","TX","7659 Gulf Dr.","7808764404"
"Karissa Koch","Woodhaven","NY","895 Campfire Court","3968733456"
"Zaire King","Silver Spring","MD","131 West Miles Lane","5695745035"
"Libby Henry","Des Plaines","IL","19 West Essex Court","6286281524"
"Rogelio Bryant","Falls Church","VA","56 Fairground St.","4197325923"
"Franco Bennett","Glasgow","KY","5 Philmont Avenue","7087736376"
"Addison Clayton","Bowie","MD","8526 Walnut Ave.","3532241554"
"Phoenix Downs","Tampa","FL","522 Pheasant St.","2854509588"
"Cortez Schultz","Wethersfield","CT","38 Valley Farms Street","9756607410"
"Hezekiah Pope","Montclair","NJ","250 Canterbury St.","8387779678"
"Leanna Arnold","Watertown","MA","779 Tanglewood Ave.","8692138738"
"Charlee Ware","Fairfield","CT","9200 Holly Rd.","8936922232"
"Elliott Patrick","Pensacola","FL","206 Creek Street","4406095713"
"Yoselin Morse","Los Banos","CA","368 North Glen Creek Street","9073610260"
"Marie Pierce","Yorktown Heights","NY","860 South Applegate Street","3696525893"
"Damien Mclaughlin","Frankfort","KY","12 Indian Summer Dr.","8129520197"
"Kaitlynn Farley","West Roxbury","MA","4 Garden Dr.","3752095790"
"Myla Mcknight","Canonsburg","PA","35 James St.","7232100963"
"Carolina Reese","San Angelo","TX","72 Thomas St.","4292551510"
"Kaya Boyd","Hightstown","NJ","513 Cedarwood St.","3133770800"
"Deja Carroll","Deland","FL","104 South Lane","8505106105"
"Danika Frost","Middletown","CT","560 Valley View Avenue","9357304768"
"Isabelle Fowler","New Bedford","MA","7552 West St.","4709505237"
"Sammy Buck","Portage","IN","602 W. Cottage Ave.","5552608169"
"Ricky Russell","Ronkonkoma","NY","33 Pennsylvania Drive","3432339868"
"Ali Matthews","Largo","FL","9503 Lawrence Rd.","4736261902"
"Jeremiah Barker","Endicott","NY","7715 Livingston Street","9444986795"
"Ivy Weaver","Fond Du Lac","WI","48 Baker St.","8433844083"
"Jaylin Baxter","Greenfield","IN","41 Third Street","7745874911"
"Yareli Fischer","Saint Joseph","MI","717 Greystone Drive","2977612412"
"Skylar Moon","Green Cove Springs","FL","8592 Delaware Street","5127226462"
"Hope Howell","Harvey","IL","684 Wagon St.","2639780791"
"Killian Logan","Woodstock","GA","7017 Gulf Rd.","6608513617"
"Danica Cline","Eastlake","OH","7595 Rose Lane","9546223870"
"Frankie Wilson","Liverpool","NY","296 Jockey Hollow St.","8998093833"
"Van Mooney","Cape Coral","FL","272 Myrtle Lane","6445604594"
"Leticia Gilbert","Saint Johns","FL","9532 Piper Ave.","5607684952"
"Adrianna Berry","Egg Harbor Township","NJ","48 Lakeview Street","9579277387"
"Marley Alvarez","Roselle","IL","593 Foxrun Circle","9214941000"
"Jordan Castaneda","Brainerd","MN","162 Depot St.","8955442081"
"Zain Phillips","Villa Rica","GA","8092 Prairie Street","6262884346"
"Kimora Mathis","Clarksburg","WV","36 Second Ave.","7489114999"
"Coby Anderson","Pittsburgh","PA","90 NW. Harrison Drive","7177225681"
"Rohan Cooley","Stratford","CT","63 Wentworth Ave.","5045679550"
"Randy Reed","Pottstown","PA","28 E. Main Street","6717311555"
"Talon Mckay","Selden","NY","35 Canal Road","4374893083"
"Kaiden Sampson","Prattville","AL","7876 N. Livingston St.","5227243177"
"Gretchen Miranda","Glendale","AZ","8863 N. Middle River Road","3132054380"
"Urijah Reid","Lawrence Township","NJ","9160 Shady Rd.","2438195976"
"Madilyn Parsons","Kokomo","IN","326 Shady Lane","9186875819"
"Iliana Strickland","Collierville","TN","291 Paris Hill Avenue","5494733566"
"Diamond Lucas","Miami Beach","FL","65 South Clinton Rd.","3824067451"
"Dalton Massey","Crofton","MD","8793 Whitemarsh Ave.","8365135864"
"Roderick Moyer","Sumter","SC","44 S. Trusel St.","4893523856"
"Destinee Mann","Oak Ridge","TN","7926 W. Peg Shop Court","6392640461"
"Allie Chan","Mason","OH","46 Prince Street","3736515459"
"Dominick Friedman","Saugus","MA","65 Summerhouse Lane","2803787215"
"Eric Dodson","Fort Walton Beach","FL","7585 East Bowman St.","5176123216"
"Taryn Warner","Indian Trail","NC","82 West Schoolhouse Street","4423058258"
"Seth Burnett","Wadsworth","OH","199 Kingston Drive","4664560127"
"Araceli Hudson","Trussville","AL","3 N. Brandywine St.","3845837720"
"Abdiel Valencia","Wausau","WI","560 Border Dr.","5547822628"
"Mary Bates","Conway","SC","790 Cherry Court","9949558836"
"Justine Bauer","Waukesha","WI","32 Brewery Road","6062108029"
"Ernest Conrad","Cumberland","RI","9425 N. Arnold Ave.","4005787292"
"Ashley Campbell","State College","PA","82 Addison Drive","8436829535"
"Jaliyah Soto","Roseville","MI","291 N. Manor Drive","7492769332"
"Fiona Norman","West Hempstead","NY","7837 Marsh Street","9814692835"
"Julien Berg","Newburgh","NY","92 Nut Swamp Lane","4546656315"
"Camryn Trujillo","Niagara Falls","NY","50 Front St.","9304711868"
"Hugo Sellers","North Miami Beach","FL","664 Locust Lane","7197019354"
"Zaiden Thornton","Providence","RI","8861 Dogwood Dr.","5862239419"
"Amina Sherman","Port Charlotte","FL","50 Wall Street","8662893943"
"Lucy Rush","Augusta","GA","902 Hanover Ave.","2123102068"
"Samantha Paul","Billings","MT","693 George Street","3927226755"
"Tyrese Galvan","Bristol","CT","7895 Poor House St.","2567463254"
"Rhett Irwin","Johnston","RI","141 Victoria St.","3047013636"
"Ian Daniels","West New York","NJ","12 Longbranch Street","9047815568"
"Ayana Day","Whitehall","PA","29 Bishop Street","4993745745"
"Soren Fritz","New Brunswick","NJ","986 Rockaway St.","3557678212"
"Rishi Aguirre","Jacksonville","NC","460 Orange Drive","2567676835"
"Elisha Costa","Ada","OK","9569 Riverside Lane","6842267222"
"Leila Rich","Crown Point","IN","35 Grand St.","5678665894"
"Caitlin Chambers","Newington","CT","9039 Gonzales Street","9222413625"
"Khloe Mccullough","Sicklerville","NJ","7782 Depot Lane","5894859030"
"Marcelo Brewer","Ashtabula","OH","475 Penn St.","3994196142"
"Krista Bonilla","Mokena","IL","7045 South Lane","8378753899"
"Rodrigo Reilly","Lafayette","IN","5 South Newcastle St.","2145988006"
"Brady Haney","Poughkeepsie","NY","417 Old York Street","9123957982"
"Kingston Guerra","Burke","VA","480 Miles Rd.","4324297518"
"Cristopher Norris","Utica","NY","9 Edgewater Drive","6105120077"
"Kian Yang","Richardson","TX","208 Jones St.","5188298775"
"Maria English","Chesterton","IN","572 E. Arrowhead Street","2808490447"
"Yurem Bass","Hialeah","FL","8957 Rockville St.","6572960712"
"Abbigail Tyler","Seattle","WA","7966 Logan Road","6236580160"
"Leo Vaughan","Tewksbury","MA","63 West Water Lane","9972220199"
"Mckayla Andrews","Satellite Beach","FL","7309 North Pulaski Ave.","2864762844"
"Demetrius Archer","Canal Winchester","OH","2 Logan Drive","8489293651"
"Elsa Long","Ravenna","OH","89 Jones St.","8516716715"
"Carmen Shepard","Neptune","NJ","716 Hillside Dr.","6759269908"
"Rayne Galloway","Forest Hills","NY","21 Pendergast Ave.","6476104260"
"Patience Brock","Westerville","OH","7241 Front Drive","5569616470"
"Jadiel Jacobson","Myrtle Beach","SC","552 Bowman Rd.","2268158834"
"Cedric Horton","South Ozone Park","NY","73 Philmont Road","3504975654"
"Deshawn Moody","Port Jefferson Station","NY","8945 Clay St.","2894756194"
"Delilah Stephens","Hummelstown","PA","593 Alderwood Ave.","8415721545"
"Heath Morgan","Riverside","NJ","8603 Lower River Dr.","7403946670"
"Barrett Tapia","South El Monte","CA","9744 Longbranch St.","2568440953"
"Aisha Charles","Kingsport","TN","5 Pearl Street","2039110565"
"Albert Solis","Eau Claire","WI","7333 West Middle River Rd.","6433072959"
"Lucia Osborn","Ashburn","VA","9311 St Louis St.","4577520479"
"Armando Kent","Jamaica Plain","MA","5 Mayfair Road","4775825219"
"Dominik Graves","Torrington","CT","143 Dogwood Ave.","8418834287"
"Jaden Hardin","Rockville Centre","NY","49 Garfield Drive","8168098428"
"Kade Hall","Monroe Township","NJ","44 N. Iroquois Dr.","3292690127"
"Annabelle Frey","Meadville","PA","8996 N. Elizabeth Dr.","5387370824"
"Marc Delacruz","Chapel Hill","NC","8558 Temple St.","2126565514"
"Isiah Sawyer","Quincy","MA","7174 East Sussex St.","7029708450"
"Hamza Peck","Lincoln","NE","688 Pennsylvania Ave.","2588259134"
"Lizeth Wise","Winter Garden","FL","790 East Bellevue St.","5717646304"
"Ariel Doyle","Waterloo","IA","399 Chapel St.","6927897790"
"Brittany Hurley","Princeton","NJ","7585 Oakwood Dr.","8839979168"
"Meredith Klein","Oxnard","CA","40 W. Market Street","8662716247"
"Lena Daniel","Niceville","FL","130 South Parker Dr.","2386970093"
"Sienna Lutz","Far Rockaway","NY","79 Pawnee Rd.","8255696611"
"Odin Owens","Muskego","WI","8905 Cardinal Dr.","4313577152"
"Preston Benson","Jenison","MI","582 SE. Meadowbrook Street","3039052223"
"Charlie Waters","Waynesboro","PA","7399 Smith Lane","3458587843"
"Livia Wilkerson","Oakland Gardens","NY","8582 Bow Ridge Rd.","3688870708"
"Salvador Mora","Lithonia","GA","187 SE. Greenrose Ave.","7152759711"
"Mercedes Acevedo","Dunedin","FL","832 Halifax Lane","7274366671"
"Scarlett Parks","Shelton","CT","972 Oak Ave.","4094086531"
"Leonard Castro","Lemont","IL","81 Newbridge Road","9783858565"
"Damion Cortez","Baton Rouge","LA","27 53rd Avenue","3323939340"
"Savion Navarro","Mason City","IA","7897 Johnson St.","2894857768"
"Micheal Dixon","Ridgefield","CT","8455 Cherry Ave.","4759667774"
"Isabela Hester","Jackson Heights","NY","7704 Arrowhead Street","2305133388"
"Breanna Young","Powell","TN","93 Bald Hill Dr.","8584252445"
"Kiley Perez","Key West","FL","449 Lexington St.","8006221445"
"Jace Martin","Lake Mary","FL","195 Deerfield St.","9793656917"
"Nevaeh Chandler","Jacksonville Beach","FL","283 Riverview Drive","9253377491"
"Lennon Church","La Porte","IN","965 Bedford St.","8152187127"
"Dashawn Perkins","Elkton","MD","52 Walnutwood Drive","7557354883"
"Reginald Frye","De Pere","WI","317 Depot Court","5488927295"
"Ally Avery","Sioux City","IA","8913 Morris Ave.","5419940700"
"Isaac Kramer","Hudsonville","MI","91 Corona Road","5755678629"
"Jonah Ibarra","Charlotte","NC","9530 Nut Swamp Street","4556648210"
"Wyatt Cunningham","Chatsworth","GA","90 Elmwood Street","2086155436"
"Cynthia Barry","Clearwater","FL","8790 Liberty Ave.","3544133573"
"Lina Caldwell","Dover","NH","7277 Winchester Dr.","5265714442"
"Ryland Clements","Duarte","CA","49 Bowman St.","3073557849"
"Armani Bridges","Tuckerton","NJ","15 Cooper Court","5962262157"
"Kaylie Hansen","Snellville","GA","866 E. Pennsylvania Dr.","9328087654"
"Tristen Thompson","Middleton","WI","181 Meadow Rd.","9135296880"
"Paula Fleming","Brockton","MA","940 Maiden Court","5947874703"
"Chana Copeland","Pataskala","OH","53 Glenholme Lane","4024351584"
"Katie Bean","Casselberry","FL","106 Coffee St.","5968790290"
"Violet Robertson","Freehold","NJ","141 W. Smith St.","7694669756"
"Joyce Romero","High Point","NC","64 Locust St.","4404760497"
"Lara Sparks","Milwaukee","WI","8972 Beacon St.","9772157642"
"Sean Anthony","Wyandotte","MI","8034 Euclid Drive","5824381326"
"Reina Browning","Bangor","ME","8694 Buckingham Court","4307299071"
"America Kane","Herndon","VA","713 Applegate Street","8095066271"
"India Lewis","Vista","CA","9616 West Marlborough Road","2789807635"
"Shaylee Kirk","Ormond Beach","FL","56 South Elmwood St.","8537414522"
"Crystal Davis","Hephzibah","GA","9333 West Greenview Rd.","3556507652"
"Mariela Hartman","Sebastian","FL","562 Pennsylvania Drive","9766959706"
"Jerry Fisher","Milton","MA","9518 West River St.","8853588165"
"Conrad Higgins","New Rochelle","NY","767 East Indian Spring Ave.","7095629530"
"Camden Blankenship","Glendora","CA","69 Border St.","7196315236"
"Roman Mcneil","Parlin","NJ","988 North Smoky Hollow Dr.","5823737687"
"Mathias Clark","Santa Cruz","CA","48 St Margarets Ave.","9302277882"
"Kailyn Murillo","West Bloomfield","MI","27 Studebaker Street","6473042601"
"Oliver Cantu","Rockaway","NJ","666 Carpenter Avenue","8849210460"
"Dana Morrison","West Warwick","RI","9192 Randall Mill Dr.","2157726848"
"Parker Myers","West Lafayette","IN","9703 Joy Ridge St.","9974574564"
"Maya Wolf","Mableton","GA","9386 Walnutwood Road","6419958869"
"Megan Watts","Rockledge","FL","554 Jackson Street","8489518949"
"Trinity Heath","Nottingham","MD","459 Ohio Street","2114143756"
"Ronin Ewing","Monsey","NY","9951 Young Court","3693654520"
"Jovanny Spencer","Palm Bay","FL","70 E. Thatcher St.","5416686661"
"Jayleen Cordova","Concord","NH","114 North Tallwood Lane","9774091102"
"Alexia Liu","Pasadena","MD","401 Southampton Court","6943280828"
"Uriel Cameron","Bozeman","MT","743 Thompson Court","6894845860"
"Makenzie Mueller","Fresno","CA","7929 Gainsway Ave.","3324825326"
"Taniya Leblanc","Sioux Falls","SD","922 Willow Court","3718704933"
"Kathleen Malone","Atlanta","GA","28 Valley Farms Dr.","6483406276"
"Octavio Lang","San Diego","CA","9264 North Academy Lane","9694184120"
"Greyson Humphrey","Marietta","GA","52 Pearl St.","5132428364"
"Bryan Scott","Orange","NJ","79 West Valley View Court","9549779120"
"London Meyer","Newport News","VA","117 4th Rd.","2099605730"
"Ernesto Chapman","Shelbyville","TN","87 Wellington Avenue","5783632835"
"Nikolas Frank","Cuyahoga Falls","OH","457 West Fifth Dr.","9613136189"
"Ayanna Raymond","Great Falls","MT","7663 Newport St.","5093597476"
"Randall Haynes","Reston","VA","921 Bradford Court","2794490204"
"Aniyah Richard","Boston","MA","933 Taylor Ave.","4474400352"
"Jakobe Ochoa","Queensbury","NY","90 W. Bridge Drive","7065986034"
"Bailee Santana","Sun Prairie","WI","68 Shadow Brook Ave.","8496664259"
"Alisha Gardner","Mankato","MN","693 Jefferson St.","8255682085"
"Addyson Barnett","Summerville","SC","7688 S. Rockcrest Lane","2097203605"
"Marissa Reeves","Culpeper","VA","729 Poplar Ave.","2154325068"
"Yaretzi Camacho","Valrico","FL","8915 Newport Street","5816391637"
"Tabitha Krueger","Cedar Rapids","IA","4 North Grandrose Ave.","4312345305"
"Jayden Curry","Oconomowoc","WI","9821 Courtland St.","2385607279"
"Trevor May","Burbank","IL","4 Trenton Lane","5452337296"
"Annabel Duran","Winona","MN","7541 Beaver Ridge Road","6599174157"
"Mila Perry","Upper Darby","PA","93 Griffin Dr.","7194410180"
"Ruben Moreno","Randallstown","MD","31 West Baker Drive","4837038596"
"Deacon Allison","Durham","NC","289 South Sleepy Hollow Ave.","8344536687"
"Theodore Cross","Midland","MI","8118 Valley View St.","3693475471"
"Erin Reynolds","Asheboro","NC","216 Mountainview Street","2624689846"
"Patrick Wong","West Deptford","NJ","649 Heritage St.","8257117334"
"Ibrahim Zuniga","Beverly","MA","907 Harvard Lane","4879611948"
"Madeleine Farrell","Roslindale","MA","15 San Carlos Rd.","4942178651"
"Dominique Bender","Snohomish","WA","146 Grove Ave.","8495516795"
"Braydon Compton","Statesville","NC","263 Inverness Rd.","8932878764"
"Jon Andrade","Suffolk","VA","17 West Cobblestone St.","6984783950"
"Yandel Michael","Gettysburg","PA","7890 Devon Street","5799811586"
"Avery Cobb","Union","NJ","782 Pheasant Ave.","7984087167"
"Alfred Brandt","Kaukauna","WI","5 Wayne Ave.","3355673204"
"Rocco Boone","Manassas","VA","319 Lower River Drive","5422805301"
"Morgan Macias","Lake Zurich","IL","816 Ashley St.","6152977698"
"Jewel Walker","Mcminnville","TN","232 Peg Shop St.","5344169065"
"Michael Floyd","Shrewsbury","MA","900 Chapel St.","9707631394"
"Gage Serrano","Winter Park","FL","30 NW. Miles Ave.","9497301647"
"Sadie Mercer","Hopewell","VA","8153 Edgefield St.","8539464966"
"Roger Rollins","Lake Jackson","TX","84 Kingston Dr.","5149414302"
"Cornelius Maddox","Clifton Park","NY","804 East Trenton Avenue","8173559362"
"Zaid Mckinney","North Olmsted","OH","8129 Third St.","2233795365"
"Kelly Stephenson","Maryville","TN","816 Vine Street","2298703914"
"Eliezer Murray","Campbell","CA","7278 Hall Street","3417140214"
"Charlie Odonnell","Peachtree City","GA","8340 Gulf Rd.","2754495396"
"Uriah Harrell","Norwich","CT","37 South Richardson Circle","8633945050"
"Darien Nash","Woodside","NY","1 Silver Spear Road","3718150761"
"Nathaniel Rivas","Somerset","NJ","7220 W. Selby St.","2689600295"
"Dulce Shaffer","Fremont","OH","9825 West Studebaker Ave.","5523560992"
"Maxwell Choi","Sandusky","OH","9983 North Mountainview St.","8182222186"
"Lauryn Burgess","Groton","CT","20 Poor House Lane","6233458879"
"Deangelo Neal","Sykesville","MD","7644 Dogwood St.","5135787798"
"Ezekiel Leonard","Fort Wayne","IN","657 Pin Oak St.","2899429494"
"Sergio Powell","Cottage Grove","MN","970 Washington St.","7807865912"
"Kendall Conner","Olney","MD","820 South Southampton Drive","5897808977"
"Clayton Esparza","Lorton","VA","9693 Oakland Ave.","8788767235"
"Quinn Edwards","Battle Ground","WA","67 Bridgeton Street","3626010485"
"Zion Gill","Oshkosh","WI","534 Pine Drive","2138338107"
"Trystan Weber","Ft Mitchell","KY","52 Deerfield Drive","9878208689"
"Rey Golden","Bradenton","FL","8473 Harvey St.","4006157777"
"Lorelei Finley","North Augusta","SC","447 Buckingham Dr.","2225929922"
"London Herman","Bardstown","KY","7424 Hanover Street","8319386100"
"Noelle Hendricks","Germantown","MD","7202 Miller Street","3919945325"
"Kallie Chaney","Santa Monica","CA","533 Church Lane","8013239219"
"Adolfo Wiggins","Erie","PA","39 Paris Hill Street","8055693720"
"Yael Hoffman","Zeeland","MI","59 Boston Lane","7609762926"
"Akira Nolan","Roanoke","VA","99 Young Lane","7087529027"
"Santos Wu","Chippewa Falls","WI","60 Lexington Street","7966673439"
"Kelton Stone","Clermont","FL","7304 Chestnut Street","6226045671"
"Daphne Green","Gurnee","IL","7 Brandywine Drive","3919800793"
"Denisse Horne","Union City","NJ","8 S. Lawrence Road","2652734856"
"Neil Ellison","Santa Clara","CA","9825 Lakeshore Ave.","2132871370"
"Hunter Hensley","Oklahoma City","OK","7473 Saxton St.","5046449771"
"Kenneth Kerr","Ottumwa","IA","53 Division Avenue","7267252156"
"Dillon Warren","South Windsor","CT","99 Randall Mill Lane","4335788008"
"Agustin Ramos","East Northport","NY","402 Lakeview St.","5474444776"
"Valery Estes","Derby","KS","9639 Theatre Drive","6602691975"
"Hanna Harper","Everett","MA","873 NW. Campfire Ave.","5854034106"
"Natalie Travis","Bluffton","SC","132 Johnson Dr.","6225169132"
"Juliet Kemp","Troy","NY","7182 Marsh Ave.","9414074632"
"Macie Lucero","Farmington","MI","48 Pulaski St.","8734819297"
"Aaden Potts","Rolla","MO","400 St Louis Dr.","8256745470"
"Finley Suarez","Lincolnton","NC","230 South Rock Creek Street","8775569217"
"Tania Vincent","Bayonne","NJ","9689 New Drive","7488456276"
"Kale Cannon","Lynnwood","WA","65 Newport Street","4029223541"
"Adriel Harris","Alpharetta","GA","888 Lees Creek Drive","8614945252"
"Giovanni Bird","New Lenox","IL","56 Hawthorne St.","5944600258"
"Baron Hebert","Lancaster","NY","69 Hanover Ave.","2366560275"
"Danny Dougherty","Deerfield Beach","FL","123 Broad Street","6718608226"
"Melanie Bradford","Huntley","IL","8879 Summerhouse Rd.","3855547492"
"Maritza Santos","Lititz","PA","8036 Fairway Ave.","3503582882"
"Mckinley Andersen","Warminster","PA","859 Park Ave.","2285040793"
"River Robbins","Derry","NH","11 Fairway Ave.","6012746634"
"Cherish Braun","Deer Park","NY","98 Manor Station Dr.","3633179605"
"Harry Mullins","Corona","NY","434 Bowman Rd.","4332108817"
"Ariel Gordon","Springfield","PA","199 Lincoln Avenue","5687424195"
"Amiya Vaughn","Lansdale","PA","8411 Oklahoma Avenue","5623070635"
"Nathaly Fuller","Anderson","SC","43 Water St.","9886582242"
"Tori Curtis","Mchenry","IL","8010 Selby Ave.","3063441294"
"Peter Gilmore","Halethorpe","MD","657 W. Sunbeam St.","7374670144"
"Danna Baker","Simpsonville","SC","63 Trenton Dr.","7937825363"
"Gaven Love","Tucker","GA","760 Bayport Street","5916351333"
"Harmony Blackwell","Woonsocket","RI","324 St Paul Street","8307814494"
"Annie Woods","Orange Park","FL","422 San Pablo Rd.","2762026538"
"Joey Mcmahon","Waukegan","IL","403 Hickory Ave.","5015887540"
"Miya Mccall","Woodbridge","VA","416 53rd Drive","2766274761"
"Clara Pena","Middle River","MD","793 Aspen Lane","5844779112"
"Kash Bishop","Passaic","NJ","8634 E. Rockledge Ave.","2775489736"
"Paul Flynn","Mansfield","MA","9 Lees Creek Street","6649657714"
"Yesenia Sandoval","Lakeland","FL","812 Arcadia Ave.","3048683858"
"Adalyn Mahoney","Garfield","NJ","776 Leatherwood Rd.","8032126128"
"Jarrett Burch","Park Ridge","IL","96 Airport Street","5095460626"
"Viviana Parrish","Englishtown","NJ","327 N. Del Monte Drive","5027825075"
"Adison Oconnell","Madisonville","KY","555 Shirley St.","9844966152"
"Jamarion Smith","Highland Park","IL","17 Garfield Street","2803520826"
"Keely Mccormick","Westmont","IL","9016 E. Homewood Lane","8402250314"
"Judah Holder","Winter Springs","FL","7548 Annadale St.","8557552753"
"Hana Little","Camas","WA","8962 N. Mayfair Rd.","6924640024"
"Jaylene Lowery","Mount Juliet","TN","65 Circle Ave.","8668973265"
"Alexis Ali","Logansport","IN","34 Wild Horse St.","8512166099"
"Angela Calhoun","Helotes","TX","487 Corona Avenue","3347687832"
"Immanuel Mayer","Shakopee","MN","492 North Walt Whitman Rd.","2902849806"
"Alayna Moses","Cumming","GA","9689 Mill Pond Court","8672281434"
"Adrienne Martinez","Miami","FL","25 Manor St.","3662678430"
"Rodney Fletcher","Inman","SC","815 Glenwood Court","8094462166"
"Mariyah Knapp","Albany","NY","953 Harvard St.","5193135433"
"Carlee Salinas","Chandler","AZ","413 County Ave.","6556110586"
"Aedan Waller","Bountiful","UT","24 Cambridge Street","3098578586"
"Frida Henderson","Rossville","GA","73 Orange Street","4426330462"